{
 "type": "FeatureCollection",
 "features": [
  {
   "type": "Feature",
   "properties": {
    "name": "에게해 — 북에게해",
    "description": "[대략] 트라키아·소아시아 북부 연안과 인접한 수역. 콘스탄티노플 포위전 당시 물자 공급 요청이 오간 바다",
    "confidence": "medium",
    "fill": "#ab47bc",
    "fill-opacity": 0.26,
    "stroke": "#7b1fa2",
    "stroke-width": 2
   },
   "geometry": {
    "type": "Polygon",
    "coordinates": [
     [
      [
       23.0,
       40.5
      ],
      [
       24.5,
       40.7
      ],
      [
       26.0,
       40.5
      ],
      [
       26.5,
       40.0
      ],
      [
       25.5,
       39.3
      ],
      [
       24.0,
       39.0
      ],
      [
       23.0,
       39.5
      ],
      [
       23.0,
       40.5
      ],
      [
       23.0,
       40.5
      ]
     ]
    ]
   }
  },
  {
   "type": "Feature",
   "properties": {
    "name": "에게해 — 남에게해 (키클라데스 제도)",
    "description": "[대략] 그리스 본토와 크레타 사이의 다도해. 무수한 섬들이 흩어져 있어 해상 교역·해적의 무대가 됨",
    "confidence": "medium",
    "fill": "#ab47bc",
    "fill-opacity": 0.26,
    "stroke": "#7b1fa2",
    "stroke-width": 2
   },
   "geometry": {
    "type": "Polygon",
    "coordinates": [
     [
      [
       23.5,
       39.0
      ],
      [
       25.0,
       38.8
      ],
      [
       26.5,
       38.5
      ],
      [
       27.5,
       37.5
      ],
      [
       27.0,
       36.5
      ],
      [
       25.5,
       36.0
      ],
      [
       24.0,
       36.3
      ],
      [
       23.0,
       37.0
      ],
      [
       22.8,
       38.0
      ],
      [
       23.5,
       39.0
      ],
      [
       23.5,
       39.0
      ]
     ]
    ]
   }
  },
  {
   "type": "Feature",
   "properties": {
    "name": "델로스",
    "description": "[무역항]  — 헬레니즘·로마 시대 지중해 최대의 노예·상품 교역 중심지",
    "marker-color": "#4a148c",
    "marker-size": "medium"
   },
   "geometry": {
    "type": "Point",
    "coordinates": [
     25.27,
     37.39
    ]
   }
  },
  {
   "type": "Feature",
   "properties": {
    "name": "사모스",
    "description": "[주요 도시]  — 소아시아 연안의 그리스계 섬 도시",
    "marker-color": "#4a148c",
    "marker-size": "medium"
   },
   "geometry": {
    "type": "Point",
    "coordinates": [
     26.97,
     37.75
    ]
   }
  },
  {
   "type": "Feature",
   "properties": {
    "name": "키오스",
    "description": "[주요 도시]  — 포도주 무역으로 유명한 에게해 섬 도시",
    "marker-color": "#4a148c",
    "marker-size": "medium"
   },
   "geometry": {
    "type": "Point",
    "coordinates": [
     26.13,
     38.37
    ]
   }
  }
 ]
}