{
 "type": "FeatureCollection",
 "features": [
  {
   "type": "Feature",
   "properties": {
    "name": "이집트 — 나일 삼각주",
    "description": "[확실] 알렉산드리아~펠루시움~카이로(멤피스)를 잇는 부채꼴 지역. 로마 속주의 행정·곡물 중심지로 경계가 명확하다",
    "confidence": "high",
    "fill": "#7b1fa2",
    "fill-opacity": 0.45,
    "stroke": "#4a148c",
    "stroke-width": 2
   },
   "geometry": {
    "type": "Polygon",
    "coordinates": [
     [
      [
       29.85,
       31.35
      ],
      [
       30.4,
       31.55
      ],
      [
       31.2,
       31.55
      ],
      [
       31.85,
       31.45
      ],
      [
       32.35,
       31.3
      ],
      [
       32.55,
       31.0
      ],
      [
       32.1,
       30.65
      ],
      [
       31.4,
       30.1
      ],
      [
       30.7,
       30.35
      ],
      [
       30.0,
       30.75
      ],
      [
       29.7,
       31.05
      ],
      [
       29.85,
       31.35
      ]
     ]
    ]
   }
  },
  {
   "type": "Feature",
   "properties": {
    "name": "이집트 — 상이집트 나일 계곡",
    "description": "[확실] 카이로에서 아스완(제1폭포)까지 나일 강을 따라 이어지는 좁고 긴 경작대. 강 양안을 따라 남북으로 그렸다",
    "confidence": "high",
    "fill": "#7b1fa2",
    "fill-opacity": 0.45,
    "stroke": "#4a148c",
    "stroke-width": 2
   },
   "geometry": {
    "type": "Polygon",
    "coordinates": [
     [
      [
       30.0,
       29.9
      ],
      [
       30.8,
       28.5
      ],
      [
       31.3,
       27.0
      ],
      [
       32.0,
       26.2
      ],
      [
       32.5,
       25.3
      ],
      [
       32.6,
       24.3
      ],
      [
       32.75,
       24.15
      ],
      [
       32.7,
       25.4
      ],
      [
       32.3,
       26.3
      ],
      [
       31.6,
       27.1
      ],
      [
       31.0,
       28.6
      ],
      [
       30.2,
       30.0
      ],
      [
       30.0,
       29.9
      ]
     ]
    ]
   }
  },
  {
   "type": "Feature",
   "properties": {
    "name": "이집트 — 서부 사막 오아시스 (시와·바하리야·파라프라·다클라·카르가)",
    "description": "[불확실] 리비아 사막의 오아시스 벨트. 로마 수비대가 드문드문 주둔했을 뿐 실효 지배선이 불명확해 대략적 띠로만 표시",
    "confidence": "low",
    "fill": "#ce93d8",
    "fill-opacity": 0.12,
    "stroke": "#ba68c8",
    "stroke-width": 1
   },
   "geometry": {
    "type": "Polygon",
    "coordinates": [
     [
      [
       24.5,
       29.5
      ],
      [
       25.0,
       27.0
      ],
      [
       25.5,
       25.3
      ],
      [
       27.5,
       24.0
      ],
      [
       31.0,
       24.3
      ],
      [
       30.0,
       26.5
      ],
      [
       29.5,
       28.0
      ],
      [
       28.0,
       29.5
      ],
      [
       26.0,
       30.0
      ],
      [
       24.5,
       29.5
      ]
     ]
    ]
   }
  },
  {
   "type": "Feature",
   "properties": {
    "name": "알렉산드리아",
    "description": "[속주 수도] 기원전 30 — 옥타비아누스가 병합, 이후 지중해 곡물 무역의 관문",
    "marker-color": "#4a148c",
    "marker-size": "medium"
   },
   "geometry": {
    "type": "Point",
    "coordinates": [
     29.9079,
     31.1982
    ]
   }
  },
  {
   "type": "Feature",
   "properties": {
    "name": "파로스 섬",
    "description": "[등대·항구] 기원전 30~ — 알렉산드리아 항의 랜드마크, 곡물선 출항지",
    "marker-color": "#4a148c",
    "marker-size": "medium"
   },
   "geometry": {
    "type": "Point",
    "coordinates": [
     29.8856,
     31.213
    ]
   }
  },
  {
   "type": "Feature",
   "properties": {
    "name": "테베",
    "description": "[상이집트 종교 중심] 고대~로마기 — 카르나크·룩소르 신전, 로마 속주기에도 순례·행정 거점",
    "marker-color": "#4a148c",
    "marker-size": "medium"
   },
   "geometry": {
    "type": "Point",
    "coordinates": [
     32.641,
     25.684
    ]
   }
  },
  {
   "type": "Feature",
   "properties": {
    "name": "아스완 제1폭포",
    "description": "[남단 국경] 고대~로마기 — 누비아와의 경계, 로마 속주 남쪽 한계선",
    "marker-color": "#4a148c",
    "marker-size": "medium"
   },
   "geometry": {
    "type": "Point",
    "coordinates": [
     32.878,
     24.078
    ]
   }
  }
 ]
}