{
 "type": "FeatureCollection",
 "features": [
  {
   "type": "Feature",
   "properties": {
    "name": "알프스 — 알프스 산맥 전역",
    "description": "[대략] 프랑스 남부(마리팀 알프스)에서 슬로베니아 접경(율리안 알프스)까지 이어지는 활 모양 산맥. 이탈리아 반도를 북유럽으로부터 가르는 자연 장벽이자, 침공하는 쪽에게는 반드시 넘어야 할 관문이었다",
    "confidence": "medium",
    "fill": "#ab47bc",
    "fill-opacity": 0.26,
    "stroke": "#7b1fa2",
    "stroke-width": 2
   },
   "geometry": {
    "type": "Polygon",
    "coordinates": [
     [
      [
       7.3,
       44.2
      ],
      [
       7.0,
       44.8
      ],
      [
       6.7,
       45.6
      ],
      [
       6.9,
       46.0
      ],
      [
       7.8,
       46.4
      ],
      [
       8.8,
       46.75
      ],
      [
       9.8,
       46.95
      ],
      [
       10.8,
       47.15
      ],
      [
       11.8,
       47.35
      ],
      [
       12.8,
       47.05
      ],
      [
       13.6,
       46.65
      ],
      [
       14.4,
       46.35
      ],
      [
       14.7,
       46.05
      ],
      [
       14.0,
       45.85
      ],
      [
       13.2,
       45.95
      ],
      [
       12.2,
       46.2
      ],
      [
       11.2,
       46.35
      ],
      [
       10.2,
       46.1
      ],
      [
       9.2,
       45.75
      ],
      [
       8.3,
       45.35
      ],
      [
       7.6,
       44.9
      ],
      [
       7.3,
       44.4
      ],
      [
       7.3,
       44.2
      ]
     ]
    ]
   }
  },
  {
   "type": "Feature",
   "properties": {
    "name": "콜 드 라 트라베르세트",
    "description": "[고개(통로)]  — 한니발이 기원전 218년 코끼리 부대와 함께 넘은 고개로 유력하게 비정되는 곳. 2016년 지질학 조사로 대규모 통행 흔적이 확인됐다",
    "marker-color": "#4a148c",
    "marker-size": "medium"
   },
   "geometry": {
    "type": "Point",
    "coordinates": [
     7.0664,
     44.7105
    ]
   }
  }
 ]
}