{
 "type": "FeatureCollection",
 "features": [
  {
   "type": "Feature",
   "properties": {
    "name": "아펜니노 산맥 — 아펜니노 산맥 전역",
    "description": "[대략] 북쪽 제노바 인근에서 남쪽 칼라브리아(반도의 '발끝')까지 이탈리아를 종단하는 산줄기. 로마가 아드리아해 쪽으로 처음 진출할 때 넘어야 했던 산맥이자, 반도 서안(로마·에트루리아·캄파니아)과 동안(아드리아 연안)을 가르는 내부 경계",
    "confidence": "medium",
    "fill": "#ab47bc",
    "fill-opacity": 0.26,
    "stroke": "#7b1fa2",
    "stroke-width": 2
   },
   "geometry": {
    "type": "Polygon",
    "coordinates": [
     [
      [
       8.4,
       44.4
      ],
      [
       9.0,
       44.2
      ],
      [
       10.0,
       43.8
      ],
      [
       11.3,
       43.4
      ],
      [
       12.1,
       43.0
      ],
      [
       12.8,
       42.5
      ],
      [
       13.3,
       41.8
      ],
      [
       13.8,
       41.3
      ],
      [
       14.4,
       40.7
      ],
      [
       15.0,
       40.0
      ],
      [
       15.3,
       39.3
      ],
      [
       15.5,
       38.6
      ],
      [
       15.5,
       38.1
      ],
      [
       16.5,
       38.1
      ],
      [
       16.5,
       38.6
      ],
      [
       16.7,
       39.3
      ],
      [
       16.2,
       40.0
      ],
      [
       15.6,
       40.7
      ],
      [
       14.9,
       41.3
      ],
      [
       14.3,
       41.8
      ],
      [
       13.8,
       42.5
      ],
      [
       13.1,
       43.0
      ],
      [
       11.0,
       43.8
      ],
      [
       10.0,
       44.2
      ],
      [
       9.2,
       44.4
      ],
      [
       8.4,
       44.4
      ]
     ]
    ]
   }
  }
 ]
}