{
 "type": "FeatureCollection",
 "features": [
  {
   "type": "Feature",
   "properties": {
    "name": "소아시아 — 서부: 아시아 속주 (에게해 연안)",
    "description": "[확실] 기원전 133년 아탈로스 3세의 유증으로 성립한 로마 최초의 아시아 속주 핵심부. 에페수스·스미르나·페르가몬 등 그리스 도시 밀집지대",
    "confidence": "high",
    "fill": "#7b1fa2",
    "fill-opacity": 0.45,
    "stroke": "#4a148c",
    "stroke-width": 2
   },
   "geometry": {
    "type": "Polygon",
    "coordinates": [
     [
      [
       27.0,
       40.3
      ],
      [
       29.3,
       40.0
      ],
      [
       29.5,
       38.5
      ],
      [
       28.5,
       36.9
      ],
      [
       27.0,
       36.8
      ],
      [
       26.2,
       38.0
      ],
      [
       26.4,
       39.3
      ],
      [
       27.0,
       40.3
      ]
     ]
    ]
   }
  },
  {
   "type": "Feature",
   "properties": {
    "name": "소아시아 — 북서부: 비티니아·폰투스 (흑해 연안)",
    "description": "[확실] 기원전 74년 비티니아 왕국 유증으로 편입, 기원전 63년 폼페이우스가 폰투스 서부를 병합해 비티니아-폰투스 속주로 통합",
    "confidence": "high",
    "fill": "#7b1fa2",
    "fill-opacity": 0.45,
    "stroke": "#4a148c",
    "stroke-width": 2
   },
   "geometry": {
    "type": "Polygon",
    "coordinates": [
     [
      [
       27.0,
       40.4
      ],
      [
       30.0,
       41.2
      ],
      [
       33.0,
       42.0
      ],
      [
       36.0,
       41.8
      ],
      [
       35.0,
       40.3
      ],
      [
       31.0,
       40.0
      ],
      [
       28.0,
       40.0
      ],
      [
       27.0,
       40.4
      ]
     ]
    ]
   }
  },
  {
   "type": "Feature",
   "properties": {
    "name": "소아시아 — 중부: 갈라티아·프리기아 고원",
    "description": "[대략] 켈트계 갈라티아 왕국이 기원전 25년 아민타스 사후 속주로 편입. 고원 경계는 유목·목축지대로 다소 유동적",
    "confidence": "medium",
    "fill": "#ab47bc",
    "fill-opacity": 0.26,
    "stroke": "#7b1fa2",
    "stroke-width": 2
   },
   "geometry": {
    "type": "Polygon",
    "coordinates": [
     [
      [
       29.5,
       40.0
      ],
      [
       31.0,
       41.0
      ],
      [
       33.0,
       41.2
      ],
      [
       35.0,
       40.0
      ],
      [
       34.0,
       38.3
      ],
      [
       31.5,
       38.0
      ],
      [
       29.8,
       38.7
      ],
      [
       29.5,
       40.0
      ]
     ]
    ]
   }
  },
  {
   "type": "Feature",
   "properties": {
    "name": "소아시아 — 남부: 킬리키아·팜필리아·리키아 (지중해 연안)",
    "description": "[대략] 리키아는 서기 43년 클라우디우스기에야 온전히 속주로 편입되어 통합 시점이 다른 지역보다 늦다",
    "confidence": "medium",
    "fill": "#ab47bc",
    "fill-opacity": 0.26,
    "stroke": "#7b1fa2",
    "stroke-width": 2
   },
   "geometry": {
    "type": "Polygon",
    "coordinates": [
     [
      [
       27.2,
       36.9
      ],
      [
       29.5,
       36.4
      ],
      [
       32.0,
       36.2
      ],
      [
       34.5,
       36.4
      ],
      [
       36.2,
       36.7
      ],
      [
       35.0,
       37.5
      ],
      [
       31.0,
       37.6
      ],
      [
       28.0,
       37.5
      ],
      [
       27.2,
       36.9
      ]
     ]
    ]
   }
  },
  {
   "type": "Feature",
   "properties": {
    "name": "소아시아 — 동부: 카파도키아 접경지대",
    "description": "[대략] 서기 17년 티베리우스기 병합. 아르메니아·메소포타미아와의 경계는 파르티아·페르시아 정세에 따라 계속 흔들렸다",
    "confidence": "medium",
    "fill": "#ab47bc",
    "fill-opacity": 0.26,
    "stroke": "#7b1fa2",
    "stroke-width": 2
   },
   "geometry": {
    "type": "Polygon",
    "coordinates": [
     [
      [
       34.0,
       40.0
      ],
      [
       36.0,
       40.3
      ],
      [
       38.5,
       39.5
      ],
      [
       38.8,
       37.8
      ],
      [
       36.5,
       37.6
      ],
      [
       34.5,
       38.3
      ],
      [
       34.0,
       40.0
      ]
     ]
    ]
   }
  },
  {
   "type": "Feature",
   "properties": {
    "name": "아시아",
    "description": "[아시아 속주 사실상 수도] 기원전 133 — 아시아 속주 최대 도시, 총독 관저 소재",
    "marker-color": "#4a148c",
    "marker-size": "medium"
   },
   "geometry": {
    "type": "Point",
    "coordinates": [
     27.36,
     37.95
    ]
   }
  },
  {
   "type": "Feature",
   "properties": {
    "name": "니코메디아",
    "description": "[비티니아 수도] 기원전 74 — 비티니아 왕국 유증 이후 속주 수도",
    "marker-color": "#4a148c",
    "marker-size": "medium"
   },
   "geometry": {
    "type": "Point",
    "coordinates": [
     29.94,
     40.77
    ]
   }
  },
  {
   "type": "Feature",
   "properties": {
    "name": "앙키라",
    "description": "[갈라티아 속주 수도] 기원전 25 — 갈라티아 병합 이후 속주 행정 중심지",
    "marker-color": "#4a148c",
    "marker-size": "medium"
   },
   "geometry": {
    "type": "Point",
    "coordinates": [
     32.86,
     39.93
    ]
   }
  },
  {
   "type": "Feature",
   "properties": {
    "name": "타르수스",
    "description": "[킬리키아 속주 수도] 기원전 67 — 폼페이우스의 해적 소탕 이후 킬리키아 속주 수도",
    "marker-color": "#4a148c",
    "marker-size": "medium"
   },
   "geometry": {
    "type": "Point",
    "coordinates": [
     34.9,
     36.91
    ]
   }
  },
  {
   "type": "Feature",
   "properties": {
    "name": "카이사레아",
    "description": "[카파도키아 속주 수도] 서기 17 — 카파도키아 병합 이후 속주 수도로 지정",
    "marker-color": "#4a148c",
    "marker-size": "medium"
   },
   "geometry": {
    "type": "Point",
    "coordinates": [
     35.48,
     38.73
    ]
   }
  },
  {
   "type": "Feature",
   "properties": {
    "name": "트라페주스",
    "description": "[흑해 동부 항구] 서기 64 — 폰투스 최종 병합 이후 동방 흑해 방어 거점",
    "marker-color": "#4a148c",
    "marker-size": "medium"
   },
   "geometry": {
    "type": "Point",
    "coordinates": [
     39.72,
     41.0
    ]
   }
  }
 ]
}