{
 "type": "FeatureCollection",
 "features": [
  {
   "type": "Feature",
   "properties": {
    "name": "발칸 — 발칸 산맥 전역(하이무스 산 포함)",
    "description": "[대략] 서쪽 세르비아·북마케도니아 접경에서 동쪽 흑해 연안까지 발칸 반도를 가로지르는 산줄기. 고대에는 하이무스 산(Haemus Mons)으로 불렸으며, 반도 내륙을 남북으로 가르는 자연 장벽이었다",
    "confidence": "medium",
    "fill": "#ab47bc",
    "fill-opacity": 0.26,
    "stroke": "#7b1fa2",
    "stroke-width": 2
   },
   "geometry": {
    "type": "Polygon",
    "coordinates": [
     [
      [
       20.3,
       42.7
      ],
      [
       21.0,
       42.9
      ],
      [
       22.0,
       43.2
      ],
      [
       23.2,
       43.4
      ],
      [
       24.5,
       43.3
      ],
      [
       25.8,
       43.2
      ],
      [
       27.0,
       43.1
      ],
      [
       28.0,
       43.0
      ],
      [
       28.0,
       42.5
      ],
      [
       27.0,
       42.5
      ],
      [
       25.8,
       42.6
      ],
      [
       24.5,
       42.7
      ],
      [
       23.2,
       42.8
      ],
      [
       22.0,
       42.6
      ],
      [
       21.0,
       42.4
      ],
      [
       20.3,
       42.2
      ],
      [
       20.3,
       42.7
      ]
     ]
    ]
   }
  },
  {
   "type": "Feature",
   "properties": {
    "name": "필리포폴리스",
    "description": "[산기슭 도시]  — 필리포스 2세가 발칸 산맥 자락에 세운 도시(현재의 플로브디프)",
    "marker-color": "#4a148c",
    "marker-size": "medium"
   },
   "geometry": {
    "type": "Point",
    "coordinates": [
     24.75,
     42.14
    ]
   }
  }
 ]
}