{
 "type": "FeatureCollection",
 "features": [
  {
   "type": "Feature",
   "properties": {
    "name": "발칸 반도 — 발칸 반도 전역",
    "description": "[불확실] 일리리쿰·모이시아·트라키아·그리스 등 개별 속주·지역을 모두 포함하는 상위 지리 범위. 경계가 강·산맥으로 뚜렷하지 않아 신뢰도를 낮게 잡는다.",
    "confidence": "low",
    "fill": "#ce93d8",
    "fill-opacity": 0.12,
    "stroke": "#ba68c8",
    "stroke-width": 1
   },
   "geometry": {
    "type": "Polygon",
    "coordinates": [
     [
      [
       13.5,
       45.6
      ],
      [
       16.0,
       46.5
      ],
      [
       19.0,
       46.1
      ],
      [
       21.5,
       45.8
      ],
      [
       23.5,
       44.5
      ],
      [
       28.6,
       45.2
      ],
      [
       29.0,
       42.0
      ],
      [
       29.0,
       41.0
      ],
      [
       26.6,
       40.0
      ],
      [
       24.0,
       39.0
      ],
      [
       23.5,
       37.5
      ],
      [
       22.4,
       36.4
      ],
      [
       21.0,
       38.0
      ],
      [
       19.5,
       40.0
      ],
      [
       19.0,
       42.5
      ],
      [
       18.0,
       44.0
      ],
      [
       16.5,
       45.0
      ],
      [
       13.5,
       45.6
      ],
      [
       13.5,
       45.6
      ]
     ]
    ]
   }
  },
  {
   "type": "Feature",
   "properties": {
    "name": "베오그라드",
    "description": "[주요 도시] 15세기 — 발칸 반도 서북부의 관문 도시.",
    "marker-color": "#4a148c",
    "marker-size": "medium"
   },
   "geometry": {
    "type": "Point",
    "coordinates": [
     20.46,
     44.8
    ]
   }
  },
  {
   "type": "Feature",
   "properties": {
    "name": "소피아",
    "description": "[주요 도시] 15세기 — 발칸 반도 중앙 내륙의 요충지.",
    "marker-color": "#4a148c",
    "marker-size": "medium"
   },
   "geometry": {
    "type": "Point",
    "coordinates": [
     23.32,
     42.7
    ]
   }
  },
  {
   "type": "Feature",
   "properties": {
    "name": "아테네",
    "description": "[주요 도시] 15세기 — 발칸 반도 남단 그리스의 중심.",
    "marker-color": "#4a148c",
    "marker-size": "medium"
   },
   "geometry": {
    "type": "Point",
    "coordinates": [
     23.73,
     37.98
    ]
   }
  },
  {
   "type": "Feature",
   "properties": {
    "name": "콘스탄티노플",
    "description": "[제국 수도] 1453 — 15세기 중반까지 이슬람의 정복을 면한 예외 지역.",
    "marker-color": "#4a148c",
    "marker-size": "medium"
   },
   "geometry": {
    "type": "Point",
    "coordinates": [
     28.98,
     41.01
    ]
   }
  }
 ]
}