{
 "type": "FeatureCollection",
 "features": [
  {
   "type": "Feature",
   "properties": {
    "name": "본 곶 — 본 곶(게소리아쿰) 일대",
    "description": "[대략] 로마 군이 브리타니아 침공을 위해 집결·승선한 갈리아 해협 연안의 곶. 카이사르(기원전 55~54년)와 클라우디우스(43년)의 브리타니아 원정이 모두 이 항구에서 출발했다",
    "confidence": "medium",
    "fill": "#ab47bc",
    "fill-opacity": 0.26,
    "stroke": "#7b1fa2",
    "stroke-width": 2
   },
   "geometry": {
    "type": "Polygon",
    "coordinates": [
     [
      [
       1.5,
       50.73
      ],
      [
       1.55,
       50.75
      ],
      [
       1.62,
       50.74
      ],
      [
       1.63,
       50.71
      ],
      [
       1.58,
       50.69
      ],
      [
       1.51,
       50.7
      ],
      [
       1.5,
       50.73
      ]
     ]
    ]
   }
  },
  {
   "type": "Feature",
   "properties": {
    "name": "본 곶",
    "description": "[항구]  — 카이사르와 클라우디우스의 브리타니아 원정 집결항(고대 게소리아쿰/보노니아)",
    "marker-color": "#4a148c",
    "marker-size": "medium"
   },
   "geometry": {
    "type": "Point",
    "coordinates": [
     1.6147,
     50.7264
    ]
   }
  }
 ]
}