{
 "type": "FeatureCollection",
 "features": [
  {
   "type": "Feature",
   "properties": {
    "name": "브리타니아 민족 — 브리튼섬 원주민 분포 (로마 정복기, 기원전 1세기~서기 1세기)",
    "description": "[대략] 카이사르의 두 차례 브리타니아 원정(기원전 55~54년)부터 클라우디우스의 정복(서기 43년) 무렵까지. 스코틀랜드 고지대(칼레도니아)는 로마 지배가 도달하지 못한 지역이라 남부 스코틀랜드까지만 포함했다. 여러 부족의 집합이라 경계는 근사치다.",
    "confidence": "medium",
    "fill": "#ab47bc",
    "fill-opacity": 0.26,
    "stroke": "#7b1fa2",
    "stroke-width": 2
   },
   "geometry": {
    "type": "Polygon",
    "coordinates": [
     [
      [
       -5.5,
       50.0
      ],
      [
       -3.0,
       51.0
      ],
      [
       0.5,
       51.0
      ],
      [
       1.5,
       52.5
      ],
      [
       -0.5,
       55.0
      ],
      [
       -3.0,
       57.5
      ],
      [
       -5.5,
       56.5
      ],
      [
       -6.0,
       53.0
      ],
      [
       -5.0,
       51.5
      ],
      [
       -5.5,
       50.0
      ]
     ]
    ]
   }
  }
 ]
}