{
 "type": "FeatureCollection",
 "features": [
  {
   "type": "Feature",
   "properties": {
    "name": "캄파니아 — 캄파니아 (나폴리만 일대)",
    "description": "[확실] 볼투르노강~살레르노만 사이 화산 평야. 오늘날 캄파니아 주와 대체로 겹침",
    "confidence": "high",
    "fill": "#7b1fa2",
    "fill-opacity": 0.45,
    "stroke": "#4a148c",
    "stroke-width": 2
   },
   "geometry": {
    "type": "Polygon",
    "coordinates": [
     [
      [
       13.5,
       40.9
      ],
      [
       13.6,
       41.5
      ],
      [
       14.3,
       41.5
      ],
      [
       14.8,
       41.0
      ],
      [
       14.5,
       40.3
      ],
      [
       13.9,
       40.6
      ],
      [
       13.5,
       40.9
      ]
     ]
    ]
   }
  },
  {
   "type": "Feature",
   "properties": {
    "name": "네아폴리스",
    "description": "[그리스계 항구도시] 기원전 470경 — 쿠마이 식민시에서 이주 건설, 헬레니즘 문화 보존지",
    "marker-color": "#4a148c",
    "marker-size": "medium"
   },
   "geometry": {
    "type": "Point",
    "coordinates": [
     14.2681,
     40.8518
    ]
   }
  },
  {
   "type": "Feature",
   "properties": {
    "name": "폼페이",
    "description": "[휴양 도시] 79 — 베수비오 화산 분화로 매몰",
    "marker-color": "#4a148c",
    "marker-size": "medium"
   },
   "geometry": {
    "type": "Point",
    "coordinates": [
     14.4989,
     40.7461
    ]
   }
  },
  {
   "type": "Feature",
   "properties": {
    "name": "카푸아",
    "description": "[지역 중심 도시] 기원전 216 — 칸나이 전투 후 한니발과 동맹, 이후 로마의 응징",
    "marker-color": "#4a148c",
    "marker-size": "medium"
   },
   "geometry": {
    "type": "Point",
    "coordinates": [
     14.2131,
     41.1046
    ]
   }
  },
  {
   "type": "Feature",
   "properties": {
    "name": "헤르쿨라네움",
    "description": "[해안 소도시] 79 — 폼페이와 함께 화산재에 매몰",
    "marker-color": "#4a148c",
    "marker-size": "medium"
   },
   "geometry": {
    "type": "Point",
    "coordinates": [
     14.3486,
     40.8058
    ]
   }
  }
 ]
}