{
 "type": "FeatureCollection",
 "features": [
  {
   "type": "Feature",
   "properties": {
    "name": "카르피족 — 동카르파티아·몰다비아",
    "description": "[대략] 2~3세기. 다키아 왕국 멸망 이후 이 일대에 자리 잡은 것으로 사료에 등장. 정확한 경계는 로마 측 기록에 의존해 근사치.",
    "confidence": "medium",
    "fill": "#ab47bc",
    "fill-opacity": 0.26,
    "stroke": "#7b1fa2",
    "stroke-width": 2
   },
   "geometry": {
    "type": "Polygon",
    "coordinates": [
     [
      [
       25.0,
       48.0
      ],
      [
       28.0,
       48.0
      ],
      [
       28.5,
       46.0
      ],
      [
       25.5,
       45.5
      ],
      [
       24.5,
       46.5
      ],
      [
       25.0,
       48.0
      ]
     ]
    ]
   }
  }
 ]
}