{
 "type": "FeatureCollection",
 "features": [
  {
   "type": "Feature",
   "properties": {
    "name": "카스피해 — 카스피해 전역",
    "description": "[불확실] 남북으로 긴 폐쇄 호수. 훈족의 서진 경로가 이 서안을 지나간 것으로 추정된다",
    "confidence": "low",
    "fill": "#ce93d8",
    "fill-opacity": 0.12,
    "stroke": "#ba68c8",
    "stroke-width": 1
   },
   "geometry": {
    "type": "Polygon",
    "coordinates": [
     [
      [
       47.5,
       47.0
      ],
      [
       49.5,
       46.5
      ],
      [
       51.0,
       45.0
      ],
      [
       52.5,
       43.0
      ],
      [
       53.0,
       41.0
      ],
      [
       52.5,
       39.0
      ],
      [
       51.5,
       37.5
      ],
      [
       50.0,
       37.0
      ],
      [
       48.5,
       38.0
      ],
      [
       47.5,
       40.0
      ],
      [
       47.0,
       42.0
      ],
      [
       46.5,
       44.0
      ],
      [
       47.0,
       46.0
      ],
      [
       47.5,
       47.0
      ],
      [
       47.5,
       47.0
      ]
     ]
    ]
   }
  }
 ]
}