{
 "type": "FeatureCollection",
 "features": [
  {
   "type": "Feature",
   "properties": {
    "name": "켈트족 — 라 텐 문화 최대 확산권 (기원전 3세기경)",
    "description": "[불확실] 기원전 3세기 전후 켈트어군 집단의 대략적 분포 — 아일랜드·브리타니아·갈리아·이베리아 북부(켈티베리아)·알프스·판노니아까지. 갈라티아(소아시아, 기원전 278년 이주)는 이 범위 밖의 별도 이주지라 폴리곤에는 넣지 않았다. 정치적 국경이 아니라 고고학·언어학적 문화권의 성긴 근사치다.",
    "confidence": "low",
    "fill": "#ce93d8",
    "fill-opacity": 0.12,
    "stroke": "#ba68c8",
    "stroke-width": 1
   },
   "geometry": {
    "type": "Polygon",
    "coordinates": [
     [
      [
       -9.5,
       53.5
      ],
      [
       -2.0,
       58.0
      ],
      [
       8.0,
       54.0
      ],
      [
       15.0,
       50.0
      ],
      [
       23.0,
       44.0
      ],
      [
       18.0,
       41.0
      ],
      [
       11.0,
       44.5
      ],
      [
       9.0,
       45.5
      ],
      [
       2.0,
       44.0
      ],
      [
       -2.0,
       43.0
      ],
      [
       -9.0,
       43.5
      ],
      [
       -9.5,
       48.0
      ],
      [
       -9.5,
       53.5
      ]
     ]
    ]
   }
  }
 ]
}