{
 "type": "FeatureCollection",
 "features": [
  {
   "type": "Feature",
   "properties": {
    "name": "중국 — 중국 (현대 국경 기준)",
    "description": "[대략] 고대 로마인의 지식은 실크로드 서쪽 끝(장안·둔황)에 한정됐지만, 위치 확인을 위해 현대 중국 국경을 성기게 그렸다. 동단이 동경 140도를 넘지 않아 잘라내지 않았다",
    "confidence": "medium",
    "fill": "#ab47bc",
    "fill-opacity": 0.26,
    "stroke": "#7b1fa2",
    "stroke-width": 2
   },
   "geometry": {
    "type": "Polygon",
    "coordinates": [
     [
      [
       135.0,
       48.5
      ],
      [
       130.5,
       45.5
      ],
      [
       126.5,
       43.5
      ],
      [
       124.0,
       40.0
      ],
      [
       122.0,
       39.0
      ],
      [
       121.5,
       31.0
      ],
      [
       120.0,
       25.0
      ],
      [
       117.0,
       23.0
      ],
      [
       113.5,
       22.2
      ],
      [
       108.5,
       21.5
      ],
      [
       105.0,
       22.0
      ],
      [
       102.0,
       22.5
      ],
      [
       99.0,
       25.5
      ],
      [
       98.5,
       27.5
      ],
      [
       94.0,
       29.5
      ],
      [
       91.0,
       28.0
      ],
      [
       88.0,
       27.8
      ],
      [
       85.0,
       29.0
      ],
      [
       80.0,
       32.5
      ],
      [
       78.0,
       35.0
      ],
      [
       75.0,
       38.0
      ],
      [
       73.5,
       39.5
      ],
      [
       76.0,
       42.0
      ],
      [
       80.0,
       45.0
      ],
      [
       85.0,
       47.0
      ],
      [
       90.0,
       49.5
      ],
      [
       95.0,
       50.0
      ],
      [
       100.0,
       50.0
      ],
      [
       110.0,
       52.0
      ],
      [
       120.0,
       53.3
      ],
      [
       127.0,
       50.0
      ],
      [
       130.5,
       48.0
      ],
      [
       135.0,
       48.5
      ]
     ]
    ]
   }
  },
  {
   "type": "Feature",
   "properties": {
    "name": "장안",
    "description": "[실크로드 동쪽 종착지] 한대 — 비단 교역이 시작되는 한나라 수도, 현 시안",
    "marker-color": "#4a148c",
    "marker-size": "medium"
   },
   "geometry": {
    "type": "Point",
    "coordinates": [
     108.8583,
     34.3083
    ]
   }
  },
  {
   "type": "Feature",
   "properties": {
    "name": "뤄양",
    "description": "[한대 수도(후한)] 후한 — 후한의 수도, 실크로드 교역 행정 거점",
    "marker-color": "#4a148c",
    "marker-size": "medium"
   },
   "geometry": {
    "type": "Point",
    "coordinates": [
     112.45,
     34.68
    ]
   }
  },
  {
   "type": "Feature",
   "properties": {
    "name": "둔황",
    "description": "[실크로드 관문] 한대~ — 옥문관·양관을 낀 서역 진출의 관문 도시",
    "marker-color": "#4a148c",
    "marker-size": "medium"
   },
   "geometry": {
    "type": "Point",
    "coordinates": [
     94.66,
     40.14
    ]
   }
  },
  {
   "type": "Feature",
   "properties": {
    "name": "카슈가르",
    "description": "[실크로드 서쪽 관문] 고대~ — 타림 분지 서쪽 끝, 중앙아시아로 이어지는 대상로 결절점",
    "marker-color": "#4a148c",
    "marker-size": "medium"
   },
   "geometry": {
    "type": "Point",
    "coordinates": [
     75.99,
     39.47
    ]
   }
  }
 ]
}