{
 "type": "FeatureCollection",
 "features": [
  {
   "type": "Feature",
   "properties": {
    "name": "기독교인 — 유다·갈릴리 기원지",
    "description": "[대략] 영토가 아니라 분포. 서기 1세기, 예수 활동과 초기 예루살렘 교회의 근거지.",
    "confidence": "medium",
    "fill": "#ab47bc",
    "fill-opacity": 0.26,
    "stroke": "#7b1fa2",
    "stroke-width": 2
   },
   "geometry": {
    "type": "Polygon",
    "coordinates": [
     [
      [
       34.9,
       33.3
      ],
      [
       35.6,
       33.3
      ],
      [
       35.6,
       31.2
      ],
      [
       34.9,
       31.2
      ],
      [
       34.9,
       33.3
      ]
     ]
    ]
   }
  },
  {
   "type": "Feature",
   "properties": {
    "name": "기독교인 — 안티오크·시리아 거점",
    "description": "[대략] 영토가 아니라 분포. 서기 1세기, '그리스도인'이라는 명칭이 처음 쓰인 곳(사도행전 11:26)이자 바울 선교의 출발 거점.",
    "confidence": "medium",
    "fill": "#ab47bc",
    "fill-opacity": 0.26,
    "stroke": "#7b1fa2",
    "stroke-width": 2
   },
   "geometry": {
    "type": "Polygon",
    "coordinates": [
     [
      [
       35.9,
       36.0
      ],
      [
       36.5,
       36.0
      ],
      [
       36.5,
       35.5
      ],
      [
       35.9,
       35.5
      ],
      [
       35.9,
       36.0
      ]
     ]
    ]
   }
  },
  {
   "type": "Feature",
   "properties": {
    "name": "기독교인 — 소아시아 (7교회 지역)",
    "description": "[대략] 영토가 아니라 분포. 서기 1세기 말, 에페소스·서머나 등 요한계시록에 언급된 7교회가 있던 소아시아 서부.",
    "confidence": "medium",
    "fill": "#ab47bc",
    "fill-opacity": 0.26,
    "stroke": "#7b1fa2",
    "stroke-width": 2
   },
   "geometry": {
    "type": "Polygon",
    "coordinates": [
     [
      [
       26.5,
       37.5
      ],
      [
       29.5,
       37.5
      ],
      [
       29.5,
       38.5
      ],
      [
       26.5,
       38.5
      ],
      [
       26.5,
       37.5
      ]
     ]
    ]
   }
  },
  {
   "type": "Feature",
   "properties": {
    "name": "기독교인 — 그리스 (바울 선교지)",
    "description": "[대략] 영토가 아니라 분포. 서기 1세기, 바울의 2차 선교여행으로 세워진 코린토스·테살로니키 등 교회 거점.",
    "confidence": "medium",
    "fill": "#ab47bc",
    "fill-opacity": 0.26,
    "stroke": "#7b1fa2",
    "stroke-width": 2
   },
   "geometry": {
    "type": "Polygon",
    "coordinates": [
     [
      [
       21.5,
       37.0
      ],
      [
       23.5,
       37.0
      ],
      [
       23.5,
       38.5
      ],
      [
       21.5,
       38.5
      ],
      [
       21.5,
       37.0
      ]
     ]
    ]
   }
  },
  {
   "type": "Feature",
   "properties": {
    "name": "기독교인 — 로마",
    "description": "[대략] 영토가 아니라 분포. 서기 1~3세기, 제국 수도이자 네로 이후 반복된 박해·순교의 중심지, 훗날 교황좌가 서는 곳.",
    "confidence": "medium",
    "fill": "#ab47bc",
    "fill-opacity": 0.26,
    "stroke": "#7b1fa2",
    "stroke-width": 2
   },
   "geometry": {
    "type": "Polygon",
    "coordinates": [
     [
      [
       12.0,
       41.5
      ],
      [
       13.0,
       41.5
      ],
      [
       13.0,
       40.8
      ],
      [
       12.0,
       40.8
      ],
      [
       12.0,
       41.5
      ]
     ]
    ]
   }
  },
  {
   "type": "Feature",
   "properties": {
    "name": "기독교인 — 북아프리카 (카르타고·히포)",
    "description": "[대략] 영토가 아니라 분포. 서기 2~4세기, 테르툴리아누스·키프리아누스·아우구스티누스로 이어지는 라틴 신학의 중심지.",
    "confidence": "medium",
    "fill": "#ab47bc",
    "fill-opacity": 0.26,
    "stroke": "#7b1fa2",
    "stroke-width": 2
   },
   "geometry": {
    "type": "Polygon",
    "coordinates": [
     [
      [
       8.0,
       37.0
      ],
      [
       11.0,
       37.0
      ],
      [
       11.0,
       35.8
      ],
      [
       8.0,
       35.8
      ],
      [
       8.0,
       37.0
      ]
     ]
    ]
   }
  }
 ]
}