{
 "type": "FeatureCollection",
 "features": [
  {
   "type": "Feature",
   "properties": {
    "name": "클레오파트라의 유랑과 두 로마 영웅",
    "period": "기원전 48~30"
   },
   "geometry": {
    "type": "LineString",
    "coordinates": [
     [
      29.9079,
      31.1982
     ],
     [
      36.15,
      36.2
     ],
     [
      29.9079,
      31.1982
     ],
     [
      32.641,
      25.684
     ],
     [
      32.878,
      24.078
     ],
     [
      12.4862,
      41.8917
     ],
     [
      29.9079,
      31.1982
     ],
     [
      34.8958,
      36.9122
     ],
     [
      29.9079,
      31.1982
     ],
     [
      36.1572,
      36.2066
     ],
     [
      29.9079,
      31.1982
     ],
     [
      19.0,
      38.0
     ],
     [
      29.9079,
      31.1982
     ]
    ]
   }
  },
  {
   "type": "Feature",
   "properties": {
    "name": "알렉산드리아",
    "year": -48,
    "description": "[확실] 기원전 48 — 재상 포티누스가 어린 왕 프톨레마이오스 13세를 앞세워 클레오파트라를 이집트에서 추방",
    "confidence": "high",
    "marker-color": "#2e7d32",
    "marker-size": "medium"
   },
   "geometry": {
    "type": "Point",
    "coordinates": [
     29.9079,
     31.1982
    ]
   }
  },
  {
   "type": "Feature",
   "properties": {
    "name": "시리아",
    "year": -48,
    "description": "[대략] 기원전 48 — 추방된 클레오파트라가 사막으로 도망가 소식을 끊음",
    "confidence": "medium",
    "marker-color": "#f9a825",
    "marker-size": "small"
   },
   "geometry": {
    "type": "Point",
    "coordinates": [
     36.15,
     36.2
    ]
   }
  },
  {
   "type": "Feature",
   "properties": {
    "name": "알렉산드리아",
    "year": -48,
    "description": "[확실] 기원전 48 — 카이사르가 폼페이우스를 추격해 입항하자 여행용 융단에 몸을 숨겨 왕궁으로 잠입, 카이사르와 처음 대면",
    "confidence": "high",
    "marker-color": "#2e7d32",
    "marker-size": "medium"
   },
   "geometry": {
    "type": "Point",
    "coordinates": [
     29.9079,
     31.1982
    ]
   }
  },
  {
   "type": "Feature",
   "properties": {
    "name": "테베",
    "year": -47,
    "description": "[확실] 기원전 47 — 카이사르와의 '나일 강 대여행' 중 고대 도시 테베(스핑크스·아몬 신전·룩소르)를 관람",
    "confidence": "high",
    "marker-color": "#2e7d32",
    "marker-size": "medium"
   },
   "geometry": {
    "type": "Point",
    "coordinates": [
     32.641,
     25.684
    ]
   }
  },
  {
   "type": "Feature",
   "properties": {
    "name": "아스완 제1폭포",
    "year": -47,
    "description": "[확실] 기원전 47 — 나일 강 대여행의 최남단 도달 지점. 로마 군단의 동요로 인해 여기서 알렉산드리아로 회항",
    "confidence": "high",
    "marker-color": "#2e7d32",
    "marker-size": "medium"
   },
   "geometry": {
    "type": "Point",
    "coordinates": [
     32.878,
     24.078
    ]
   }
  },
  {
   "type": "Feature",
   "properties": {
    "name": "로마",
    "year": -46,
    "description": "[확실] 기원전 46 — 카이사르의 초청으로 로마로 건너와 테베레 강변 저택에 체류. 카이사르 암살(기원전 44년 3월)까지 거의 매일 밤을 함께함",
    "confidence": "high",
    "marker-color": "#2e7d32",
    "marker-size": "medium"
   },
   "geometry": {
    "type": "Point",
    "coordinates": [
     12.4862,
     41.8917
    ]
   }
  },
  {
   "type": "Feature",
   "properties": {
    "name": "알렉산드리아",
    "year": -44,
    "description": "[확실] 기원전 44 — 카이사르 암살 후 '나일의 뱀을 죽여라'라는 로마 시민의 규탄을 피해 테베레 강에서 배를 타고 알렉산드리아로 탈출",
    "confidence": "high",
    "marker-color": "#2e7d32",
    "marker-size": "medium"
   },
   "geometry": {
    "type": "Point",
    "coordinates": [
     29.9079,
     31.1982
    ]
   }
  },
  {
   "type": "Feature",
   "properties": {
    "name": "타르수스",
    "year": -41,
    "description": "[확실] 기원전 41 — 카시우스에게 군자금을 댔다는 혐의로 재판받으라는 안토니우스의 소환에 응해 화려한 왕실 선단을 이끌고 도착, 재판정의 입장을 뒤집고 안토니우스를 매혹시킴",
    "confidence": "high",
    "marker-color": "#2e7d32",
    "marker-size": "medium"
   },
   "geometry": {
    "type": "Point",
    "coordinates": [
     34.8958,
     36.9122
    ]
   }
  },
  {
   "type": "Feature",
   "properties": {
    "name": "알렉산드리아",
    "year": -41,
    "description": "[확실] 기원전 41 — 안토니우스가 로마의 권력 다툼을 뒤로하고 클레오파트라를 따라 알렉산드리아로 이주",
    "confidence": "high",
    "marker-color": "#2e7d32",
    "marker-size": "medium"
   },
   "geometry": {
    "type": "Point",
    "coordinates": [
     29.9079,
     31.1982
    ]
   }
  },
  {
   "type": "Feature",
   "properties": {
    "name": "안티오키아",
    "year": -36,
    "description": "[확실] 기원전 36 — 아르메니아 원정에 나선 안토니우스를 만류하기 위해 500킬로미터를 추격해 안티오키아까지 감",
    "confidence": "high",
    "marker-color": "#2e7d32",
    "marker-size": "medium"
   },
   "geometry": {
    "type": "Point",
    "coordinates": [
     36.1572,
     36.2066
    ]
   }
  },
  {
   "type": "Feature",
   "properties": {
    "name": "알렉산드리아",
    "year": -34,
    "description": "[확실] 기원전 34 — 안토니우스가 옥타비아와 이혼하고 클레오파트라와 정식 결혼. 카이사리온을 이집트 왕위 계승자로, 두 딸에게 중동 속주를 배분",
    "confidence": "high",
    "marker-color": "#2e7d32",
    "marker-size": "medium"
   },
   "geometry": {
    "type": "Point",
    "coordinates": [
     29.9079,
     31.1982
    ]
   }
  },
  {
   "type": "Feature",
   "properties": {
    "name": "이오니아해",
    "year": -31,
    "description": "[확실] 기원전 31 — 악티움 해전에서 옥타비아누스의 마르쿠스 아그리파 함대에 패배, 안토니우스와 함께 알렉산드리아로 패주",
    "confidence": "high",
    "marker-color": "#2e7d32",
    "marker-size": "medium"
   },
   "geometry": {
    "type": "Point",
    "coordinates": [
     19.0,
     38.0
    ]
   }
  },
  {
   "type": "Feature",
   "properties": {
    "name": "알렉산드리아",
    "year": -30,
    "description": "[확실] 기원전 30 — 옥타비아누스 군의 함락 직전 안토니우스가 자결하고, 클레오파트라도 독사에 물려 스스로 목숨을 끊음",
    "confidence": "high",
    "marker-color": "#2e7d32",
    "marker-size": "medium"
   },
   "geometry": {
    "type": "Point",
    "coordinates": [
     29.9079,
     31.1982
    ]
   }
  }
 ]
}