{
 "type": "FeatureCollection",
 "features": [
  {
   "type": "Feature",
   "properties": {
    "name": "코르시카 — 코르시카 본섬",
    "description": "[확실] 사르데냐 해협을 사이에 두고 사르데냐와 마주보는 산악 섬",
    "confidence": "high",
    "fill": "#7b1fa2",
    "fill-opacity": 0.45,
    "stroke": "#4a148c",
    "stroke-width": 2
   },
   "geometry": {
    "type": "Polygon",
    "coordinates": [
     [
      [
       8.6,
       43.0
      ],
      [
       9.2,
       42.8
      ],
      [
       9.45,
       42.4
      ],
      [
       9.4,
       41.9
      ],
      [
       9.1,
       41.65
      ],
      [
       8.75,
       41.75
      ],
      [
       8.55,
       42.0
      ],
      [
       8.6,
       42.6
      ],
      [
       8.6,
       43.0
      ],
      [
       8.6,
       43.0
      ]
     ]
    ]
   }
  },
  {
   "type": "Feature",
   "properties": {
    "name": "알레리아",
    "description": "[주요 도시]  — 섬 동안의 로마 식민도시",
    "marker-color": "#4a148c",
    "marker-size": "medium"
   },
   "geometry": {
    "type": "Point",
    "coordinates": [
     9.51,
     42.1
    ]
   }
  }
 ]
}