{
 "type": "FeatureCollection",
 "features": [
  {
   "type": "Feature",
   "properties": {
    "name": "다키아 — 다키아 트라야나",
    "description": "[대략] 트란실바니아(다키아 북쪽 숲지대 한 부분)보다 넓어 오ltenia·바나트까지 포함하는 로마 속주 전체 범위. 현재의 루마니아(현대 국가 경계)와는 몰다비아 동부 제외라는 점에서 다르다.",
    "confidence": "medium",
    "fill": "#ab47bc",
    "fill-opacity": 0.26,
    "stroke": "#7b1fa2",
    "stroke-width": 2
   },
   "geometry": {
    "type": "Polygon",
    "coordinates": [
     [
      [
       20.8,
       46.0
      ],
      [
       22.0,
       47.3
      ],
      [
       24.5,
       47.6
      ],
      [
       26.0,
       46.5
      ],
      [
       25.3,
       45.6
      ],
      [
       24.0,
       44.3
      ],
      [
       22.7,
       43.9
      ],
      [
       21.2,
       44.7
      ],
      [
       20.8,
       46.0
      ],
      [
       20.8,
       46.0
      ]
     ]
    ]
   }
  },
  {
   "type": "Feature",
   "properties": {
    "name": "사르미제게투사",
    "description": "[속주 수도] 106 — 트라야누스가 정복 후 건설한 속주 수도.",
    "marker-color": "#4a148c",
    "marker-size": "medium"
   },
   "geometry": {
    "type": "Point",
    "coordinates": [
     22.79,
     45.62
    ]
   }
  },
  {
   "type": "Feature",
   "properties": {
    "name": "아풀룸",
    "description": "[군단 기지] 2세기 — 제13군단 게미나 주둔지(현 알바 율리아).",
    "marker-color": "#4a148c",
    "marker-size": "medium"
   },
   "geometry": {
    "type": "Point",
    "coordinates": [
     23.58,
     46.07
    ]
   }
  },
  {
   "type": "Feature",
   "properties": {
    "name": "나포카",
    "description": "[주요 도시] 2세기 — 트란실바니아 북부의 주요 도시(현 클루지나포카).",
    "marker-color": "#4a148c",
    "marker-size": "medium"
   },
   "geometry": {
    "type": "Point",
    "coordinates": [
     23.59,
     46.77
    ]
   }
  },
  {
   "type": "Feature",
   "properties": {
    "name": "드로베타",
    "description": "[교량 도시] 106 — 트라야누스의 다리가 놓인 도나우 도하점(현 투르누세베린).",
    "marker-color": "#4a148c",
    "marker-size": "medium"
   },
   "geometry": {
    "type": "Point",
    "coordinates": [
     22.65,
     44.63
    ]
   }
  }
 ]
}