{
 "type": "FeatureCollection",
 "features": [
  {
   "type": "Feature",
   "properties": {
    "name": "다키아족 — 카르파티아·트란실바니아 핵심지",
    "description": "[확실] 기원전 1세기~기원후 2세기. 부레비스타(기원전 1세기)와 데케발루스(1~2세기) 치세의 왕국 중심지. 106년 로마에 정복됨.",
    "confidence": "high",
    "fill": "#7b1fa2",
    "fill-opacity": 0.45,
    "stroke": "#4a148c",
    "stroke-width": 2
   },
   "geometry": {
    "type": "Polygon",
    "coordinates": [
     [
      [
       22.0,
       47.0
      ],
      [
       26.0,
       47.5
      ],
      [
       26.5,
       45.5
      ],
      [
       23.0,
       44.8
      ],
      [
       21.5,
       45.8
      ],
      [
       22.0,
       47.0
      ]
     ]
    ]
   }
  },
  {
   "type": "Feature",
   "properties": {
    "name": "다키아족 — 다키아계 부족 확산지 (왈라키아·몰다비아)",
    "description": "[대략] 동시기. 트란실바니아 핵심지 주변에서 다키아족과 계통이 가깝거나 영향권에 있던 부족들의 활동 범위(카르피족 인접지). 경계 근사치.",
    "confidence": "medium",
    "fill": "#ab47bc",
    "fill-opacity": 0.26,
    "stroke": "#7b1fa2",
    "stroke-width": 2
   },
   "geometry": {
    "type": "Polygon",
    "coordinates": [
     [
      [
       23.0,
       45.0
      ],
      [
       28.0,
       46.0
      ],
      [
       27.0,
       44.0
      ],
      [
       24.0,
       43.7
      ],
      [
       23.0,
       45.0
      ]
     ]
    ]
   }
  },
  {
   "type": "Feature",
   "properties": {
    "name": "사르미제게투사",
    "description": "[수도] -82 — 다키아 왕국의 종교·정치 중심지. 106년 트라야누스에게 함락됨.",
    "marker-color": "#4a148c",
    "marker-size": "medium"
   },
   "geometry": {
    "type": "Point",
    "coordinates": [
     23.3167,
     45.6167
    ]
   }
  }
 ]
}