{
 "type": "FeatureCollection",
 "features": [
  {
   "type": "Feature",
   "properties": {
    "name": "달마티아 — 달마티아 해안대",
    "description": "[확실] 일리리쿰이 해안+내륙 판노니아를 합친 속주라면, 달마티아는 그중 해안 좁은 띠만을 가리킨다. 동고트 왕국이 최성기에 편입했던 범위와 대체로 겹친다.",
    "confidence": "high",
    "fill": "#7b1fa2",
    "fill-opacity": 0.45,
    "stroke": "#4a148c",
    "stroke-width": 2
   },
   "geometry": {
    "type": "Polygon",
    "coordinates": [
     [
      [
       16.9,
       45.0
      ],
      [
       18.0,
       44.3
      ],
      [
       19.0,
       43.6
      ],
      [
       19.6,
       42.7
      ],
      [
       19.1,
       41.9
      ],
      [
       18.6,
       42.3
      ],
      [
       17.9,
       43.0
      ],
      [
       17.0,
       44.0
      ],
      [
       16.4,
       44.9
      ],
      [
       15.9,
       45.6
      ],
      [
       15.9,
       45.6
      ],
      [
       16.9,
       45.0
      ]
     ]
    ]
   }
  },
  {
   "type": "Feature",
   "properties": {
    "name": "달마티아",
    "description": "[속주 수도] 1세기 — 달마티아 속주의 행정 중심지.",
    "marker-color": "#4a148c",
    "marker-size": "medium"
   },
   "geometry": {
    "type": "Point",
    "coordinates": [
     16.48,
     43.54
    ]
   }
  },
  {
   "type": "Feature",
   "properties": {
    "name": "에피다우로스",
    "description": "[항구도시] 1세기 — 남부 해안의 주요 항구.",
    "marker-color": "#4a148c",
    "marker-size": "medium"
   },
   "geometry": {
    "type": "Point",
    "coordinates": [
     18.22,
     42.58
    ]
   }
  },
  {
   "type": "Feature",
   "properties": {
    "name": "이아데르",
    "description": "[항구도시] 1세기 — 북부 해안의 로마 식민시(현 자다르).",
    "marker-color": "#4a148c",
    "marker-size": "medium"
   },
   "geometry": {
    "type": "Point",
    "coordinates": [
     15.23,
     44.12
    ]
   }
  }
 ]
}