{
 "type": "FeatureCollection",
 "features": [
  {
   "type": "Feature",
   "properties": {
    "name": "도나우 강",
    "period": "기원전 1세기~서기 5세기"
   },
   "geometry": {
    "type": "LineString",
    "coordinates": [
     [
      8.15,
      47.68
     ],
     [
      16.37,
      48.21
     ],
     [
      17.0,
      48.0
     ],
     [
      19.05,
      47.5
     ],
     [
      20.46,
      44.82
     ],
     [
      28.65,
      44.18
     ],
     [
      29.75,
      45.24
     ]
    ]
   }
  },
  {
   "type": "Feature",
   "properties": {
    "name": "도나우 강 발원지(흑림)",
    "year": null,
    "description": "[대략] ? — 독일 흑림(슈바르츠발트)에서 발원",
    "confidence": "medium",
    "marker-color": "#f9a825",
    "marker-size": "small"
   },
   "geometry": {
    "type": "Point",
    "coordinates": [
     8.15,
     47.68
    ]
   }
  },
  {
   "type": "Feature",
   "properties": {
    "name": "빈(빈도보나)",
    "year": null,
    "description": "[대략] ? — 로마 판노니아 속주의 군단기지 빈도보나",
    "confidence": "medium",
    "marker-color": "#f9a825",
    "marker-size": "small"
   },
   "geometry": {
    "type": "Point",
    "coordinates": [
     16.37,
     48.21
    ]
   }
  },
  {
   "type": "Feature",
   "properties": {
    "name": "도나우 강",
    "year": null,
    "description": "[불확실] ? — 고대 다누비우스/이스트루스 강의 대표점으로 잡은 좌표. 실제 로마사에서 중요했던 구간(다키아·모이시아 국경)은 이보다 하류이므로 이 좌표를 문자 그대로 믿지는 말 것",
    "confidence": "low",
    "marker-color": "#c62828",
    "marker-size": "small"
   },
   "geometry": {
    "type": "Point",
    "coordinates": [
     17.0,
     48.0
    ]
   }
  },
  {
   "type": "Feature",
   "properties": {
    "name": "부다페스트(아퀸쿰)",
    "year": null,
    "description": "[대략] ? — 판노니아 속주 수도 아퀸쿰",
    "confidence": "medium",
    "marker-color": "#f9a825",
    "marker-size": "small"
   },
   "geometry": {
    "type": "Point",
    "coordinates": [
     19.05,
     47.5
    ]
   }
  },
  {
   "type": "Feature",
   "properties": {
    "name": "벨그라드(싱기두눔)",
    "year": null,
    "description": "[대략] ? — 모이시아 속주 군단기지. 다키아와 모이시아를 가르는 강의 요충",
    "confidence": "medium",
    "marker-color": "#f9a825",
    "marker-size": "small"
   },
   "geometry": {
    "type": "Point",
    "coordinates": [
     20.46,
     44.82
    ]
   }
  },
  {
   "type": "Feature",
   "properties": {
    "name": "콘스탄차 인근 하류",
    "year": null,
    "description": "[대략] ? — 콘스탄티누스가 새 수도 입지를 정할 때 강 건너 야만족을 견제할 기준으로 삼은 하류 구간",
    "confidence": "medium",
    "marker-color": "#f9a825",
    "marker-size": "small"
   },
   "geometry": {
    "type": "Point",
    "coordinates": [
     28.65,
     44.18
    ]
   }
  },
  {
   "type": "Feature",
   "properties": {
    "name": "흑해 하구(도나우 삼각주)",
    "year": null,
    "description": "[대략] ? — 로마 제국의 최북단 국경선이 여기서 끝난다. 서기 376년 서고트족이 이 강을 건너 로마 영내로 대거 유입되며 게르만 민족대이동이 본격화됐다",
    "confidence": "medium",
    "marker-color": "#f9a825",
    "marker-size": "small"
   },
   "geometry": {
    "type": "Point",
    "coordinates": [
     29.75,
     45.24
    ]
   }
  }
 ]
}