{
 "type": "FeatureCollection",
 "features": [
  {
   "type": "Feature",
   "properties": {
    "name": "에트루리아인 — 에트루리아 본토 (기원전 8~4세기, 로마 병합 이전)",
    "description": "[확실] 기원전 8~4세기 기준. 로마의 팽창(기원전 396년 베이이 함락 등)으로 병합되기 이전 에트루리아 12도시 연맹의 대략적 범위 — 현 토스카나·움브리아 서부·북부 라티움.",
    "confidence": "high",
    "fill": "#7b1fa2",
    "fill-opacity": 0.45,
    "stroke": "#4a148c",
    "stroke-width": 2
   },
   "geometry": {
    "type": "Polygon",
    "coordinates": [
     [
      [
       10.0,
       44.2
      ],
      [
       11.5,
       44.5
      ],
      [
       12.3,
       43.5
      ],
      [
       12.0,
       42.3
      ],
      [
       11.0,
       41.9
      ],
      [
       10.0,
       42.3
      ],
      [
       9.8,
       43.2
      ],
      [
       10.0,
       44.2
      ]
     ]
    ]
   }
  }
 ]
}