{
 "type": "FeatureCollection",
 "features": [
  {
   "type": "Feature",
   "properties": {
    "name": "유럽 — 유럽 대륙 (본토 윤곽, 섬 제외)",
    "description": "[불확실] 대륙 규모 근사 윤곽. 우랄·캅카스 경계는 관례적 구분선이며 논쟁적, 섬(브리튼·아일랜드 등)은 근사를 위해 생략",
    "confidence": "low",
    "fill": "#ce93d8",
    "fill-opacity": 0.12,
    "stroke": "#ba68c8",
    "stroke-width": 1
   },
   "geometry": {
    "type": "Polygon",
    "coordinates": [
     [
      [
       -9.5,
       38.7
      ],
      [
       -9.0,
       43.0
      ],
      [
       -1.8,
       43.4
      ],
      [
       -4.8,
       48.4
      ],
      [
       1.5,
       50.9
      ],
      [
       4.4,
       51.3
      ],
      [
       8.1,
       53.9
      ],
      [
       10.5,
       55.5
      ],
      [
       11.0,
       59.0
      ],
      [
       10.7,
       63.4
      ],
      [
       25.7,
       71.0
      ],
      [
       30.0,
       69.5
      ],
      [
       40.0,
       65.8
      ],
      [
       60.0,
       68.0
      ],
      [
       60.0,
       52.0
      ],
      [
       47.0,
       42.5
      ],
      [
       38.0,
       44.5
      ],
      [
       28.8,
       43.6
      ],
      [
       26.0,
       40.0
      ],
      [
       23.7,
       37.9
      ],
      [
       21.7,
       38.2
      ],
      [
       18.5,
       40.0
      ],
      [
       16.9,
       41.1
      ],
      [
       14.3,
       40.8
      ],
      [
       9.2,
       44.4
      ],
      [
       3.1,
       43.3
      ],
      [
       0.2,
       42.4
      ],
      [
       -9.5,
       38.7
      ]
     ]
    ]
   }
  },
  {
   "type": "Feature",
   "properties": {
    "name": "로마",
    "description": "[남유럽 기준점] 고대~현대 — 제국의 중심, 남유럽 지중해 연안",
    "marker-color": "#4a148c",
    "marker-size": "medium"
   },
   "geometry": {
    "type": "Point",
    "coordinates": [
     12.4964,
     41.9028
    ]
   }
  },
  {
   "type": "Feature",
   "properties": {
    "name": "파리",
    "description": "[서유럽 기준점] 고대~현대 — 옛 루테티아, 서유럽 내륙 기준점",
    "marker-color": "#4a148c",
    "marker-size": "medium"
   },
   "geometry": {
    "type": "Point",
    "coordinates": [
     2.3522,
     48.8566
    ]
   }
  },
  {
   "type": "Feature",
   "properties": {
    "name": "보스포루스 해협",
    "description": "[유럽·아시아 경계] 고대~현대 — 보스포루스 해협, 관례적 유럽-아시아 대륙 경계",
    "marker-color": "#4a148c",
    "marker-size": "medium"
   },
   "geometry": {
    "type": "Point",
    "coordinates": [
     28.9784,
     41.0082
    ]
   }
  },
  {
   "type": "Feature",
   "properties": {
    "name": "모스크바",
    "description": "[동유럽 기준점] 고대~현대 — 동유럽 평원 내륙 기준점",
    "marker-color": "#4a148c",
    "marker-size": "medium"
   },
   "geometry": {
    "type": "Point",
    "coordinates": [
     37.6173,
     55.7558
    ]
   }
  },
  {
   "type": "Feature",
   "properties": {
    "name": "오슬로",
    "description": "[북유럽 기준점] 고대~현대 — 스칸디나비아 남부 기준점",
    "marker-color": "#4a148c",
    "marker-size": "medium"
   },
   "geometry": {
    "type": "Point",
    "coordinates": [
     10.7522,
     59.9139
    ]
   }
  }
 ]
}