{
 "type": "FeatureCollection",
 "features": [
  {
   "type": "Feature",
   "properties": {
    "name": "갈릴리 — 갈릴리 전역 (상갈릴리·하갈릴리·갈릴리 호수 연안)",
    "description": "[대략] 안티파스 분봉왕국 시기(기원전 4~서기 39) 기준. 서쪽 경계는 프톨레마이스(악고) 방면 페니키아 영토와 접함",
    "confidence": "medium",
    "fill": "#ab47bc",
    "fill-opacity": 0.26,
    "stroke": "#7b1fa2",
    "stroke-width": 2
   },
   "geometry": {
    "type": "Polygon",
    "coordinates": [
     [
      [
       35.15,
       33.25
      ],
      [
       35.55,
       33.2
      ],
      [
       35.7,
       32.9
      ],
      [
       35.65,
       32.7
      ],
      [
       35.45,
       32.65
      ],
      [
       35.2,
       32.75
      ],
      [
       35.05,
       32.95
      ],
      [
       35.15,
       33.25
      ]
     ]
    ]
   }
  },
  {
   "type": "Feature",
   "properties": {
    "name": "갈릴리",
    "description": "[분봉왕국 수도] 서기 20 — 헤로데 안티파스가 로마 황제 티베리우스를 기려 건설한 신도시",
    "marker-color": "#4a148c",
    "marker-size": "medium"
   },
   "geometry": {
    "type": "Point",
    "coordinates": [
     35.53,
     32.79
    ]
   }
  },
  {
   "type": "Feature",
   "properties": {
    "name": "나사렛",
    "description": "[소도시] 기원전 4 — 예수의 성장지로 전해지는 하갈릴리 소읍",
    "marker-color": "#4a148c",
    "marker-size": "medium"
   },
   "geometry": {
    "type": "Point",
    "coordinates": [
     35.3,
     32.7
    ]
   }
  },
  {
   "type": "Feature",
   "properties": {
    "name": "가버나움",
    "description": "[호안 어촌] 기원전 4 — 갈릴리 호수 북안 어업 마을",
    "marker-color": "#4a148c",
    "marker-size": "medium"
   },
   "geometry": {
    "type": "Point",
    "coordinates": [
     35.575,
     32.88
    ]
   }
  },
  {
   "type": "Feature",
   "properties": {
    "name": "세포리스",
    "description": "[행정 중심지] 기원전 4 — 안티파스가 티베리아스 건설 전까지 사용한 갈릴리 행정 수도",
    "marker-color": "#4a148c",
    "marker-size": "medium"
   },
   "geometry": {
    "type": "Point",
    "coordinates": [
     35.28,
     32.75
    ]
   }
  }
 ]
}