{
 "type": "FeatureCollection",
 "features": [
  {
   "type": "Feature",
   "properties": {
    "name": "갈리아 — 갈리아 나르보넨시스 (Gallia Narbonensis)",
    "description": "[확실] 지중해 연안·론강 하류. 기원전 121년 정복, 기원전 118년 나르보 식민시 건설로 확립된 로마 최초기 속주 중 하나(오늘날 '프로방스'의 어원)",
    "confidence": "high",
    "fill": "#7b1fa2",
    "fill-opacity": 0.45,
    "stroke": "#4a148c",
    "stroke-width": 2
   },
   "geometry": {
    "type": "Polygon",
    "coordinates": [
     [
      [
       1.7,
       42.5
      ],
      [
       3.0,
       42.4
      ],
      [
       4.8,
       43.3
      ],
      [
       6.2,
       43.1
      ],
      [
       7.6,
       44.0
      ],
      [
       6.9,
       45.2
      ],
      [
       4.9,
       44.9
      ],
      [
       2.2,
       43.9
      ],
      [
       1.7,
       42.5
      ]
     ]
    ]
   }
  },
  {
   "type": "Feature",
   "properties": {
    "name": "갈리아 — 갈리아 아퀴타니아 (Gallia Aquitania)",
    "description": "[대략] 서남부 피레네~루아르 사이. 아우구스투스가 켈트족 영역까지 북쪽으로 확장 편입, 경계는 근사치",
    "confidence": "medium",
    "fill": "#ab47bc",
    "fill-opacity": 0.26,
    "stroke": "#7b1fa2",
    "stroke-width": 2
   },
   "geometry": {
    "type": "Polygon",
    "coordinates": [
     [
      [
       -1.8,
       43.3
      ],
      [
       -1.0,
       42.9
      ],
      [
       2.2,
       43.9
      ],
      [
       2.0,
       44.9
      ],
      [
       0.8,
       46.0
      ],
      [
       -1.0,
       46.5
      ],
      [
       -1.7,
       45.0
      ],
      [
       -1.8,
       43.3
      ]
     ]
    ]
   }
  },
  {
   "type": "Feature",
   "properties": {
    "name": "갈리아 — 갈리아 루그두넨시스 (Gallia Lugdunensis)",
    "description": "[대략] 중북부, 브르타뉴~파리 분지. 수도 루그두눔(리옹)은 갈리아 3속주 총회가 열린 실질적 중심지",
    "confidence": "medium",
    "fill": "#ab47bc",
    "fill-opacity": 0.26,
    "stroke": "#7b1fa2",
    "stroke-width": 2
   },
   "geometry": {
    "type": "Polygon",
    "coordinates": [
     [
      [
       0.8,
       46.0
      ],
      [
       2.0,
       44.9
      ],
      [
       4.9,
       44.9
      ],
      [
       6.0,
       47.0
      ],
      [
       5.0,
       49.0
      ],
      [
       2.3,
       49.9
      ],
      [
       -1.0,
       49.6
      ],
      [
       -4.8,
       48.4
      ],
      [
       -2.5,
       47.0
      ],
      [
       -1.0,
       46.5
      ],
      [
       0.8,
       46.0
      ]
     ]
    ]
   }
  },
  {
   "type": "Feature",
   "properties": {
    "name": "갈리아 — 갈리아 벨기카 (Gallia Belgica)",
    "description": "[대략] 북부, 오늘날 벨기에·룩셈부르크~라인강 서안. 게르마니아 국경 방어의 후방 기지",
    "confidence": "medium",
    "fill": "#ab47bc",
    "fill-opacity": 0.26,
    "stroke": "#7b1fa2",
    "stroke-width": 2
   },
   "geometry": {
    "type": "Polygon",
    "coordinates": [
     [
      [
       2.3,
       49.9
      ],
      [
       5.0,
       49.0
      ],
      [
       6.9,
       49.5
      ],
      [
       8.2,
       50.0
      ],
      [
       7.0,
       51.8
      ],
      [
       4.4,
       51.3
      ],
      [
       2.5,
       50.9
      ],
      [
       2.3,
       49.9
      ]
     ]
    ]
   }
  },
  {
   "type": "Feature",
   "properties": {
    "name": "루그두눔",
    "description": "[속주 수도] 기원전 43 — 카이사르 사후 건설, 3갈리아 총회 개최지",
    "marker-color": "#4a148c",
    "marker-size": "medium"
   },
   "geometry": {
    "type": "Point",
    "coordinates": [
     4.83,
     45.76
    ]
   }
  },
  {
   "type": "Feature",
   "properties": {
    "name": "루테티아",
    "description": "[파리시족 중심지] 기원전 52 — 베르킨게토릭스 항전의 배경 도시 중 하나, 후일 파리로 성장",
    "marker-color": "#4a148c",
    "marker-size": "medium"
   },
   "geometry": {
    "type": "Point",
    "coordinates": [
     2.3522,
     48.8566
    ]
   }
  },
  {
   "type": "Feature",
   "properties": {
    "name": "마살리아",
    "description": "[그리스계 항구도시] 기원전 600경 — 포카이아인 건설, 로마와 동맹하며 갈리아 정복의 교두보 역할",
    "marker-color": "#4a148c",
    "marker-size": "medium"
   },
   "geometry": {
    "type": "Point",
    "coordinates": [
     5.3698,
     43.2965
    ]
   }
  },
  {
   "type": "Feature",
   "properties": {
    "name": "보르도",
    "description": "[아퀴타니아 항구] 기원전 60경 — 대서양 무역 중심지",
    "marker-color": "#4a148c",
    "marker-size": "medium"
   },
   "geometry": {
    "type": "Point",
    "coordinates": [
     -0.5792,
     44.8378
    ]
   }
  },
  {
   "type": "Feature",
   "properties": {
    "name": "나르본느",
    "description": "[나르보넨시스 수도] 기원전 118 — 로마 최초의 갈리아 식민시",
    "marker-color": "#4a148c",
    "marker-size": "medium"
   },
   "geometry": {
    "type": "Point",
    "coordinates": [
     3.0043,
     43.1839
    ]
   }
  }
 ]
}