{
 "type": "FeatureCollection",
 "features": [
  {
   "type": "Feature",
   "properties": {
    "name": "갈리아인 — 갈리아 본토 (트란살피나)",
    "description": "[확실] 현 프랑스·벨기에·스위스 서부에 해당. 카이사르의 갈리아 전기(기원전 58~50년)로 부족 경계까지 비교적 상세히 기록됨.",
    "confidence": "high",
    "fill": "#7b1fa2",
    "fill-opacity": 0.45,
    "stroke": "#4a148c",
    "stroke-width": 2
   },
   "geometry": {
    "type": "Polygon",
    "coordinates": [
     [
      [
       2.5,
       51.0
      ],
      [
       7.5,
       49.5
      ],
      [
       8.5,
       47.5
      ],
      [
       7.0,
       45.5
      ],
      [
       7.0,
       43.5
      ],
      [
       4.5,
       43.2
      ],
      [
       -1.5,
       43.3
      ],
      [
       -4.5,
       47.5
      ],
      [
       -1.5,
       49.5
      ],
      [
       2.5,
       51.0
      ]
     ]
    ]
   }
  },
  {
   "type": "Feature",
   "properties": {
    "name": "갈리아인 — 갈리아키살피나 (포강 유역)",
    "description": "[확실] 기원전 4세기부터 갈리아인이 정착한 이탈리아 북부 포강 유역. 기원전 2세기 로마에 정복·동화됨.",
    "confidence": "high",
    "fill": "#7b1fa2",
    "fill-opacity": 0.45,
    "stroke": "#4a148c",
    "stroke-width": 2
   },
   "geometry": {
    "type": "Polygon",
    "coordinates": [
     [
      [
       7.5,
       45.5
      ],
      [
       9.0,
       46.3
      ],
      [
       11.5,
       46.0
      ],
      [
       13.0,
       45.6
      ],
      [
       12.5,
       44.5
      ],
      [
       9.5,
       44.5
      ],
      [
       7.5,
       44.7
      ],
      [
       7.5,
       45.5
      ]
     ]
    ]
   }
  },
  {
   "type": "Feature",
   "properties": {
    "name": "갈리아인 — 갈라티아 (아나톨리아)",
    "description": "[대략] 기원전 3세기 초 발칸을 거쳐 소아시아로 이주한 갈리아 부족(톨리스토보기·트로크미·테크토사게스)의 정착지. 정확한 부족별 경계는 사료가 소략하여 근사치.",
    "confidence": "medium",
    "fill": "#ab47bc",
    "fill-opacity": 0.26,
    "stroke": "#7b1fa2",
    "stroke-width": 2
   },
   "geometry": {
    "type": "Polygon",
    "coordinates": [
     [
      [
       31.5,
       40.5
      ],
      [
       33.5,
       41.0
      ],
      [
       34.5,
       40.0
      ],
      [
       33.5,
       38.8
      ],
      [
       31.5,
       39.0
      ],
      [
       30.8,
       39.8
      ],
      [
       31.5,
       40.5
      ]
     ]
    ]
   }
  }
 ]
}