{
 "type": "FeatureCollection",
 "features": [
  {
   "type": "Feature",
   "properties": {
    "name": "게르마니아 — 서부 게르마니아 (라인강~엘베강)",
    "description": "[대략] 카이사르·아우구스투스기 로마군이 반복 원정한 지역. 토이토부르크 전투(서기 9년) 이후 항구 지배 포기. 경계는 로마 사료 기준 근사치",
    "confidence": "medium",
    "fill": "#ab47bc",
    "fill-opacity": 0.26,
    "stroke": "#7b1fa2",
    "stroke-width": 2
   },
   "geometry": {
    "type": "Polygon",
    "coordinates": [
     [
      [
       6.0,
       50.8
      ],
      [
       6.1,
       53.3
      ],
      [
       8.1,
       53.9
      ],
      [
       10.5,
       54.5
      ],
      [
       13.0,
       54.0
      ],
      [
       13.5,
       52.0
      ],
      [
       11.9,
       50.0
      ],
      [
       9.0,
       49.0
      ],
      [
       7.5,
       49.0
      ],
      [
       6.0,
       49.5
      ],
      [
       6.0,
       50.8
      ]
     ]
    ]
   }
  },
  {
   "type": "Feature",
   "properties": {
    "name": "게르마니아 — 동부 게르마니아 (엘베강~비스와강)",
    "description": "[불확실] 타키투스 시대 기준 게르만 부족 분포의 동쪽 한계로 서술된 범위. 로마인의 직접 답사가 드물어 경계 신뢰도 낮음",
    "confidence": "low",
    "fill": "#ce93d8",
    "fill-opacity": 0.12,
    "stroke": "#ba68c8",
    "stroke-width": 1
   },
   "geometry": {
    "type": "Polygon",
    "coordinates": [
     [
      [
       13.0,
       54.0
      ],
      [
       16.5,
       54.5
      ],
      [
       19.0,
       54.3
      ],
      [
       18.6,
       52.0
      ],
      [
       17.0,
       50.0
      ],
      [
       14.7,
       50.9
      ],
      [
       13.5,
       52.0
      ],
      [
       13.0,
       54.0
      ]
     ]
    ]
   }
  },
  {
   "type": "Feature",
   "properties": {
    "name": "칼크리제",
    "description": "[전장] 9 — 토이토부르크 숲 전투 추정지, 바루스의 3개 군단 전멸",
    "marker-color": "#4a148c",
    "marker-size": "medium"
   },
   "geometry": {
    "type": "Point",
    "coordinates": [
     8.145,
     52.4
    ]
   }
  },
  {
   "type": "Feature",
   "properties": {
    "name": "라인 강",
    "description": "[로마 국경 요새] 기원전 13 — 라인강 방어선의 주요 군단 기지(현 마인츠), 게르마니아 자체가 아닌 로마측 국경 거점",
    "marker-color": "#4a148c",
    "marker-size": "medium"
   },
   "geometry": {
    "type": "Point",
    "coordinates": [
     8.2473,
     49.9929
    ]
   }
  },
  {
   "type": "Feature",
   "properties": {
    "name": "쾰른",
    "description": "[로마 국경 도시] 기원후 50 — 게르마니아 인페리오르 속주 수도(현 쾰른), 게르마니아 마그나와 라인강을 사이에 둠",
    "marker-color": "#4a148c",
    "marker-size": "medium"
   },
   "geometry": {
    "type": "Point",
    "coordinates": [
     6.9603,
     50.9375
    ]
   }
  }
 ]
}