{
 "type": "FeatureCollection",
 "features": [
  {
   "type": "Feature",
   "properties": {
    "name": "게르만 민족 — 스칸디나비아 기원지 (전승)",
    "description": "[불확실] 요르다네스 『게티카』 등이 전하는 게르만 제족의 전설적 기원지. 실제 고고학적 연속성이 불확실하여 학설로만 존재.",
    "confidence": "low",
    "fill": "#ce93d8",
    "fill-opacity": 0.12,
    "stroke": "#ba68c8",
    "stroke-width": 1
   },
   "geometry": {
    "type": "Polygon",
    "coordinates": [
     [
      [
       10.0,
       58.0
      ],
      [
       15.0,
       59.0
      ],
      [
       18.0,
       57.5
      ],
      [
       16.0,
       55.5
      ],
      [
       12.0,
       55.3
      ],
      [
       9.5,
       56.5
      ],
      [
       10.0,
       58.0
      ]
     ]
    ]
   }
  },
  {
   "type": "Feature",
   "properties": {
    "name": "게르만 민족 — 중부 유럽 핵심지 (라인강~비스툴라강, 1~2세기)",
    "description": "[확실] 타키투스 시대 로마가 파악한 게르만 제족의 확립된 거주 범위. 개별 부족 경계는 각 부족의 별도 파일 참조.",
    "confidence": "high",
    "fill": "#7b1fa2",
    "fill-opacity": 0.45,
    "stroke": "#4a148c",
    "stroke-width": 2
   },
   "geometry": {
    "type": "Polygon",
    "coordinates": [
     [
      [
       6.0,
       54.0
      ],
      [
       15.0,
       55.0
      ],
      [
       19.0,
       54.0
      ],
      [
       18.0,
       50.0
      ],
      [
       10.0,
       49.0
      ],
      [
       6.0,
       50.5
      ],
      [
       6.0,
       54.0
      ]
     ]
    ]
   }
  },
  {
   "type": "Feature",
   "properties": {
    "name": "게르만 민족 — 4~5세기 확산권 (도나우·흑해 변경)",
    "description": "[불확실] 민족대이동기 게르만 제족이 로마 변경을 압박·침투하며 흩어진 범위. 특정 왕국의 영토가 아니라 여러 부족의 압력이 미친 느슨한 권역이라 경계가 매우 불확실.",
    "confidence": "low",
    "fill": "#ce93d8",
    "fill-opacity": 0.12,
    "stroke": "#ba68c8",
    "stroke-width": 1
   },
   "geometry": {
    "type": "Polygon",
    "coordinates": [
     [
      [
       10.0,
       49.0
      ],
      [
       20.0,
       48.0
      ],
      [
       30.0,
       47.0
      ],
      [
       38.0,
       46.0
      ],
      [
       35.0,
       42.0
      ],
      [
       20.0,
       43.0
      ],
      [
       12.0,
       45.0
      ],
      [
       10.0,
       49.0
      ]
     ]
    ]
   }
  }
 ]
}