{
 "type": "FeatureCollection",
 "features": [
  {
   "type": "Feature",
   "properties": {
    "name": "고트족의 남하",
    "period": "2세기~378년"
   },
   "geometry": {
    "type": "LineString",
    "coordinates": [
     [
      14.0,
      63.0
     ],
     [
      18.9519,
      54.3617
     ],
     [
      10,
      51
     ],
     [
      36.0,
      43.0
     ],
     [
      39.2,
      47.1
     ],
     [
      17.0,
      48.0
     ],
     [
      27.585,
      43.2252
     ],
     [
      23.5,
      43.5
     ],
     [
      26.5556,
      41.6769
     ]
    ]
   }
  },
  {
   "type": "Feature",
   "properties": {
    "name": "스칸디나비아 반도",
    "year": 100,
    "description": "[불확실] 100 — 요르다네스의 전승에서 고트족의 기원지로 지칭. 스칸디나비아에서 세 척의 배에 실려 이주했다는 전설.",
    "confidence": "low",
    "marker-color": "#c62828",
    "marker-size": "small"
   },
   "geometry": {
    "type": "Point",
    "coordinates": [
     14.0,
     63.0
    ]
   }
  },
  {
   "type": "Feature",
   "properties": {
    "name": "비수아 강",
    "year": 150,
    "description": "[대략] 150 — Gothiscandza 지역. 고트족이 1세기 초부터 정착한 첫 영토. Wielbark 문화의 중심지.",
    "confidence": "medium",
    "marker-color": "#f9a825",
    "marker-size": "small"
   },
   "geometry": {
    "type": "Point",
    "coordinates": [
     18.9519,
     54.3617
    ]
   }
  },
  {
   "type": "Feature",
   "properties": {
    "name": "게르마니아",
    "year": 150,
    "description": "[대략] 150 — 비수아 강 남서쪽 인접 지역. 고트족의 영향권 확대 과정에서 부분적으로 장악한 지역.",
    "confidence": "medium",
    "marker-color": "#f9a825",
    "marker-size": "small"
   },
   "geometry": {
    "type": "Point",
    "coordinates": [
     10,
     51
    ]
   }
  },
  {
   "type": "Feature",
   "properties": {
    "name": "흑해",
    "year": 200,
    "description": "[대략] 200 — 2세기 중반부터 고트족이 남하하기 시작한 목표 지역. Wielbark 문화의 남동 확대.",
    "confidence": "medium",
    "marker-color": "#f9a825",
    "marker-size": "small"
   },
   "geometry": {
    "type": "Point",
    "coordinates": [
     36.0,
     43.0
    ]
   }
  },
  {
   "type": "Feature",
   "properties": {
    "name": "탄아이스",
    "year": 250,
    "description": "[대략] 250 — 돈 강 삼각주. Filimer 왕 시대 고트족이 정착한 Oium 지역의 동쪽 경계. 3세기 중반 고트족에 의해 파괴된 그리스 도시.",
    "confidence": "medium",
    "marker-color": "#f9a825",
    "marker-size": "small"
   },
   "geometry": {
    "type": "Point",
    "coordinates": [
     39.2,
     47.1
    ]
   }
  },
  {
   "type": "Feature",
   "properties": {
    "name": "도나우 강",
    "year": 300,
    "description": "[대략] 300 — Chernyakhov 문화의 형성과 함께 고트족의 영토 확대. 흑해에서 도나우까지 광대한 영역 지배.",
    "confidence": "medium",
    "marker-color": "#f9a825",
    "marker-size": "small"
   },
   "geometry": {
    "type": "Point",
    "coordinates": [
     17.0,
     48.0
    ]
   }
  },
  {
   "type": "Feature",
   "properties": {
    "name": "마르키아노폴리스",
    "year": 376,
    "description": "[확실] 376 — 376년 고트족의 도나우 도하 직후. Moesia Secunda의 수도. 로마의 보급품 약속 실패로 인한 고트족 반란의 촉발점.",
    "confidence": "high",
    "marker-color": "#2e7d32",
    "marker-size": "medium"
   },
   "geometry": {
    "type": "Point",
    "coordinates": [
     27.585,
     43.2252
    ]
   }
  },
  {
   "type": "Feature",
   "properties": {
    "name": "모이시아",
    "year": 376,
    "description": "[확실] 376 — 376년 고트족의 도나우 도하 후 로마령 속주로 진입. Lupicinus 백작의 부패로 인한 기근 야기.",
    "confidence": "high",
    "marker-color": "#2e7d32",
    "marker-size": "medium"
   },
   "geometry": {
    "type": "Point",
    "coordinates": [
     23.5,
     43.5
    ]
   }
  },
  {
   "type": "Feature",
   "properties": {
    "name": "하드리아노폴리스",
    "year": 378,
    "description": "[확실] 378 — 378년 8월 9일, Fritigern 왕이 이끈 고트족이 로마 황제 발렌스를 격파한 결정적 전투. 로마 군력의 참패.",
    "confidence": "high",
    "marker-color": "#2e7d32",
    "marker-size": "medium"
   },
   "geometry": {
    "type": "Point",
    "coordinates": [
     26.5556,
     41.6769
    ]
   }
  }
 ]
}