{
 "type": "FeatureCollection",
 "features": [
  {
   "type": "Feature",
   "properties": {
    "name": "유스티니아누스의 서방 수복",
    "period": "533~554"
   },
   "geometry": {
    "type": "LineString",
    "coordinates": [
     [
      28.95,
      41.02
     ],
     [
      11.12,
      35.24
     ],
     [
      10.32,
      36.85
     ],
     [
      10.32,
      36.85
     ],
     [
      13.36,
      38.12
     ],
     [
      15.29,
      37.06
     ],
     [
      15.56,
      38.19
     ],
     [
      12.49,
      41.89
     ],
     [
      12.2,
      44.42
     ]
    ]
   }
  },
  {
   "type": "Feature",
   "properties": {
    "name": "콘스탄티노플",
    "year": 533,
    "description": "[확실] 533 — 벨리사리우스 함대가 북아프리카 반달 왕국 원정을 위해 출항",
    "confidence": "high",
    "marker-color": "#2e7d32",
    "marker-size": "medium"
   },
   "geometry": {
    "type": "Point",
    "coordinates": [
     28.95,
     41.02
    ]
   }
  },
  {
   "type": "Feature",
   "properties": {
    "name": "Caputvada",
    "year": 533,
    "description": "[확실] 533 — 동로마 함대가 튀니지 해안에 상륙, 현지 주민 무방비 상태 확인",
    "confidence": "high",
    "marker-color": "#2e7d32",
    "marker-size": "medium"
   },
   "geometry": {
    "type": "Point",
    "coordinates": [
     11.12,
     35.24
    ]
   }
  },
  {
   "type": "Feature",
   "properties": {
    "name": "카르타고",
    "year": 533,
    "description": "[확실] 533 — Ad Decimum 전투에서 반달군을 격파하고 카르타고 점령, 반달 왕국 수도 탈환",
    "confidence": "high",
    "marker-color": "#2e7d32",
    "marker-size": "medium"
   },
   "geometry": {
    "type": "Point",
    "coordinates": [
     10.32,
     36.85
    ]
   }
  },
  {
   "type": "Feature",
   "properties": {
    "name": "Tricamarum",
    "year": 533,
    "description": "[대략] 533 — Tricamarum 전투에서 반달군 재격파, 젤리메르 왕 항복 결정",
    "confidence": "medium",
    "marker-color": "#f9a825",
    "marker-size": "small"
   },
   "geometry": {
    "type": "Point",
    "coordinates": [
     10.32,
     36.85
    ]
   }
  },
  {
   "type": "Feature",
   "properties": {
    "name": "팔레르모",
    "year": 535,
    "description": "[확실] 535 — 고트 전쟁 시작, 시칠리아 공략 개시, 벨리사리우스의 궁노수 고지 전술로 항복 강요",
    "confidence": "high",
    "marker-color": "#2e7d32",
    "marker-size": "medium"
   },
   "geometry": {
    "type": "Point",
    "coordinates": [
     13.36,
     38.12
    ]
   }
  },
  {
   "type": "Feature",
   "properties": {
    "name": "시라쿠사",
    "year": 535,
    "description": "[확실] 535 — 시칠리아의 주요 도시 점령 완료, 동로마의 이탈리아 진출 기반 확보",
    "confidence": "high",
    "marker-color": "#2e7d32",
    "marker-size": "medium"
   },
   "geometry": {
    "type": "Point",
    "coordinates": [
     15.29,
     37.06
    ]
   }
  },
  {
   "type": "Feature",
   "properties": {
    "name": "메시나",
    "year": 536,
    "description": "[확실] 536 — 메시나 해협 건넘, 5천 명의 군대로 이탈리아 본토 침공",
    "confidence": "high",
    "marker-color": "#2e7d32",
    "marker-size": "medium"
   },
   "geometry": {
    "type": "Point",
    "coordinates": [
     15.56,
     38.19
    ]
   }
  },
  {
   "type": "Feature",
   "properties": {
    "name": "로마",
    "year": 536,
    "description": "[확실] 536 — 나폴리 공략 후 로마 점령, 고트 전쟁 최대 성과, 1년간 포위 전",
    "confidence": "high",
    "marker-color": "#2e7d32",
    "marker-size": "medium"
   },
   "geometry": {
    "type": "Point",
    "coordinates": [
     12.49,
     41.89
    ]
   }
  },
  {
   "type": "Feature",
   "properties": {
    "name": "라벤나",
    "year": 540,
    "description": "[확실] 540 — 고트 왕국의 최후 거점 라벤나 함락, 고트 저항의 중심 붕괴",
    "confidence": "high",
    "marker-color": "#2e7d32",
    "marker-size": "medium"
   },
   "geometry": {
    "type": "Point",
    "coordinates": [
     12.2,
     44.42
    ]
   }
  }
 ]
}