{
 "type": "FeatureCollection",
 "features": [
  {
   "type": "Feature",
   "properties": {
    "name": "키르키스 고원 — 톈산 산계 전역",
    "description": "[불확실] 중앙아시아를 동서로 가로지르는 고원·산맥 지대. 로마사에서는 훈족의 발상지로 언급될 뿐 직접 지배가 미친 적 없는 극동의 배경 지형",
    "confidence": "low",
    "fill": "#ce93d8",
    "fill-opacity": 0.12,
    "stroke": "#ba68c8",
    "stroke-width": 1
   },
   "geometry": {
    "type": "Polygon",
    "coordinates": [
     [
      [
       70.0,
       43.5
      ],
      [
       75.0,
       43.0
      ],
      [
       80.0,
       42.8
      ],
      [
       85.0,
       42.5
      ],
      [
       90.0,
       42.0
      ],
      [
       94.0,
       41.5
      ],
      [
       94.0,
       40.5
      ],
      [
       90.0,
       41.0
      ],
      [
       85.0,
       41.3
      ],
      [
       80.0,
       41.5
      ],
      [
       75.0,
       41.8
      ],
      [
       70.0,
       42.0
      ],
      [
       70.0,
       43.5
      ]
     ]
    ]
   }
  }
 ]
}