{
 "type": "FeatureCollection",
 "features": [
  {
   "type": "Feature",
   "properties": {
    "name": "리비아인 — 키레나이카·마르마리카 분포 (고전고대)",
    "description": "[불확실] 고전고대 전반에 걸친 대략적 분포 — 키레나이카(현 리비아 동부)와 이집트 서쪽 마르마리카. 유목·반유목 생활 방식이라 고정된 국경이 아니라 성긴 분포로 표시했다.",
    "confidence": "low",
    "fill": "#ce93d8",
    "fill-opacity": 0.12,
    "stroke": "#ba68c8",
    "stroke-width": 1
   },
   "geometry": {
    "type": "Polygon",
    "coordinates": [
     [
      [
       19.5,
       32.5
      ],
      [
       24.0,
       32.0
      ],
      [
       25.5,
       31.0
      ],
      [
       23.0,
       30.0
      ],
      [
       20.0,
       30.5
      ],
      [
       18.5,
       31.5
      ],
      [
       19.5,
       32.5
      ]
     ]
    ]
   }
  }
 ]
}