{
 "type": "FeatureCollection",
 "features": [
  {
   "type": "Feature",
   "properties": {
    "name": "롬바르드 왕국 — 북부 본토 (랑고바르디아 마요르)",
    "description": "[확실] 파비아를 수도로 한 핵심 영역. 알프스에서 이탈리아 중부까지 포괄. 동로마의 라벤나 총독부와 로마 공국으로 인해 남쪽은 단절됨.",
    "confidence": "high",
    "fill": "#7b1fa2",
    "fill-opacity": 0.45,
    "stroke": "#4a148c",
    "stroke-width": 2
   },
   "geometry": {
    "type": "Polygon",
    "coordinates": [
     [
      [
       7.6,
       45.5
      ],
      [
       7.5,
       45.8
      ],
      [
       8.0,
       46.0
      ],
      [
       9.0,
       46.2
      ],
      [
       10.0,
       46.3
      ],
      [
       11.0,
       46.5
      ],
      [
       12.0,
       46.2
      ],
      [
       12.5,
       45.9
      ],
      [
       12.8,
       45.6
      ],
      [
       11.8733,
       45.4078
      ],
      [
       10.9833,
       45.4333
      ],
      [
       10.0261,
       45.1339
      ],
      [
       9.67,
       45.695
      ],
      [
       9.1895,
       45.4643
      ],
      [
       9.15,
       45.1833
      ],
      [
       9.0,
       44.8
      ],
      [
       8.5,
       44.5
      ],
      [
       8.0,
       44.3
      ],
      [
       7.5,
       44.0
      ],
      [
       7.2,
       44.2
      ],
      [
       7.0,
       44.5
      ],
      [
       7.6,
       45.5
      ]
     ]
    ]
   }
  },
  {
   "type": "Feature",
   "properties": {
    "name": "롬바르드 왕국 — 스폴레토 공국 (중부 산악지역)",
    "description": "[확실] 움브리아·아브루초·마르께 산악지역. 동로마의 펜타폴리스(아드리아해 연안)와 로마 공국으로 북·서쪽이 제약됨. 베네벤토 공국과 남쪽에서 만남.",
    "confidence": "high",
    "fill": "#7b1fa2",
    "fill-opacity": 0.45,
    "stroke": "#4a148c",
    "stroke-width": 2
   },
   "geometry": {
    "type": "Polygon",
    "coordinates": [
     [
      [
       12.5,
       43.0
      ],
      [
       12.6406,
       42.5641
      ],
      [
       12.7352,
       42.7352
      ],
      [
       12.8626,
       42.4058
      ],
      [
       13.5,
       42.8
      ],
      [
       13.583,
       42.85
      ],
      [
       13.7158,
       43.1608
      ],
      [
       13.0689,
       43.1403
      ],
      [
       13.0,
       43.8
      ],
      [
       12.5,
       43.5
      ],
      [
       11.8,
       43.5
      ],
      [
       12.0,
       43.2
      ],
      [
       12.5,
       43.0
      ]
     ]
    ]
   }
  },
  {
   "type": "Feature",
   "properties": {
    "name": "롬바르드 왕국 — 베네벤토 공국 (남부)",
    "description": "[확실] 캄파니아·사무니움 지역. 스폴레토와 동로마 영역(나폴리, 살레르노, 아말피 연안)으로 둘러싸여 있음. 가장 자율적인 영토.",
    "confidence": "high",
    "fill": "#7b1fa2",
    "fill-opacity": 0.45,
    "stroke": "#4a148c",
    "stroke-width": 2
   },
   "geometry": {
    "type": "Polygon",
    "coordinates": [
     [
      [
       13.0,
       42.8
      ],
      [
       13.5,
       42.5
      ],
      [
       14.0,
       42.3
      ],
      [
       14.2139,
       41.1056
      ],
      [
       14.7781,
       41.1307
      ],
      [
       14.6024,
       40.634
      ],
      [
       14.0,
       40.8
      ],
      [
       13.5,
       40.9
      ],
      [
       13.0,
       41.2
      ],
      [
       12.8,
       41.5
      ],
      [
       12.6,
       41.8
      ],
      [
       12.5,
       42.2
      ],
      [
       13.0,
       42.8
      ]
     ]
    ]
   }
  },
  {
   "type": "Feature",
   "properties": {
    "name": "파비아",
    "description": "[수도] 572 — 572년 3년 포위 끝에 함락. 알보인 이후 롬바르드 왕국의 수도가 됨.",
    "marker-color": "#4a148c",
    "marker-size": "medium"
   },
   "geometry": {
    "type": "Point",
    "coordinates": [
     9.15,
     45.1833
    ]
   }
  },
  {
   "type": "Feature",
   "properties": {
    "name": "밀라노",
    "description": "[주요도시] 568 — 알보인의 침략 직후 함락된 주요 도시. 북부 랑고바르디아 마요르의 중심 도시.",
    "marker-color": "#4a148c",
    "marker-size": "medium"
   },
   "geometry": {
    "type": "Point",
    "coordinates": [
     9.1895,
     45.4643
    ]
   }
  },
  {
   "type": "Feature",
   "properties": {
    "name": "베르가모",
    "description": "[주요도시] 568 — 북부 알프스 지역의 중요한 요새 도시.",
    "marker-color": "#4a148c",
    "marker-size": "medium"
   },
   "geometry": {
    "type": "Point",
    "coordinates": [
     9.67,
     45.695
    ]
   }
  },
  {
   "type": "Feature",
   "properties": {
    "name": "베로나",
    "description": "[주요도시] 569 — 동부 국경 지역의 전략적 요새도시.",
    "marker-color": "#4a148c",
    "marker-size": "medium"
   },
   "geometry": {
    "type": "Point",
    "coordinates": [
     10.9833,
     45.4333
    ]
   }
  },
  {
   "type": "Feature",
   "properties": {
    "name": "브레시아",
    "description": "[주요도시] 568 — 알보인의 침략 당시 빠르게 점령된 도시.",
    "marker-color": "#4a148c",
    "marker-size": "medium"
   },
   "geometry": {
    "type": "Point",
    "coordinates": [
     10.2147,
     45.5356
    ]
   }
  },
  {
   "type": "Feature",
   "properties": {
    "name": "크레모나",
    "description": "[주요도시] 570 — 포강 유역의 중요한 도시. 롬바르드 강국의 발전에 기여.",
    "marker-color": "#4a148c",
    "marker-size": "medium"
   },
   "geometry": {
    "type": "Point",
    "coordinates": [
     10.0261,
     45.1339
    ]
   }
  },
  {
   "type": "Feature",
   "properties": {
    "name": "루카",
    "description": "[주요도시] 580 — 토스카나 지역의 주요 도시. 롬바르드 영역 남부 경계 근처.",
    "marker-color": "#4a148c",
    "marker-size": "medium"
   },
   "geometry": {
    "type": "Point",
    "coordinates": [
     10.5028,
     43.8417
    ]
   }
  },
  {
   "type": "Feature",
   "properties": {
    "name": "스폴레토",
    "description": "[수도] 570 — 스폴레토 공국의 수도. 비아 플라미니아와 로마-라벤나 연결로를 통제.",
    "marker-color": "#4a148c",
    "marker-size": "medium"
   },
   "geometry": {
    "type": "Point",
    "coordinates": [
     12.7403,
     42.7352
    ]
   }
  },
  {
   "type": "Feature",
   "properties": {
    "name": "베네벤토",
    "description": "[수도] 575 — 베네벤토 공국의 수도. 사무니움 지역의 중심 도시.",
    "marker-color": "#4a148c",
    "marker-size": "medium"
   },
   "geometry": {
    "type": "Point",
    "coordinates": [
     14.7781,
     41.1307
    ]
   }
  },
  {
   "type": "Feature",
   "properties": {
    "name": "카푸아",
    "description": "[주요도시] 595 — 아레키스가 정복. 베네벤토 공국의 중요 도시.",
    "marker-color": "#4a148c",
    "marker-size": "medium"
   },
   "geometry": {
    "type": "Point",
    "coordinates": [
     14.2139,
     41.1056
    ]
   }
  },
  {
   "type": "Feature",
   "properties": {
    "name": "크로톤",
    "description": "[항구] 600 — 남부 이탈리아의 항구도시. 롬바르드의 남쪽 확장 경계.",
    "marker-color": "#4a148c",
    "marker-size": "medium"
   },
   "geometry": {
    "type": "Point",
    "coordinates": [
     17.12,
     39.08
    ]
   }
  },
  {
   "type": "Feature",
   "properties": {
    "name": "테르니",
    "description": "[주요도시] 580 — 스폴레토 공국 내 산악지역의 중요 도시.",
    "marker-color": "#4a148c",
    "marker-size": "medium"
   },
   "geometry": {
    "type": "Point",
    "coordinates": [
     12.6406,
     42.5641
    ]
   }
  },
  {
   "type": "Feature",
   "properties": {
    "name": "리에티",
    "description": "[주요도시] 585 — 스폴레토 공국의 동쪽 거점. 불안정한 경계 지역.",
    "marker-color": "#4a148c",
    "marker-size": "medium"
   },
   "geometry": {
    "type": "Point",
    "coordinates": [
     12.8626,
     42.4058
    ]
   }
  }
 ]
}