{
 "type": "FeatureCollection",
 "features": [
  {
   "type": "Feature",
   "properties": {
    "name": "지중해 — 서지중해 (알보란해~발레아레스)",
    "description": "[대략] 지브롤터에서 사르데냐 서쪽까지. 제1·2차 포에니 전쟁의 서쪽 해상 무대이자 카르타고 세력권의 핵심 수역",
    "confidence": "medium",
    "fill": "#ab47bc",
    "fill-opacity": 0.26,
    "stroke": "#7b1fa2",
    "stroke-width": 2
   },
   "geometry": {
    "type": "Polygon",
    "coordinates": [
     [
      [
       -6.0,
       36.3
      ],
      [
       -5.5,
       37.0
      ],
      [
       -4.0,
       38.0
      ],
      [
       -2.5,
       39.5
      ],
      [
       -1.0,
       40.5
      ],
      [
       1.0,
       41.2
      ],
      [
       3.0,
       41.0
      ],
      [
       4.0,
       40.0
      ],
      [
       3.5,
       39.0
      ],
      [
       2.5,
       38.0
      ],
      [
       1.0,
       37.0
      ],
      [
       -1.0,
       36.3
      ],
      [
       -3.0,
       36.0
      ],
      [
       -5.8,
       35.8
      ],
      [
       -5.8,
       35.8
      ],
      [
       -6.0,
       36.3
      ]
     ]
    ]
   }
  },
  {
   "type": "Feature",
   "properties": {
    "name": "지중해 — 티레니아해",
    "description": "[대략] 이탈리아 서안과 사르데냐·코르시카·시칠리아에 둘러싸인 수역. 로마 본토의 앞바다이자 폼페이우스가 해적을 소탕한 무대",
    "confidence": "medium",
    "fill": "#ab47bc",
    "fill-opacity": 0.26,
    "stroke": "#7b1fa2",
    "stroke-width": 2
   },
   "geometry": {
    "type": "Polygon",
    "coordinates": [
     [
      [
       9.0,
       39.0
      ],
      [
       9.5,
       40.5
      ],
      [
       9.3,
       42.0
      ],
      [
       10.5,
       43.0
      ],
      [
       11.5,
       42.5
      ],
      [
       12.5,
       41.5
      ],
      [
       13.5,
       40.7
      ],
      [
       14.5,
       40.0
      ],
      [
       15.3,
       39.0
      ],
      [
       15.0,
       38.0
      ],
      [
       14.0,
       37.8
      ],
      [
       12.5,
       38.0
      ],
      [
       11.0,
       38.3
      ],
      [
       9.8,
       38.5
      ],
      [
       9.0,
       39.0
      ],
      [
       9.0,
       39.0
      ]
     ]
    ]
   }
  },
  {
   "type": "Feature",
   "properties": {
    "name": "지중해 — 중부 지중해 (시칠리아 해협)",
    "description": "[대략] 북아프리카와 시칠리아 사이. 제1차 포에니 전쟁 해전(밀레·에크노무스)의 무대이자 로마-카르타고 곡물·교역로가 교차하던 수역",
    "confidence": "medium",
    "fill": "#ab47bc",
    "fill-opacity": 0.26,
    "stroke": "#7b1fa2",
    "stroke-width": 2
   },
   "geometry": {
    "type": "Polygon",
    "coordinates": [
     [
      [
       10.0,
       37.5
      ],
      [
       11.5,
       37.3
      ],
      [
       13.0,
       37.0
      ],
      [
       14.5,
       36.5
      ],
      [
       16.0,
       36.0
      ],
      [
       18.0,
       35.5
      ],
      [
       20.0,
       35.0
      ],
      [
       21.0,
       34.5
      ],
      [
       20.5,
       33.5
      ],
      [
       18.0,
       33.5
      ],
      [
       15.0,
       33.8
      ],
      [
       12.0,
       34.5
      ],
      [
       10.0,
       35.5
      ],
      [
       9.0,
       36.5
      ],
      [
       10.0,
       37.5
      ],
      [
       10.0,
       37.5
      ]
     ]
    ]
   }
  },
  {
   "type": "Feature",
   "properties": {
    "name": "지중해 — 동지중해 (레반트~이집트 연안)",
    "description": "[대략] 에게해 남단에서 이집트·시리아 해안까지. 안토니우스·클레오파트라의 무대이자 이후 비잔티움 곡물 항로의 종착 수역",
    "confidence": "medium",
    "fill": "#ab47bc",
    "fill-opacity": 0.26,
    "stroke": "#7b1fa2",
    "stroke-width": 2
   },
   "geometry": {
    "type": "Polygon",
    "coordinates": [
     [
      [
       23.0,
       36.5
      ],
      [
       25.0,
       36.0
      ],
      [
       27.0,
       35.5
      ],
      [
       29.0,
       34.5
      ],
      [
       31.0,
       33.0
      ],
      [
       33.0,
       32.5
      ],
      [
       34.5,
       32.0
      ],
      [
       34.8,
       31.2
      ],
      [
       33.0,
       31.0
      ],
      [
       31.0,
       31.3
      ],
      [
       29.0,
       31.5
      ],
      [
       27.0,
       32.0
      ],
      [
       25.0,
       33.0
      ],
      [
       23.5,
       34.5
      ],
      [
       22.5,
       35.5
      ],
      [
       23.0,
       36.5
      ],
      [
       23.0,
       36.5
      ]
     ]
    ]
   }
  },
  {
   "type": "Feature",
   "properties": {
    "name": "카르타고",
    "description": "[적대 해양세력 수도] 기원전 264 — 제1차 포에니 전쟁 발발 당시 지중해 서부를 지배하던 상업제국의 중심",
    "marker-color": "#4a148c",
    "marker-size": "medium"
   },
   "geometry": {
    "type": "Point",
    "coordinates": [
     10.3233,
     36.8528
    ]
   }
  },
  {
   "type": "Feature",
   "properties": {
    "name": "악티움",
    "description": "[해전지] 기원전 31 — 옥타비아누스가 안토니우스·클레오파트라 연합함대를 격파, 지중해 전역을 로마 단일 지배로 통합",
    "marker-color": "#4a148c",
    "marker-size": "medium"
   },
   "geometry": {
    "type": "Point",
    "coordinates": [
     20.75,
     38.95
    ]
   }
  },
  {
   "type": "Feature",
   "properties": {
    "name": "알렉산드리아",
    "description": "[주요 항구] 기원전 30 — 이집트 병합으로 지중해 동부 최대 곡창·무역항이 로마 손에 들어옴",
    "marker-color": "#4a148c",
    "marker-size": "medium"
   },
   "geometry": {
    "type": "Point",
    "coordinates": [
     29.9187,
     31.2001
    ]
   }
  },
  {
   "type": "Feature",
   "properties": {
    "name": "밀라초",
    "description": "[해전지] 기원전 260 — 밀레 해전. 로마가 건조한 지 얼마 안 된 함대로 카르타고 해군에 첫 승리를 거둔 곳",
    "marker-color": "#4a148c",
    "marker-size": "medium"
   },
   "geometry": {
    "type": "Point",
    "coordinates": [
     15.24,
     38.22
    ]
   }
  }
 ]
}