{
 "type": "FeatureCollection",
 "features": [
  {
   "type": "Feature",
   "properties": {
    "name": "나일 강",
    "period": "기원전 30~서기 5세기"
   },
   "geometry": {
    "type": "LineString",
    "coordinates": [
     [
      32.89,
      24.09
     ],
     [
      32.641,
      25.684
     ],
     [
      32.72,
      26.16
     ],
     [
      30.89,
      27.8
     ],
     [
      31.25,
      29.85
     ],
     [
      31.23,
      30.06
     ],
     [
      31.14,
      30.1725
     ],
     [
      30.42,
      31.45
     ]
    ]
   }
  },
  {
   "type": "Feature",
   "properties": {
    "name": "시에네·엘레판티네(제1폭포 요새)",
    "year": null,
    "description": "[확실] ? — 로마 이집트 속주의 최남단 국경 수비대. 폭포(급류) 지대가 자연 방벽이 되어 그 이남은 누비아·메로에 왕국권으로 남았다",
    "confidence": "high",
    "marker-color": "#2e7d32",
    "marker-size": "medium"
   },
   "geometry": {
    "type": "Point",
    "coordinates": [
     32.89,
     24.09
    ]
   }
  },
  {
   "type": "Feature",
   "properties": {
    "name": "테베",
    "year": null,
    "description": "[확실] ? — 파라오 시대 종교 수도(현대 룩소르). 로마인 관광객들이 거대한 신전과 '멤논의 거상'을 보러 나일 강을 거슬러 올라온 곳",
    "confidence": "high",
    "marker-color": "#2e7d32",
    "marker-size": "medium"
   },
   "geometry": {
    "type": "Point",
    "coordinates": [
     32.641,
     25.684
    ]
   }
  },
  {
   "type": "Feature",
   "properties": {
    "name": "케나 굴곡",
    "year": null,
    "description": "[대략] ? — 나일 강이 동쪽 사막을 피해 크게 휘어 도는 대굴곡 지점",
    "confidence": "medium",
    "marker-color": "#f9a825",
    "marker-size": "small"
   },
   "geometry": {
    "type": "Point",
    "coordinates": [
     32.72,
     26.16
    ]
   }
  },
  {
   "type": "Feature",
   "properties": {
    "name": "안티노폴리스",
    "year": null,
    "description": "[확실] ? — 하드리아누스가 총애하던 안티노우스가 나일 강에서 익사한 뒤(130년경) 그를 기려 세운 신도시",
    "confidence": "high",
    "marker-color": "#2e7d32",
    "marker-size": "medium"
   },
   "geometry": {
    "type": "Point",
    "coordinates": [
     30.89,
     27.8
    ]
   }
  },
  {
   "type": "Feature",
   "properties": {
    "name": "멤피스",
    "year": null,
    "description": "[대략] ? — 파라오 시대 옛 수도. 로마 속주 이집트의 내륙 배후지로 남았다",
    "confidence": "medium",
    "marker-color": "#f9a825",
    "marker-size": "small"
   },
   "geometry": {
    "type": "Point",
    "coordinates": [
     31.25,
     29.85
    ]
   }
  },
  {
   "type": "Feature",
   "properties": {
    "name": "바빌론 요새",
    "year": null,
    "description": "[대략] ? — 로마가 이집트를 직할 속주로 삼은 뒤 군단을 상시 주둔시킨 요새(현재 카이로 옛 시가). 다른 '바빌론'(메소포타미아)과 무관한 동명이지",
    "confidence": "medium",
    "marker-color": "#f9a825",
    "marker-size": "small"
   },
   "geometry": {
    "type": "Point",
    "coordinates": [
     31.23,
     30.06
    ]
   }
  },
  {
   "type": "Feature",
   "properties": {
    "name": "나일 강",
    "year": null,
    "description": "[대략] ? — 삼각주가 갈라지기 시작하는 지점. 기원전 48~47년 카이사르와 클레오파트라가 이 물줄기를 유람선으로 오르내렸다",
    "confidence": "medium",
    "marker-color": "#f9a825",
    "marker-size": "small"
   },
   "geometry": {
    "type": "Point",
    "coordinates": [
     31.14,
     30.1725
    ]
   }
  },
  {
   "type": "Feature",
   "properties": {
    "name": "지중해 하구(로제타 지류)",
    "year": null,
    "description": "[대략] ? — 지중해로 흘러드는 하구. 로마의 곡창 이집트에서 거둔 밀이 이 물줄기를 타고 알렉산드리아로 모여 로마로 실려 갔다",
    "confidence": "medium",
    "marker-color": "#f9a825",
    "marker-size": "small"
   },
   "geometry": {
    "type": "Point",
    "coordinates": [
     30.42,
     31.45
    ]
   }
  }
 ]
}