{
 "type": "FeatureCollection",
 "features": [
  {
   "type": "Feature",
   "properties": {
    "name": "누미디아인 — 누미디아 왕국 (마시니사~유구르타기, 기원전 2세기)",
    "description": "[확실] 기원전 2세기 마시니사가 통일한 누미디아 왕국의 대략적 판도부터 기원전 106년 유구르타 전쟁 종결까지. 카르타고(동)와 마우레타니아(서) 사이, 현 알제리 북부에 해당.",
    "confidence": "high",
    "fill": "#7b1fa2",
    "fill-opacity": 0.45,
    "stroke": "#4a148c",
    "stroke-width": 2
   },
   "geometry": {
    "type": "Polygon",
    "coordinates": [
     [
      [
       8.5,
       37.0
      ],
      [
       8.2,
       36.2
      ],
      [
       6.0,
       35.3
      ],
      [
       3.0,
       35.0
      ],
      [
       0.5,
       34.7
      ],
      [
       -0.5,
       35.5
      ],
      [
       2.0,
       36.5
      ],
      [
       5.0,
       36.8
      ],
      [
       7.0,
       37.0
      ],
      [
       8.5,
       37.0
      ]
     ]
    ]
   }
  }
 ]
}