{
 "type": "FeatureCollection",
 "features": [
  {
   "type": "Feature",
   "properties": {
    "name": "오리엔트 — 킬리키아·이사우리아",
    "description": "[대략] 관구 서북단, 아나톨리아 남해안 산악·평야지대",
    "confidence": "medium",
    "fill": "#ab47bc",
    "fill-opacity": 0.26,
    "stroke": "#7b1fa2",
    "stroke-width": 2
   },
   "geometry": {
    "type": "Polygon",
    "coordinates": [
     [
      [
       30.5,
       37.5
      ],
      [
       33.0,
       37.7
      ],
      [
       35.5,
       37.3
      ],
      [
       36.3,
       36.8
      ],
      [
       36.3,
       36.2
      ],
      [
       34.5,
       36.1
      ],
      [
       32.0,
       36.0
      ],
      [
       30.5,
       36.6
      ],
      [
       30.5,
       37.5
      ]
     ]
    ]
   }
  },
  {
   "type": "Feature",
   "properties": {
    "name": "오리엔트 — 시리아·페니키아·에우프라테시스·오스로에네",
    "description": "[대략] 관구의 핵심 중추부. 오스로에네(에데사)에서 유프라테스를 따라 남하해 페니키아 해안까지",
    "confidence": "medium",
    "fill": "#ab47bc",
    "fill-opacity": 0.26,
    "stroke": "#7b1fa2",
    "stroke-width": 2
   },
   "geometry": {
    "type": "Polygon",
    "coordinates": [
     [
      [
       36.0,
       38.3
      ],
      [
       38.5,
       38.0
      ],
      [
       40.5,
       37.3
      ],
      [
       40.0,
       35.5
      ],
      [
       38.0,
       34.0
      ],
      [
       36.0,
       33.0
      ],
      [
       35.2,
       33.3
      ],
      [
       35.7,
       34.3
      ],
      [
       35.9,
       36.0
      ],
      [
       36.0,
       38.3
      ]
     ]
    ]
   }
  },
  {
   "type": "Feature",
   "properties": {
    "name": "오리엔트 — 팔레스티나 3원 (유대·사마리아·네게브)",
    "description": "[불확실] 4세기 이후 3분된 팔레스티나 프리마·세쿤다·테르티아를 하나로 뭉뚱그린 범위",
    "confidence": "low",
    "fill": "#ce93d8",
    "fill-opacity": 0.12,
    "stroke": "#ba68c8",
    "stroke-width": 1
   },
   "geometry": {
    "type": "Polygon",
    "coordinates": [
     [
      [
       34.3,
       33.0
      ],
      [
       35.5,
       32.9
      ],
      [
       35.6,
       31.8
      ],
      [
       35.5,
       30.2
      ],
      [
       34.6,
       29.6
      ],
      [
       33.9,
       30.6
      ],
      [
       34.2,
       32.2
      ],
      [
       34.3,
       33.0
      ]
     ]
    ]
   }
  },
  {
   "type": "Feature",
   "properties": {
    "name": "오리엔트 — 아라비아",
    "description": "[대략] 보스트라를 중심으로 한 남부 사막 속주, 관구 최남단",
    "confidence": "medium",
    "fill": "#ab47bc",
    "fill-opacity": 0.26,
    "stroke": "#7b1fa2",
    "stroke-width": 2
   },
   "geometry": {
    "type": "Polygon",
    "coordinates": [
     [
      [
       35.6,
       33.0
      ],
      [
       36.8,
       32.8
      ],
      [
       37.3,
       31.5
      ],
      [
       36.5,
       30.0
      ],
      [
       35.4,
       30.3
      ],
      [
       35.2,
       31.5
      ],
      [
       35.4,
       32.4
      ],
      [
       35.6,
       33.0
      ]
     ]
    ]
   }
  },
  {
   "type": "Feature",
   "properties": {
    "name": "오리엔트 — 키프로스 (섬)",
    "description": "[확실] 지중해 동부의 섬 속주, 육지와 분리된 별도 폴리곤",
    "confidence": "high",
    "fill": "#7b1fa2",
    "fill-opacity": 0.45,
    "stroke": "#4a148c",
    "stroke-width": 2
   },
   "geometry": {
    "type": "Polygon",
    "coordinates": [
     [
      [
       32.3,
       35.2
      ],
      [
       33.0,
       35.6
      ],
      [
       34.0,
       35.7
      ],
      [
       34.6,
       35.3
      ],
      [
       34.0,
       34.6
      ],
      [
       33.0,
       34.6
      ],
      [
       32.3,
       35.2
      ]
     ]
    ]
   }
  },
  {
   "type": "Feature",
   "properties": {
    "name": "안티오키아",
    "description": "[관구 수도] 서기 314 — 오리엔스 백작(Comes Orientis) 주재지, 동방 관구 전체의 정치·행정 중심",
    "marker-color": "#4a148c",
    "marker-size": "medium"
   },
   "geometry": {
    "type": "Point",
    "coordinates": [
     36.16,
     36.2
    ]
   }
  },
  {
   "type": "Feature",
   "properties": {
    "name": "살라미스",
    "description": "[키프로스 주요도시] 서기 314 — 키프로스 속주의 대표 도시",
    "marker-color": "#4a148c",
    "marker-size": "medium"
   },
   "geometry": {
    "type": "Point",
    "coordinates": [
     33.9,
     35.19
    ]
   }
  },
  {
   "type": "Feature",
   "properties": {
    "name": "보스트라",
    "description": "[아라비아 속주 수도] 서기 314 — 관구 남부 아라비아 속주 행정 중심",
    "marker-color": "#4a148c",
    "marker-size": "medium"
   },
   "geometry": {
    "type": "Point",
    "coordinates": [
     36.48,
     32.52
    ]
   }
  },
  {
   "type": "Feature",
   "properties": {
    "name": "카이사레아",
    "description": "[팔레스티나 프리마 수도] 서기 314 — 팔레스티나 속주군 중 가장 큰 프리마의 수도",
    "marker-color": "#4a148c",
    "marker-size": "medium"
   },
   "geometry": {
    "type": "Point",
    "coordinates": [
     34.89,
     32.5
    ]
   }
  },
  {
   "type": "Feature",
   "properties": {
    "name": "에데사",
    "description": "[오스로에네 속주 수도] 서기 314 — 관구 동북단 오스로에네 속주 중심, 초기 기독교 학문의 요람",
    "marker-color": "#4a148c",
    "marker-size": "medium"
   },
   "geometry": {
    "type": "Point",
    "coordinates": [
     38.79,
     37.16
    ]
   }
  }
 ]
}