{
 "type": "FeatureCollection",
 "features": [
  {
   "type": "Feature",
   "properties": {
    "name": "동고트족 — 드니에스터강 동쪽 초원 (그레우퉁기)",
    "description": "[대략] 3~4세기. 서고트족(테르빙기)과 갈라지기 전 동쪽 분파. 375년경 훈족에 정복됨.",
    "confidence": "medium",
    "fill": "#ab47bc",
    "fill-opacity": 0.26,
    "stroke": "#7b1fa2",
    "stroke-width": 2
   },
   "geometry": {
    "type": "Polygon",
    "coordinates": [
     [
      [
       28.0,
       48.5
      ],
      [
       35.0,
       49.0
      ],
      [
       37.0,
       46.5
      ],
      [
       31.0,
       45.5
      ],
      [
       27.5,
       47.0
      ],
      [
       28.0,
       48.5
      ]
     ]
    ]
   }
  },
  {
   "type": "Feature",
   "properties": {
    "name": "동고트족 — 판노니아 (훈 제국 붕괴 후)",
    "description": "[확실] 454~489년. 니다오 전투(454년) 이후 훈족 지배에서 벗어나 로마의 동의 아래 판노니아에 정착. 493년 테오도리크가 이탈리아로 이동하며 종료.",
    "confidence": "high",
    "fill": "#7b1fa2",
    "fill-opacity": 0.45,
    "stroke": "#4a148c",
    "stroke-width": 2
   },
   "geometry": {
    "type": "Polygon",
    "coordinates": [
     [
      [
       16.0,
       47.5
      ],
      [
       19.0,
       47.8
      ],
      [
       19.5,
       46.0
      ],
      [
       17.0,
       45.5
      ],
      [
       16.0,
       46.5
      ],
      [
       16.0,
       47.5
      ]
     ]
    ]
   }
  }
 ]
}