{
 "type": "FeatureCollection",
 "features": [
  {
   "type": "Feature",
   "properties": {
    "name": "파르티아족 — 파르티아 본토 (호라산)",
    "description": "[확실] 기원전 3세기 아르사케스 왕조 발흥지. 제국 전역을 잃어도 마지막까지 유지된 핵심지.",
    "confidence": "high",
    "fill": "#7b1fa2",
    "fill-opacity": 0.45,
    "stroke": "#4a148c",
    "stroke-width": 2
   },
   "geometry": {
    "type": "Polygon",
    "coordinates": [
     [
      [
       54.0,
       38.0
      ],
      [
       58.0,
       38.0
      ],
      [
       58.5,
       35.5
      ],
      [
       55.0,
       34.5
      ],
      [
       53.5,
       36.0
      ],
      [
       54.0,
       38.0
      ]
     ]
    ]
   }
  },
  {
   "type": "Feature",
   "properties": {
    "name": "파르티아족 — 파르티아 제국 최대 판도",
    "description": "[대략] 기원전 1세기~기원후 1세기. 유프라테스강~인더스강. 각 속왕국·봉신국의 자치 정도가 커서 실효 지배 강도는 지역마다 편차가 크다.",
    "confidence": "medium",
    "fill": "#ab47bc",
    "fill-opacity": 0.26,
    "stroke": "#7b1fa2",
    "stroke-width": 2
   },
   "geometry": {
    "type": "Polygon",
    "coordinates": [
     [
      [
       40.0,
       37.0
      ],
      [
       55.0,
       40.0
      ],
      [
       65.0,
       35.0
      ],
      [
       68.0,
       28.0
      ],
      [
       55.0,
       25.0
      ],
      [
       42.0,
       30.0
      ],
      [
       40.0,
       37.0
      ]
     ]
    ]
   }
  },
  {
   "type": "Feature",
   "properties": {
    "name": "크테시폰",
    "description": "[수도] -58 — 티그리스강변 파르티아의 겨울 수도. 이후 사산조도 수도로 계승.",
    "marker-color": "#4a148c",
    "marker-size": "medium"
   },
   "geometry": {
    "type": "Point",
    "coordinates": [
     44.5794,
     33.0938
    ]
   }
  }
 ]
}