{
 "type": "FeatureCollection",
 "features": [
  {
   "type": "Feature",
   "properties": {
    "name": "포 강",
    "period": "기원전 218"
   },
   "geometry": {
    "type": "LineString",
    "coordinates": [
     [
      7.08,
      44.67
     ],
     [
      7.6761,
      45.0792
     ],
     [
      9.68,
      45.05
     ],
     [
      10.79,
      45.0
     ],
     [
      12.5415,
      44.9687
     ]
    ]
   }
  },
  {
   "type": "Feature",
   "properties": {
    "name": "포 강 발원지(몬비소 산)",
    "year": null,
    "description": "[확실] ? — 서알프스 몬비소 산에서 발원",
    "confidence": "high",
    "marker-color": "#2e7d32",
    "marker-size": "medium"
   },
   "geometry": {
    "type": "Point",
    "coordinates": [
     7.08,
     44.67
    ]
   }
  },
  {
   "type": "Feature",
   "properties": {
    "name": "토리노",
    "year": null,
    "description": "[확실] ? — 로마 식민도시 아우구스타 타우리노룸이 들어선 상류 도시",
    "confidence": "high",
    "marker-color": "#2e7d32",
    "marker-size": "medium"
   },
   "geometry": {
    "type": "Point",
    "coordinates": [
     7.6761,
     45.0792
    ]
   }
  },
  {
   "type": "Feature",
   "properties": {
    "name": "피아첸차 인근 평야",
    "year": null,
    "description": "[확실] ? — 기원전 218년 한니발이 알프스를 넘어 내려온 뒤 처음 마주한 평야 강. 보병 2만, 기병 6천, 코끼리 37마리로 줄어든 병력이 여기서 재정비했다",
    "confidence": "high",
    "marker-color": "#2e7d32",
    "marker-size": "medium"
   },
   "geometry": {
    "type": "Point",
    "coordinates": [
     9.68,
     45.05
    ]
   }
  },
  {
   "type": "Feature",
   "properties": {
    "name": "만토바 인근",
    "year": null,
    "description": "[대략] ? — 중하류 구간",
    "confidence": "medium",
    "marker-color": "#f9a825",
    "marker-size": "small"
   },
   "geometry": {
    "type": "Point",
    "coordinates": [
     10.79,
     45.0
    ]
   }
  },
  {
   "type": "Feature",
   "properties": {
    "name": "포 강",
    "year": null,
    "description": "[확실] ? — 아드리아해로 흘러드는 삼각주 하구",
    "confidence": "high",
    "marker-color": "#2e7d32",
    "marker-size": "medium"
   },
   "geometry": {
    "type": "Point",
    "coordinates": [
     12.5415,
     44.9687
    ]
   }
  }
 ]
}