{
 "type": "FeatureCollection",
 "features": [
  {
   "type": "Feature",
   "properties": {
    "name": "폴란드 — 폴란드 (현대 국경)",
    "description": "[확실] 1945년 알타/포츠담 협정으로 확정된 오데르-나이세 선 기준 현대 국경",
    "confidence": "high",
    "fill": "#7b1fa2",
    "fill-opacity": 0.45,
    "stroke": "#4a148c",
    "stroke-width": 2
   },
   "geometry": {
    "type": "Polygon",
    "coordinates": [
     [
      [
       14.2,
       53.9
      ],
      [
       18.5,
       54.8
      ],
      [
       19.6,
       54.4
      ],
      [
       22.8,
       54.3
      ],
      [
       23.9,
       52.2
      ],
      [
       24.1,
       50.4
      ],
      [
       22.5,
       49.1
      ],
      [
       20.0,
       49.2
      ],
      [
       17.7,
       49.5
      ],
      [
       16.9,
       50.4
      ],
      [
       14.9,
       50.9
      ],
      [
       14.6,
       52.6
      ],
      [
       14.2,
       53.9
      ]
     ]
    ]
   }
  },
  {
   "type": "Feature",
   "properties": {
    "name": "바르샤바",
    "description": "[수도] 현대 — 현대 폴란드의 수도",
    "marker-color": "#4a148c",
    "marker-size": "medium"
   },
   "geometry": {
    "type": "Point",
    "coordinates": [
     21.0122,
     52.2297
    ]
   }
  },
  {
   "type": "Feature",
   "properties": {
    "name": "크라쿠프",
    "description": "[옛 수도] 현대 — 폴란드 왕국의 옛 수도, 비스와강 상류",
    "marker-color": "#4a148c",
    "marker-size": "medium"
   },
   "geometry": {
    "type": "Point",
    "coordinates": [
     19.945,
     50.0647
    ]
   }
  },
  {
   "type": "Feature",
   "properties": {
    "name": "그단스크",
    "description": "[발트해 항구] 현대 — 비스와강 하구 항구도시",
    "marker-color": "#4a148c",
    "marker-size": "medium"
   },
   "geometry": {
    "type": "Point",
    "coordinates": [
     18.6466,
     54.352
    ]
   }
  },
  {
   "type": "Feature",
   "properties": {
    "name": "브로츠와프",
    "description": "[서부 중심도시] 1945 — 2차대전 이후 오데르-나이세 선으로 독일에서 폴란드로 편입",
    "marker-color": "#4a148c",
    "marker-size": "medium"
   },
   "geometry": {
    "type": "Point",
    "coordinates": [
     17.0385,
     51.1079
    ]
   }
  }
 ]
}