{
 "type": "FeatureCollection",
 "features": [
  {
   "type": "Feature",
   "properties": {
    "name": "루비콘 강",
    "period": "기원전 49"
   },
   "geometry": {
    "type": "LineString",
    "coordinates": [
     [
      12.15,
      44.05
     ],
     [
      12.24,
      44.08
     ],
     [
      12.31,
      44.1
     ],
     [
      12.4431,
      44.1681
     ]
    ]
   }
  },
  {
   "type": "Feature",
   "properties": {
    "name": "루비콘 강 발원지(아펜니노 동사면)",
    "year": null,
    "description": "[불확실] ? — 아펜니노 산맥 동쪽 사면에서 발원하는 짧은 하천",
    "confidence": "low",
    "marker-color": "#c62828",
    "marker-size": "small"
   },
   "geometry": {
    "type": "Point",
    "coordinates": [
     12.15,
     44.05
    ]
   }
  },
  {
   "type": "Feature",
   "properties": {
    "name": "체세나 인근 구간",
    "year": null,
    "description": "[불확실] ? — 카이사르의 진군로 상에 있었을 것으로 추정되는 구간. 정확한 하도는 사료로 확정할 수 없다",
    "confidence": "low",
    "marker-color": "#c62828",
    "marker-size": "small"
   },
   "geometry": {
    "type": "Point",
    "coordinates": [
     12.24,
     44.08
    ]
   }
  },
  {
   "type": "Feature",
   "properties": {
    "name": "사비냐노 술 루비코네",
    "year": null,
    "description": "[불확실] ? — 카이사르가 기원전 49년 도하했다고 전통적으로 비정되는 지점 인근 마을. 마을 이름 자체가 이 비정을 전제로 붙여졌다",
    "confidence": "low",
    "marker-color": "#c62828",
    "marker-size": "small"
   },
   "geometry": {
    "type": "Point",
    "coordinates": [
     12.31,
     44.1
    ]
   }
  },
  {
   "type": "Feature",
   "properties": {
    "name": "루비콘 강",
    "year": null,
    "description": "[대략] ? — 아드리아해로 흘러드는 하구. 이 짧은 하천이 갈리아 키살피나 속주와 이탈리아 본토를 가르는 법적 경계였다. '주사위는 던져졌다'는 말이 여기서 나왔다고 전해진다",
    "confidence": "medium",
    "marker-color": "#f9a825",
    "marker-size": "small"
   },
   "geometry": {
    "type": "Point",
    "coordinates": [
     12.4431,
     44.1681
    ]
   }
  }
 ]
}