{
 "type": "FeatureCollection",
 "features": [
  {
   "type": "Feature",
   "properties": {
    "name": "러시아 — 유럽 러시아 서부 (볼가~돈~흑해 북안, 우랄 산맥 서쪽 일부)",
    "description": "[불확실] 러시아 전체가 아니라 고트족 이동 경로와 맞닿은 서쪽 단면만 그렸다. 고대 지명 비정 자체가 불확실해 낮은 신뢰도로 표시",
    "confidence": "low",
    "fill": "#ce93d8",
    "fill-opacity": 0.12,
    "stroke": "#ba68c8",
    "stroke-width": 1
   },
   "geometry": {
    "type": "Polygon",
    "coordinates": [
     [
      [
       30.5,
       50.0
      ],
      [
       37.0,
       51.5
      ],
      [
       45.0,
       52.0
      ],
      [
       50.0,
       51.0
      ],
      [
       55.0,
       50.0
      ],
      [
       60.0,
       50.0
      ],
      [
       60.0,
       55.0
      ],
      [
       55.0,
       58.0
      ],
      [
       48.0,
       58.5
      ],
      [
       40.0,
       58.0
      ],
      [
       35.0,
       55.5
      ],
      [
       31.0,
       52.5
      ],
      [
       30.5,
       50.0
      ]
     ]
    ]
   }
  },
  {
   "type": "Feature",
   "properties": {
    "name": "탄아이스",
    "description": "[돈 강 하구 거점] 3세기 — 고트족 이동 경로상의 그리스계 도시, 3세기 중반 파괴됨",
    "marker-color": "#4a148c",
    "marker-size": "medium"
   },
   "geometry": {
    "type": "Point",
    "coordinates": [
     39.2,
     47.1
    ]
   }
  },
  {
   "type": "Feature",
   "properties": {
    "name": "모스크바",
    "description": "[현대 참조점] 현대 — 고대 사료와 무관한 현대 지리 참조점, 위치 감각을 위해서만 표기",
    "marker-color": "#4a148c",
    "marker-size": "medium"
   },
   "geometry": {
    "type": "Point",
    "coordinates": [
     37.6173,
     55.7558
    ]
   }
  }
 ]
}