{
 "type": "FeatureCollection",
 "features": [
  {
   "type": "Feature",
   "properties": {
    "name": "에스파냐인 — 이베리아 반도 원주민 분포 (로마 정복기)",
    "description": "[대략] 기원전 3~1세기, 로마의 정복이 완료되는 기원전 19년(아우구스투스의 칸타브리아 전쟁) 이전. 이베리아인·켈티베리아인·루시타니아인 등 여러 민족을 반도 전체 분포로 뭉뚱그린 근사치다.",
    "confidence": "medium",
    "fill": "#ab47bc",
    "fill-opacity": 0.26,
    "stroke": "#7b1fa2",
    "stroke-width": 2
   },
   "geometry": {
    "type": "Polygon",
    "coordinates": [
     [
      [
       -9.5,
       43.5
      ],
      [
       -1.8,
       43.5
      ],
      [
       3.2,
       42.4
      ],
      [
       0.2,
       38.8
      ],
      [
       -5.4,
       36.1
      ],
      [
       -9.5,
       38.7
      ],
      [
       -9.3,
       41.5
      ],
      [
       -9.5,
       43.5
      ]
     ]
    ]
   }
  }
 ]
}