{
 "type": "FeatureCollection",
 "features": [
  {
   "type": "Feature",
   "properties": {
    "name": "트레비아 강",
    "period": "기원전 218"
   },
   "geometry": {
    "type": "LineString",
    "coordinates": [
     [
      9.35,
      44.58
     ],
     [
      9.45,
      44.75
     ],
     [
      9.5674,
      44.9885
     ],
     [
      9.68,
      45.05
     ]
    ]
   }
  },
  {
   "type": "Feature",
   "properties": {
    "name": "트레비아 강 발원지(리구리아 사면)",
    "year": null,
    "description": "[대략] ? — 아펜니노 산맥 리구리아 쪽 사면에서 발원",
    "confidence": "medium",
    "marker-color": "#f9a825",
    "marker-size": "small"
   },
   "geometry": {
    "type": "Point",
    "coordinates": [
     9.35,
     44.58
    ]
   }
  },
  {
   "type": "Feature",
   "properties": {
    "name": "산속 계곡 구간",
    "year": null,
    "description": "[대략] ? — 산지에서 평야로 내려오는 상류 계곡 구간",
    "confidence": "medium",
    "marker-color": "#f9a825",
    "marker-size": "small"
   },
   "geometry": {
    "type": "Point",
    "coordinates": [
     9.45,
     44.75
    ]
   }
  },
  {
   "type": "Feature",
   "properties": {
    "name": "트레비아 강",
    "year": null,
    "description": "[확실] ? — 기원전 218년 12월, 집정관 셈프로니우스가 얼어붙은 이 강을 건너 진격했다가 한니발의 매복에 걸려 로마 군 약 2만 명 중 1만 명만 생존한 대패의 현장",
    "confidence": "high",
    "marker-color": "#2e7d32",
    "marker-size": "medium"
   },
   "geometry": {
    "type": "Point",
    "coordinates": [
     9.5674,
     44.9885
    ]
   }
  },
  {
   "type": "Feature",
   "properties": {
    "name": "포 강 합류부(피아첸차)",
    "year": null,
    "description": "[대략] ? — 포 강 본류와 합류하며 물줄기를 마친다",
    "confidence": "medium",
    "marker-color": "#f9a825",
    "marker-size": "small"
   },
   "geometry": {
    "type": "Point",
    "coordinates": [
     9.68,
     45.05
    ]
   }
  }
 ]
}