{
 "type": "FeatureCollection",
 "features": [
  {
   "type": "Feature",
   "properties": {
    "name": "투르키스탄 — 중앙아시아 (현 카자흐스탄 남부~우즈베키스탄·투르크메니스탄)",
    "description": "[불확실] 고대 지명 'Turán'은 실크로드 전승으로만 확인되는 지역이라 확정된 경계가 없다. 유목 세력권 특성상 낮은 신뢰도로 표시",
    "confidence": "low",
    "fill": "#ce93d8",
    "fill-opacity": 0.12,
    "stroke": "#ba68c8",
    "stroke-width": 1
   },
   "geometry": {
    "type": "Polygon",
    "coordinates": [
     [
      [
       52.0,
       45.0
      ],
      [
       58.0,
       47.0
      ],
      [
       65.0,
       49.0
      ],
      [
       70.0,
       50.5
      ],
      [
       75.0,
       50.0
      ],
      [
       80.0,
       48.0
      ],
      [
       78.0,
       43.0
      ],
      [
       74.0,
       40.0
      ],
      [
       69.0,
       38.0
      ],
      [
       63.0,
       37.0
      ],
      [
       58.0,
       38.5
      ],
      [
       54.0,
       41.0
      ],
      [
       51.0,
       43.5
      ],
      [
       52.0,
       45.0
      ]
     ]
    ]
   }
  },
  {
   "type": "Feature",
   "properties": {
    "name": "아프라시아브",
    "description": "[실크로드 오아시스 도시] 고대~ — 중앙아시아 대상로의 핵심 오아시스 도시",
    "marker-color": "#4a148c",
    "marker-size": "medium"
   },
   "geometry": {
    "type": "Point",
    "coordinates": [
     66.975,
     39.627
    ]
   }
  },
  {
   "type": "Feature",
   "properties": {
    "name": "부하라",
    "description": "[실크로드 오아시스 도시] 고대~ — 사마르칸트와 함께 중앙아시아 교역의 양대 거점",
    "marker-color": "#4a148c",
    "marker-size": "medium"
   },
   "geometry": {
    "type": "Point",
    "coordinates": [
     64.4286,
     39.7747
    ]
   }
  },
  {
   "type": "Feature",
   "properties": {
    "name": "타슈켄트",
    "description": "[교역 결절점] 고대~ — 초원 유목로와 오아시스로가 만나는 지점",
    "marker-color": "#4a148c",
    "marker-size": "medium"
   },
   "geometry": {
    "type": "Point",
    "coordinates": [
     69.2401,
     41.2995
    ]
   }
  }
 ]
}