{
 "type": "FeatureCollection",
 "features": [
  {
   "type": "Feature",
   "properties": {
    "name": "반달 왕국 — 아프리카 속주 (Africa Proconsularis)",
    "description": "[확실] 북튀니지의 카르타고를 중심으로 한 로마의 가장 부유한 속주. 442년 조약으로 반달 왕국에 정식 할양됨",
    "confidence": "high",
    "fill": "#7b1fa2",
    "fill-opacity": 0.45,
    "stroke": "#4a148c",
    "stroke-width": 2
   },
   "geometry": {
    "type": "Polygon",
    "coordinates": [
     [
      [
       9.0,
       37.2
      ],
      [
       10.0,
       37.5
      ],
      [
       11.0,
       37.3
      ],
      [
       11.5,
       36.9
      ],
      [
       11.2,
       36.2
      ],
      [
       10.5,
       36.0
      ],
      [
       9.5,
       36.1
      ],
      [
       9.0,
       36.3
      ],
      [
       8.5,
       36.5
      ],
      [
       8.5,
       37.0
      ],
      [
       9.0,
       37.2
      ]
     ]
    ]
   }
  },
  {
   "type": "Feature",
   "properties": {
    "name": "반달 왕국 — 비자케나 (Byzacena)",
    "description": "[확실] 동튀니지 사헬 지역. 442년 조약으로 반달 왕국 영토 편입. 대도시 하드루메툼(현 수스) 포함",
    "confidence": "high",
    "fill": "#7b1fa2",
    "fill-opacity": 0.45,
    "stroke": "#4a148c",
    "stroke-width": 2
   },
   "geometry": {
    "type": "Polygon",
    "coordinates": [
     [
      [
       9.5,
       36.1
      ],
      [
       11.2,
       36.2
      ],
      [
       11.5,
       35.5
      ],
      [
       11.0,
       34.3
      ],
      [
       9.8,
       34.2
      ],
      [
       9.0,
       34.5
      ],
      [
       8.8,
       35.2
      ],
      [
       9.2,
       35.8
      ],
      [
       9.5,
       36.1
      ]
     ]
    ]
   }
  },
  {
   "type": "Feature",
   "properties": {
    "name": "반달 왕국 — 누미디아 (Numidia, 동부 및 해안)",
    "description": "[대략] 알제리 북동부. 435년 협약으로 반달에 할양되었으나 내륙은 베르베르족 통제 아래. 서쪽 경계는 키르타(콘스탄티나)",
    "confidence": "medium",
    "fill": "#ab47bc",
    "fill-opacity": 0.26,
    "stroke": "#7b1fa2",
    "stroke-width": 2
   },
   "geometry": {
    "type": "Polygon",
    "coordinates": [
     [
      [
       5.5,
       36.5
      ],
      [
       7.5,
       37.0
      ],
      [
       8.5,
       36.8
      ],
      [
       8.5,
       36.2
      ],
      [
       7.0,
       35.5
      ],
      [
       6.0,
       35.3
      ],
      [
       5.0,
       35.6
      ],
      [
       4.8,
       36.0
      ],
      [
       5.2,
       36.3
      ],
      [
       5.5,
       36.5
      ]
     ]
    ]
   }
  },
  {
   "type": "Feature",
   "properties": {
    "name": "반달 왕국 — 트리폴리타니아 (Tripolitania)",
    "description": "[대략] 리비아 해안 지역. 동부 레푸티스 마그나(렙티스 마그나)와 사브라타 포함. 내륙 경계는 명확한 선이 아닌 근사",
    "confidence": "medium",
    "fill": "#ab47bc",
    "fill-opacity": 0.26,
    "stroke": "#7b1fa2",
    "stroke-width": 2
   },
   "geometry": {
    "type": "Polygon",
    "coordinates": [
     [
      [
       11.5,
       33.0
      ],
      [
       14.5,
       33.2
      ],
      [
       15.0,
       32.5
      ],
      [
       14.8,
       31.8
      ],
      [
       13.5,
       31.5
      ],
      [
       12.0,
       31.8
      ],
      [
       11.0,
       32.3
      ],
      [
       10.8,
       32.8
      ],
      [
       11.5,
       33.0
      ]
     ]
    ]
   }
  },
  {
   "type": "Feature",
   "properties": {
    "name": "반달 왕국 — 사르데냐",
    "description": "[확실] 지중해 섬. 455년경 반달이 점령, 534년 벨리사리우스 재정복까지 지배",
    "confidence": "high",
    "fill": "#7b1fa2",
    "fill-opacity": 0.45,
    "stroke": "#4a148c",
    "stroke-width": 2
   },
   "geometry": {
    "type": "Polygon",
    "coordinates": [
     [
      [
       8.0,
       41.2
      ],
      [
       9.8,
       41.3
      ],
      [
       9.9,
       38.9
      ],
      [
       8.2,
       38.8
      ],
      [
       8.0,
       41.2
      ]
     ]
    ]
   }
  },
  {
   "type": "Feature",
   "properties": {
    "name": "반달 왕국 — 코르시카",
    "description": "[확실] 지중해 섬. 반달 왕국의 해상력 기반 중 하나. 정확한 점령 시기는 문헌에 명시되지 않았으나 455년 이후 것으로 추정",
    "confidence": "high",
    "fill": "#7b1fa2",
    "fill-opacity": 0.45,
    "stroke": "#4a148c",
    "stroke-width": 2
   },
   "geometry": {
    "type": "Polygon",
    "coordinates": [
     [
      [
       8.2,
       42.8
      ],
      [
       9.2,
       42.9
      ],
      [
       9.3,
       41.4
      ],
      [
       8.4,
       41.3
      ],
      [
       8.2,
       42.8
      ]
     ]
    ]
   }
  },
  {
   "type": "Feature",
   "properties": {
    "name": "반달 왕국 — 발레아레스 제도 (Balearic Islands)",
    "description": "[대략] 스페인 동쪽 지중해 섬들. 반달의 해상 통제 아래. 455년경 정복으로 추정",
    "confidence": "medium",
    "fill": "#ab47bc",
    "fill-opacity": 0.26,
    "stroke": "#7b1fa2",
    "stroke-width": 2
   },
   "geometry": {
    "type": "Polygon",
    "coordinates": [
     [
      [
       1.2,
       39.8
      ],
      [
       4.0,
       39.9
      ],
      [
       4.1,
       38.6
      ],
      [
       1.0,
       38.5
      ],
      [
       1.2,
       39.8
      ]
     ]
    ]
   }
  },
  {
   "type": "Feature",
   "properties": {
    "name": "반달 왕국 — 시칠리아 (부분적 통제, 한때)",
    "description": "[불확실] 468년경 반달이 점령했으나 곧 상실. 5세기 전반 자주 반달의 습격 대상. 지속적 통제 지역은 불명확",
    "confidence": "low",
    "fill": "#ce93d8",
    "fill-opacity": 0.12,
    "stroke": "#ba68c8",
    "stroke-width": 1
   },
   "geometry": {
    "type": "Polygon",
    "coordinates": [
     [
      [
       12.5,
       38.2
      ],
      [
       15.7,
       38.3
      ],
      [
       15.8,
       36.7
      ],
      [
       12.6,
       36.7
      ],
      [
       12.5,
       38.2
      ]
     ]
    ]
   }
  },
  {
   "type": "Feature",
   "properties": {
    "name": "카르타고",
    "description": "[수도] 439 — 439년 6월 가이세리크가 점령, 이후 반달 왕국의 행정 및 해군 중심지로 534년까지 지배",
    "marker-color": "#4a148c",
    "marker-size": "medium"
   },
   "geometry": {
    "type": "Point",
    "coordinates": [
     10.3233,
     36.8528
    ]
   }
  },
  {
   "type": "Feature",
   "properties": {
    "name": "히포 레기우스",
    "description": "[초기 수도] 435 — 435년부터 439년까지 반달의 첫 번째 수도. 카르타고 점령 후 중요도 저하. 현재 알제리 아나바",
    "marker-color": "#4a148c",
    "marker-size": "medium"
   },
   "geometry": {
    "type": "Point",
    "coordinates": [
     7.7667,
     36.9
    ]
   }
  },
  {
   "type": "Feature",
   "properties": {
    "name": "우티카",
    "description": "[주요 도시] 439 — 카르타고 북쪽 해안 도시. 반달 왕국 치하에서 무역 중심지로 기능",
    "marker-color": "#4a148c",
    "marker-size": "medium"
   },
   "geometry": {
    "type": "Point",
    "coordinates": [
     10.0619,
     37.0569
    ]
   }
  },
  {
   "type": "Feature",
   "properties": {
    "name": "렙티스 마그나",
    "description": "[항구도시] 439 — 트리폴리타니아 중심 도시. 리비아 해안. 반달의 동쪽 해상 진출 거점",
    "marker-color": "#4a148c",
    "marker-size": "medium"
   },
   "geometry": {
    "type": "Point",
    "coordinates": [
     14.2906,
     32.6392
    ]
   }
  },
  {
   "type": "Feature",
   "properties": {
    "name": "사브라타",
    "description": "[항구] 439 — 트리폴리타니아 해안 도시. 5세기 반달 통제하에 대부분 폐기되었으나 교역 거점 유지",
    "marker-color": "#4a148c",
    "marker-size": "medium"
   },
   "geometry": {
    "type": "Point",
    "coordinates": [
     12.4885,
     32.7933
    ]
   }
  },
  {
   "type": "Feature",
   "properties": {
    "name": "누미디아",
    "description": "[요새] 435 — 누미디아 왕국의 옛 수도. 442년 조약으로 반달 통제 서쪽 경계. 현재 알제리 콘스탄티나",
    "marker-color": "#4a148c",
    "marker-size": "medium"
   },
   "geometry": {
    "type": "Point",
    "coordinates": [
     6.6119,
     36.3675
    ]
   }
  },
  {
   "type": "Feature",
   "properties": {
    "name": "팔레르모",
    "description": "[약탈 대상] 455 — 시칠리아 주요 도시. 반달의 해상 습격 대상. 468년 일시 점령했을 가능성 있음",
    "marker-color": "#4a148c",
    "marker-size": "medium"
   },
   "geometry": {
    "type": "Point",
    "coordinates": [
     13.3615,
     38.1157
    ]
   }
  },
  {
   "type": "Feature",
   "properties": {
    "name": "시라쿠사",
    "description": "[약탈 대상] 455 — 시칠리아 동부 주요 항구도시. 반달의 습격 대상이었으나 지속 통제 미확인",
    "marker-color": "#4a148c",
    "marker-size": "medium"
   },
   "geometry": {
    "type": "Point",
    "coordinates": [
     15.293,
     37.0639
    ]
   }
  }
 ]
}