{
 "type": "FeatureCollection",
 "features": [
  {
   "type": "Feature",
   "properties": {
    "name": "반달족 — 오데르~비스툴라강 원거주지 (실레시아)",
    "description": "[대략] 1~4세기. 프셰보르스크 문화권과 연결되는 반달족(하스딩기·실링기)의 원거주지로 추정.",
    "confidence": "medium",
    "fill": "#ab47bc",
    "fill-opacity": 0.26,
    "stroke": "#7b1fa2",
    "stroke-width": 2
   },
   "geometry": {
    "type": "Polygon",
    "coordinates": [
     [
      [
       15.0,
       51.5
      ],
      [
       18.5,
       52.0
      ],
      [
       19.0,
       50.0
      ],
      [
       16.0,
       49.5
      ],
      [
       14.5,
       50.5
      ],
      [
       15.0,
       51.5
      ]
     ]
    ]
   }
  },
  {
   "type": "Feature",
   "properties": {
    "name": "반달족 — 판노니아 정착지",
    "description": "[확실] 330년대. 콘스탄티누스 황제가 로마 동맹 부족으로 판노니아에 정착시킴. 문헌으로 비교적 확실히 확인됨.",
    "confidence": "high",
    "fill": "#7b1fa2",
    "fill-opacity": 0.45,
    "stroke": "#4a148c",
    "stroke-width": 2
   },
   "geometry": {
    "type": "Polygon",
    "coordinates": [
     [
      [
       16.5,
       47.3
      ],
      [
       19.5,
       47.5
      ],
      [
       19.8,
       46.0
      ],
      [
       17.0,
       45.8
      ],
      [
       16.5,
       47.3
      ]
     ]
    ]
   }
  },
  {
   "type": "Feature",
   "properties": {
    "name": "반달족 — 히스파니아 (하스딩기·실링기)",
    "description": "[확실] 409~429년. 406년 라인강 도하 후 갈리아를 거쳐 히스파니아 정착. 하스딩기는 갈리키아, 실링기는 바이티카에 자리 잡았으며 429년 가이세리크의 지휘로 북아프리카로 건너감.",
    "confidence": "high",
    "fill": "#7b1fa2",
    "fill-opacity": 0.45,
    "stroke": "#4a148c",
    "stroke-width": 2
   },
   "geometry": {
    "type": "Polygon",
    "coordinates": [
     [
      [
       -9.0,
       43.5
      ],
      [
       -6.0,
       43.5
      ],
      [
       -2.0,
       41.0
      ],
      [
       -4.5,
       36.5
      ],
      [
       -7.5,
       36.8
      ],
      [
       -9.3,
       40.0
      ],
      [
       -9.0,
       43.5
      ]
     ]
    ]
   }
  }
 ]
}