{
 "type": "FeatureCollection",
 "features": [
  {
   "type": "Feature",
   "properties": {
    "name": "서고트 왕국 — 이베리아 반도 본토",
    "description": "[확실] 507년 이후 왕국의 중심. 북서부 갈라이키아·아스투리아스와 일부 바스크 지역은 제외. 585년 수에비족 왕국 병합으로 이베리아 대부분 지배. 산악 지대와 북부 산맥 기슭은 아스투리아스와 바스크 민족 저항으로 완전 점령 불가.",
    "confidence": "high",
    "fill": "#7b1fa2",
    "fill-opacity": 0.45,
    "stroke": "#4a148c",
    "stroke-width": 2
   },
   "geometry": {
    "type": "Polygon",
    "coordinates": [
     [
      [
       -6.0,
       43.0
      ],
      [
       -3.0,
       43.0
      ],
      [
       0.5,
       43.0
      ],
      [
       3.0,
       42.8
      ],
      [
       3.5,
       42.0
      ],
      [
       3.5,
       40.0
      ],
      [
       3.5,
       38.0
      ],
      [
       3.2,
       36.5
      ],
      [
       -6.3,
       36.5
      ],
      [
       -9.0,
       37.0
      ],
      [
       -9.0,
       40.0
      ],
      [
       -8.5,
       42.0
      ],
      [
       -7.0,
       42.5
      ],
      [
       -6.0,
       43.0
      ]
     ]
    ]
   }
  },
  {
   "type": "Feature",
   "properties": {
    "name": "서고트 왕국 — 셉티마니아 (남부 갈리아)",
    "description": "[확실] 507년 부이예 전투 후 갈리아의 유일한 보유 영토. 나르본느를 중심으로 Rhône(동쪽), Garonne(북서쪽), Pyrénées(남쪽) 경계. 719년까지 유지했으나 급속히 이슬람 세력에 점령됨.",
    "confidence": "high",
    "fill": "#7b1fa2",
    "fill-opacity": 0.45,
    "stroke": "#4a148c",
    "stroke-width": 2
   },
   "geometry": {
    "type": "Polygon",
    "coordinates": [
     [
      [
       0.5,
       44.0
      ],
      [
       0.2,
       45.0
      ],
      [
       3.0,
       45.2
      ],
      [
       4.6,
       45.0
      ],
      [
       4.6,
       43.5
      ],
      [
       4.0,
       42.5
      ],
      [
       2.0,
       42.7
      ],
      [
       1.0,
       42.8
      ],
      [
       0.5,
       43.0
      ],
      [
       0.5,
       44.0
      ]
     ]
    ]
   }
  },
  {
   "type": "Feature",
   "properties": {
    "name": "톨레도",
    "description": "[수도] 507 — 부이예 전투 후 왕국의 중심이 됨. 542년부터 정식 수도로 711년까지 서고트 왕국의 행정·종교 중심지",
    "marker-color": "#4a148c",
    "marker-size": "medium"
   },
   "geometry": {
    "type": "Point",
    "coordinates": [
     -4.0226,
     39.8581
    ]
   }
  },
  {
   "type": "Feature",
   "properties": {
    "name": "세비야",
    "description": "[주요도시] 507 — 로마 시대 히스팔리스(Hispalis). 서고트 왕국 시대 안달루시아 지역의 주요 무역 도시. 712년 이슬람군 점령",
    "marker-color": "#4a148c",
    "marker-size": "medium"
   },
   "geometry": {
    "type": "Point",
    "coordinates": [
     -5.9732,
     37.3828
    ]
   }
  },
  {
   "type": "Feature",
   "properties": {
    "name": "메리다",
    "description": "[주요도시] 507 — 로마 시대 에메리타 아우구스타(Emerita Augusta). 에스트레마두라의 중요 도시. 서고트 왕국의 행정 및 방위 거점",
    "marker-color": "#4a148c",
    "marker-size": "medium"
   },
   "geometry": {
    "type": "Point",
    "coordinates": [
     -6.3437,
     38.9161
    ]
   }
  },
  {
   "type": "Feature",
   "properties": {
    "name": "코르도바",
    "description": "[주요도시] 507 — 로마 시대 핵심 도시. 서고트 시대 안달루시아 지역의 경제 중심지. 711년 이슬람군 공략",
    "marker-color": "#4a148c",
    "marker-size": "medium"
   },
   "geometry": {
    "type": "Point",
    "coordinates": [
     -4.7764,
     37.8847
    ]
   }
  },
  {
   "type": "Feature",
   "properties": {
    "name": "바르셀로나",
    "description": "[수도] 507 — 부이예 전투 후 507-542년간 임시 수도. 로마 시대 바르키노(Barcino). 이후 톨레도로 천도",
    "marker-color": "#4a148c",
    "marker-size": "medium"
   },
   "geometry": {
    "type": "Point",
    "coordinates": [
     2.1589,
     41.3887
    ]
   }
  },
  {
   "type": "Feature",
   "properties": {
    "name": "툴루즈",
    "description": "[수도] 418 — 418년부터 507년까지 서고트 왕국의 첫 번째 수도. 부이예 전투로 프랑크군에 함락되면서 왕국의 갈리아 영토 상실",
    "marker-color": "#4a148c",
    "marker-size": "medium"
   },
   "geometry": {
    "type": "Point",
    "coordinates": [
     1.4437,
     43.6043
    ]
   }
  },
  {
   "type": "Feature",
   "properties": {
    "name": "나르본느",
    "description": "[수도] 509 — 셉티마니아의 중심 도시. 부이예 전투 후 오스트로고트 왕 테오도릭의 영향 아래 셉티마니아 수도로 기능. 719년 이슬람군에 점령",
    "marker-color": "#4a148c",
    "marker-size": "medium"
   },
   "geometry": {
    "type": "Point",
    "coordinates": [
     3.0,
     43.1833
    ]
   }
  },
  {
   "type": "Feature",
   "properties": {
    "name": "님",
    "description": "[주요도시] 507 — 로마 시대 중요 도시. 셉티마니아 동부 지역의 행정 중심지. 서고트의 셉티마니아 통제 기간 내내 유지",
    "marker-color": "#4a148c",
    "marker-size": "medium"
   },
   "geometry": {
    "type": "Point",
    "coordinates": [
     4.35,
     43.8333
    ]
   }
  },
  {
   "type": "Feature",
   "properties": {
    "name": "아그드",
    "description": "[주요도시] 507 — 셉티마니아 해안 도시. 지중해 무역의 거점. 서고트 통제 기간 동안 경제 활동 유지",
    "marker-color": "#4a148c",
    "marker-size": "medium"
   },
   "geometry": {
    "type": "Point",
    "coordinates": [
     3.4758,
     43.3108
    ]
   }
  },
  {
   "type": "Feature",
   "properties": {
    "name": "베지에",
    "description": "[주요도시] 507 — 셉티마니아 중부의 주요 도시. 로마 시대부터 중요한 교역 중심지. 서고트 통제 아래 계속 번영",
    "marker-color": "#4a148c",
    "marker-size": "medium"
   },
   "geometry": {
    "type": "Point",
    "coordinates": [
     3.214,
     43.3412
    ]
   }
  }
 ]
}