{
 "type": "FeatureCollection",
 "features": [
  {
   "type": "Feature",
   "properties": {
    "name": "서고트족 — 다키아·왈라키아 (테르빙기)",
    "description": "[대략] 3~4세기. 드니에스터강 서쪽에 자리 잡은 서고트족 선조 분파. 376년 훈족에 밀려 도나우강 도하를 요청.",
    "confidence": "medium",
    "fill": "#ab47bc",
    "fill-opacity": 0.26,
    "stroke": "#7b1fa2",
    "stroke-width": 2
   },
   "geometry": {
    "type": "Polygon",
    "coordinates": [
     [
      [
       22.0,
       47.0
      ],
      [
       27.5,
       47.0
      ],
      [
       28.0,
       45.0
      ],
      [
       23.0,
       44.0
      ],
      [
       21.5,
       45.5
      ],
      [
       22.0,
       47.0
      ]
     ]
    ]
   }
  },
  {
   "type": "Feature",
   "properties": {
    "name": "서고트족 — 발칸 반도 유랑로 (378~410년)",
    "description": "[불확실] 하드리아노폴리스 전투(378년)부터 알라리크의 로마 약탈(410년)까지. 고정 영토가 아니라 트라키아·모이시아·그리스·이탈리아를 전전한 이동권. 경계는 매우 근사치.",
    "confidence": "low",
    "fill": "#ce93d8",
    "fill-opacity": 0.12,
    "stroke": "#ba68c8",
    "stroke-width": 1
   },
   "geometry": {
    "type": "Polygon",
    "coordinates": [
     [
      [
       20.0,
       42.5
      ],
      [
       27.0,
       43.5
      ],
      [
       26.0,
       40.0
      ],
      [
       22.0,
       38.5
      ],
      [
       18.0,
       40.0
      ],
      [
       13.0,
       41.0
      ],
      [
       15.0,
       43.0
      ],
      [
       20.0,
       42.5
      ]
     ]
    ]
   }
  }
 ]
}