{
 "type": "FeatureCollection",
 "features": [
  {
   "type": "Feature",
   "properties": {
    "name": "흉노족 — 몽골 고원 핵심지",
    "description": "[확실] 기원전 3세기~기원후 1세기. 묵돈 선우 이래 흉노 제국의 중심지. 한나라 사서(『사기』·『한서』)에 비교적 상세히 기록됨.",
    "confidence": "high",
    "fill": "#7b1fa2",
    "fill-opacity": 0.45,
    "stroke": "#4a148c",
    "stroke-width": 2
   },
   "geometry": {
    "type": "Polygon",
    "coordinates": [
     [
      [
       95.0,
       50.5
      ],
      [
       110.0,
       51.5
      ],
      [
       118.0,
       48.0
      ],
      [
       110.0,
       43.0
      ],
      [
       98.0,
       43.5
      ],
      [
       93.0,
       46.5
      ],
      [
       95.0,
       50.5
      ]
     ]
    ]
   }
  },
  {
   "type": "Feature",
   "properties": {
    "name": "흉노족 — 서방 이주·분산 (북흉노)",
    "description": "[불확실] 1~2세기. 89년 한나라에 대패한 북흉노가 중앙아시아 방면으로 이동한 경로 추정 범위. 훈족의 기원과 연결하는 설이 있으나 고고학적으로 입증되지 않아 신뢰도를 낮게 잡는다.",
    "confidence": "low",
    "fill": "#ce93d8",
    "fill-opacity": 0.12,
    "stroke": "#ba68c8",
    "stroke-width": 1
   },
   "geometry": {
    "type": "Polygon",
    "coordinates": [
     [
      [
       65.0,
       48.0
      ],
      [
       80.0,
       49.0
      ],
      [
       90.0,
       46.0
      ],
      [
       80.0,
       42.0
      ],
      [
       68.0,
       43.0
      ],
      [
       65.0,
       48.0
      ]
     ]
    ]
   }
  }
 ]
}