{"type":"FeatureCollection","features":[{"type":"Feature","properties":{},"geometry":{"type":"Polygon","coordinates":[[[105.82,-5.85],[104.71,-5.87],[103.87,-5.04],[102.58,-4.22],[102.16,-3.61],[101.4,-2.8],[100.9,-2.05],[100.14,-0.65],[99.26,0.18],[98.97,1.04],[98.6,1.82],[97.7,2.45],[97.18,3.31],[96.42,3.87],[95.38,4.97],[95.29,5.48],[95.94,5.44],[97.48,5.25],[98.37,4.27],[99.14,3.59],[99.69,3.17],[100.64,2.1],[101.66,2.08],[102.5,1.4],[103.08,0.56],[103.84,0.1],[103.44,-0.71],[104.01,-1.06],[104.37,-1.08],[104.54,-1.78],[104.89,-2.34],[105.62,-2.43],[106.11,-3.06],[105.86,-4.31],[105.82,-5.85]]]}},{"type":"Feature","properties":{},"geometry":{"type":"Polygon","coordinates":[[[117.88,1.83],[119.0,0.9],[117.81,0.78],[117.48,0.1],[117.52,-0.8],[116.56,-1.49],[116.53,-2.48],[116.15,-4.01],[116.0,-3.66],[114.86,-4.11],[114.47,-3.5],[113.76,-3.44],[113.26,-3.12],[112.07,-3.48],[111.7,-2.99],[111.05,-3.05],[110.22,-2.93],[110.07,-1.59],[109.57,-1.31],[109.09,-0.46],[108.95,0.42],[109.07,1.34],[109.66,2.01],[110.4,1.66],[111.17,1.85],[111.37,2.7],[111.8,2.89],[113.0,3.1],[113.71,3.89],[114.2,4.53],[114.6,4.9],[115.45,5.45],[116.22,6.14],[116.73,6.92],[117.13,6.93],[117.64,6.42],[117.69,5.99],[118.35,5.71],[119.18,5.41],[119.11,5.02],[118.44,4.97],[118.62,4.48],[117.88,4.14],[117.31,3.23],[118.05,2.29],[117.88,1.83]]]}},{"type":"Feature","properties":{},"geometry":{"type":"Polygon","coordinates":[[[81.22,6.2],[80.35,5.97],[79.87,6.76],[79.7,8.2],[80.15,9.82],[80.84,9.27],[81.3,8.56],[81.79,7.52],[81.64,6.48],[81.22,6.2]]]}},{"type":"Feature","properties":{},"geometry":{"type":"Polygon","coordinates":[[[118.5,9.32],[117.17,8.37],[117.66,9.07],[118.39,9.68],[118.99,10.38],[119.51,11.37],[119.69,10.55],[119.03,10.0],[118.5,9.32]]]}},{"type":"Feature","properties":{},"geometry":{"type":"Polygon","coordinates":[[[121.32,18.5],[121.94,18.22],[122.25,18.48],[122.34,18.22],[122.17,17.81],[122.52,17.09],[122.25,16.26],[121.66,15.93],[121.51,15.12],[121.73,14.33],[122.26,14.22],[122.7,14.34],[123.95,13.78],[123.86,13.24],[124.18,13.0],[124.08,12.54],[123.3,13.03],[122.93,13.55],[122.67,13.19],[122.03,13.78],[121.13,13.64],[120.63,13.86],[120.68,14.27],[120.99,14.53],[120.69,14.76],[120.56,14.4],[120.07,14.97],[119.92,15.41],[119.88,16.36],[120.29,16.03],[120.39,17.6],[120.72,18.51],[121.32,18.5]]]}},{"type":"Feature","properties":{},"geometry":{"type":"Polygon","coordinates":[[[110.34,18.68],[109.48,18.2],[108.66,18.51],[108.63,19.37],[109.12,19.82],[110.21,20.1],[110.79,20.08],[111.01,19.7],[110.57,19.26],[110.34,18.68]]]}},{"type":"Feature","properties":{},"geometry":{"type":"Polygon","coordinates":[[[34.58,35.67],[33.9,35.25],[33.97,35.06],[34.0,34.98],[32.98,34.57],[32.49,34.7],[32.26,35.1],[32.73,35.14],[32.8,35.15],[32.95,35.39],[33.67,35.37],[34.58,35.67]]]}},{"type":"Feature","properties":{},"geometry":{"type":"Polygon","coordinates":[[[23.7,35.71],[24.25,35.37],[25.03,35.42],[25.77,35.35],[25.75,35.18],[26.29,35.3],[26.16,35.0],[24.72,34.92],[24.74,35.08],[23.51,35.28],[23.7,35.71]]]}},{"type":"Feature","properties":{},"geometry":{"type":"Polygon","coordinates":[[[15.52,38.23],[15.16,37.44],[15.31,37.13],[15.1,36.62],[14.34,37.0],[13.83,37.1],[12.43,37.61],[12.57,38.13],[13.74,38.03],[14.76,38.14],[15.52,38.23]]]}},{"type":"Feature","properties":{},"geometry":{"type":"Polygon","coordinates":[[[9.21,41.21],[9.81,40.5],[9.67,39.18],[9.21,39.24],[8.81,38.91],[8.43,39.17],[8.39,40.38],[8.16,40.95],[8.71,40.9],[9.21,41.21]]]}},{"type":"Feature","properties":{},"geometry":{"type":"Polygon","coordinates":[[[9.56,42.15],[9.23,41.38],[8.78,41.58],[8.54,42.26],[8.75,42.63],[9.39,43.01],[9.56,42.15]]]}},{"type":"Feature","properties":{},"geometry":{"type":"Polygon","coordinates":[[[-6.79,52.26],[-8.56,51.67],[-9.98,51.82],[-9.17,52.86],[-9.69,53.88],[-8.33,54.66],[-7.57,55.13],[-6.73,55.17],[-5.66,54.55],[-6.2,53.87],[-6.03,53.15],[-6.79,52.26]]]}},{"type":"Feature","properties":{},"geometry":{"type":"Polygon","coordinates":[[[12.69,55.61],[12.09,54.8],[11.04,55.36],[10.9,55.78],[12.37,56.11],[12.69,55.61]]]}},{"type":"Feature","properties":{},"geometry":{"type":"Polygon","coordinates":[[[-3.01,58.63],[-4.07,57.55],[-3.06,57.69],[-1.96,57.68],[-2.22,56.87],[-3.12,55.97],[-2.09,55.91],[-1.11,54.62],[-0.43,54.46],[0.18,53.33],[0.47,52.93],[1.68,52.74],[1.56,52.1],[1.05,51.81],[1.45,51.29],[0.55,50.77],[-0.79,50.77],[-2.49,50.5],[-2.96,50.7],[-3.62,50.23],[-4.54,50.34],[-5.25,49.96],[-5.78,50.16],[-4.31,51.21],[-3.41,51.43],[-4.98,51.59],[-5.27,51.99],[-4.22,52.3],[-4.77,52.84],[-4.58,53.5],[-3.09,53.4],[-2.95,53.98],[-3.63,54.62],[-4.84,54.79],[-5.08,55.06],[-4.72,55.51],[-5.05,55.78],[-5.59,55.31],[-5.64,56.28],[-6.15,56.79],[-5.79,57.82],[-5.01,58.63],[-4.21,58.55],[-3.01,58.63]]]}},{"type":"Feature","properties":{},"geometry":{"type":"Polygon","coordinates":[[[-14.51,66.46],[-14.74,65.81],[-13.61,65.13],[-14.91,64.36],[-17.79,63.68],[-18.66,63.5],[-19.97,63.64],[-22.76,63.96],[-21.78,64.4],[-23.96,64.89],[-22.18,65.08],[-22.23,65.38],[-24.33,65.61],[-23.65,66.26],[-22.13,66.41],[-20.58,65.73],[-19.06,66.28],[-17.8,65.99],[-16.17,66.53],[-14.51,66.46]]]}},{"type":"Feature","properties":{},"geometry":{"type":"Polygon","coordinates":[[[57.54,70.72],[56.94,70.63],[53.68,70.76],[53.41,71.21],[51.6,71.47],[51.46,72.01],[52.48,72.23],[52.44,72.77],[54.43,73.63],[53.51,73.75],[55.9,74.63],[55.63,75.08],[57.87,75.61],[61.17,76.25],[64.5,76.44],[66.21,76.81],[68.16,76.94],[68.85,76.54],[68.18,76.23],[64.64,75.74],[61.58,75.26],[58.48,74.31],[56.99,73.33],[55.42,72.37],[55.62,71.54],[57.54,70.72]]]}},{"type":"Feature","properties":{},"geometry":{"type":"Polygon","coordinates":[[[106.97,76.97],[107.24,76.48],[108.15,76.72],[111.08,76.71],[113.33,76.22],[114.13,75.85],[113.89,75.33],[112.78,75.03],[110.15,74.48],[109.4,74.18],[110.64,74.04],[112.12,73.79],[113.02,73.98],[113.53,73.34],[113.97,73.59],[115.57,73.75],[118.78,73.59],[119.02,73.12],[123.2,72.97],[123.26,73.74],[125.38,73.56],[126.98,73.57],[128.59,73.04],[129.05,72.4],[128.46,71.98],[129.72,71.19],[131.29,70.79],[132.25,71.84],[133.86,71.39],[135.56,71.66],[137.5,71.35],[138.23,71.63],[139.87,71.49],[139.15,72.42],[140.47,72.85],[149.5,72.2],[150.35,71.61],[152.97,70.84],[157.01,71.03],[159.0,70.87],[159.83,70.45],[159.71,69.72],[160.94,69.44],[162.28,69.64],[164.05,69.67],[165.94,69.47],[167.84,69.58],[169.58,68.69],[170.82,69.01],[170.01,69.65],[170.45,70.1],[173.64,69.82],[175.72,69.88],[178.6,69.4],[180,68.96],[180,64.98],[179.99,64.97],[178.71,64.53],[177.41,64.61],[178.31,64.08],[178.91,63.25],[179.37,62.98],[179.49,62.57],[179.23,62.3],[177.36,62.52],[174.57,61.77],[173.68,61.65],[172.15,60.95],[170.7,60.34],[170.33,59.88],[168.9,60.57],[166.3,59.79],[165.84,60.16],[164.88,59.73],[163.54,59.87],[163.22,59.21],[162.02,58.24],[162.05,57.84],[163.19,57.62],[163.06,56.16],[162.13,56.12],[161.7,55.29],[162.12,54.86],[160.37,54.34],[160.02,53.2],[158.53,52.96],[158.23,51.94],[156.79,51.01],[156.42,51.7],[155.99,53.16],[155.43,55.38],[155.91,56.77],[156.76,57.36],[156.81,57.83],[158.36,58.06],[160.15,59.31],[161.87,60.34],[163.67,61.14],[164.47,62.55],[163.26,62.47],[162.66,61.64],[160.12,60.54],[159.3,61.77],[156.72,61.43],[154.22,59.76],[155.04,59.15],[152.81,58.88],[151.27,58.78],[151.34,59.5],[149.78,59.66],[148.54,59.16],[145.49,59.34],[142.2,59.04],[138.96,57.09],[135.13,54.73],[136.7,54.6],[137.19,53.98],[138.16,53.76],[138.8,54.25],[139.9,54.19],[141.35,53.09],[141.38,52.24],[140.6,51.24],[140.51,50.05],[140.06,48.45],[138.55,47.0],[138.22,46.31],[136.86,45.14],[135.52,43.99],[134.87,43.4],[133.54,42.81],[132.91,42.8],[132.28,43.28],[130.94,42.55],[130.78,42.22],[130.4,42.28],[129.97,41.94],[129.67,41.6],[129.71,40.88],[129.19,40.66],[129.01,40.49],[128.63,40.19],[127.97,40.03],[127.53,39.76],[127.5,39.32],[127.39,39.21],[127.78,39.05],[128.35,38.61],[129.21,37.43],[129.46,36.78],[129.47,35.63],[129.09,35.08],[128.19,34.89],[127.39,34.48],[126.49,34.39],[126.37,34.93],[126.56,35.68],[126.12,36.73],[126.86,36.89],[126.17,37.75],[125.69,37.94],[125.57,37.75],[125.28,37.67],[125.24,37.86],[124.98,37.95],[124.71,38.11],[124.99,38.55],[125.22,38.67],[125.13,38.85],[125.39,39.39],[125.32,39.55],[124.74,39.66],[124.27,39.93],[122.87,39.64],[122.13,39.17],[121.05,38.9],[121.59,39.36],[121.38,39.75],[122.17,40.42],[121.64,40.95],[120.77,40.59],[119.64,39.9],[119.02,39.25],[118.04,39.2],[117.53,38.74],[118.06,38.06],[118.88,37.9],[118.91,37.45],[119.7,37.16],[120.82,37.87],[121.71,37.48],[122.36,37.45],[122.52,36.93],[121.1,36.65],[120.64,36.11],[119.66,35.61],[119.15,34.91],[120.23,34.36],[120.62,33.38],[121.23,32.46],[121.91,31.69],[121.89,30.95],[121.26,30.68],[121.5,30.14],[122.09,29.83],[121.94,29.02],[121.68,28.23],[121.13,28.14],[120.4,27.05],[119.59,25.74],[118.66,24.55],[117.28,23.62],[115.89,22.78],[114.76,22.67],[114.15,22.22],[113.81,22.55],[113.24,22.05],[111.84,21.55],[110.79,21.4],[110.44,20.34],[109.89,20.28],[109.63,21.01],[109.86,21.4],[108.52,21.72],[108.05,21.55],[106.72,20.7],[105.88,19.75],[105.66,19.06],[106.43,18.0],[107.36,16.7],[108.27,16.08],[108.88,15.28],[109.34,13.43],[109.2,11.67],[108.37,11.01],[107.22,10.36],[106.41,9.53],[105.16,8.6],[104.8,9.24],[105.08,9.92],[104.33,10.49],[103.5,10.63],[103.09,11.15],[102.59,12.19],[101.69,12.65],[100.83,12.63],[100.98,13.41],[100.1,13.41],[100.02,12.31],[99.48,10.85],[99.15,9.96],[99.22,9.24],[99.87,9.21],[100.28,8.3],[100.46,7.43],[101.02,6.86],[101.62,6.74],[102.14,6.22],[102.37,6.13],[102.96,5.52],[103.38,4.86],[103.44,4.18],[103.33,3.73],[103.43,3.38],[103.5,2.79],[103.85,2.52],[104.25,1.63],[104.23,1.29],[103.52,1.23],[102.57,1.97],[101.39,2.76],[101.27,3.27],[100.7,3.94],[100.56,4.77],[100.2,5.31],[100.31,6.04],[100.09,6.46],[99.69,6.85],[99.52,7.34],[98.99,7.91],[98.5,8.38],[98.34,7.79],[98.15,8.35],[98.26,8.97],[98.55,9.93],[98.46,10.68],[98.76,11.44],[98.43,12.03],[98.51,13.12],[98.1,13.64],[97.78,14.84],[97.6,16.1],[97.16,16.93],[96.51,16.43],[95.37,15.71],[94.81,15.8],[94.19,16.04],[94.53,17.28],[94.32,18.21],[93.54,19.37],[93.66,19.73],[93.08,19.86],[92.37,20.67],[92.08,21.19],[92.03,21.7],[91.83,22.18],[91.42,22.77],[90.5,22.81],[90.59,22.39],[90.27,21.84],[89.85,22.04],[89.7,21.86],[89.42,21.97],[89.03,22.06],[88.89,21.69],[88.21,21.7],[86.98,21.5],[87.03,20.74],[86.5,20.15],[85.06,19.48],[83.94,18.3],[83.19,17.67],[82.19,17.02],[82.19,16.56],[81.69,16.31],[80.79,15.95],[80.32,15.9],[80.03,15.14],[80.23,13.84],[80.29,13.01],[79.86,12.06],[79.86,10.36],[79.34,10.31],[78.89,9.55],[79.19,9.22],[78.28,8.93],[77.94,8.25],[77.54,7.97],[76.59,8.9],[76.13,10.3],[75.75,11.31],[75.4,11.78],[74.86,12.74],[74.62,13.99],[74.44,14.62],[73.53,15.99],[73.12,17.93],[72.82,19.21],[72.82,20.42],[72.63,21.36],[71.18,20.76],[70.47,20.88],[69.16,22.09],[69.64,22.45],[69.35,22.84],[68.18,23.69],[67.44,23.94],[67.15,24.66],[66.37,25.43],[64.53,25.24],[62.91,25.22],[61.5,25.08],[59.62,25.38],[58.53,25.61],[57.4,25.74],[56.97,26.97],[56.49,27.14],[55.72,26.96],[54.72,26.48],[53.49,26.81],[52.48,27.58],[51.52,27.87],[50.85,28.81],[50.12,30.15],[49.58,29.99],[48.94,30.32],[48.57,29.93],[47.97,29.98],[48.18,29.53],[48.09,29.31],[48.42,28.55],[48.81,27.69],[49.3,27.46],[49.47,27.11],[50.15,26.69],[50.21,26.28],[50.11,25.94],[50.24,25.61],[50.53,25.33],[50.66,25.0],[50.81,24.75],[50.74,25.48],[51.01,26.01],[51.29,26.11],[51.59,25.8],[51.61,25.22],[51.39,24.63],[51.58,24.25],[51.76,24.29],[51.79,24.02],[52.58,24.18],[53.4,24.15],[54.01,24.12],[54.69,24.8],[55.44,25.44],[56.07,26.06],[56.36,26.4],[56.49,26.31],[56.39,25.9],[56.26,25.71],[56.4,24.92],[56.85,24.24],[57.4,23.88],[58.14,23.75],[58.73,23.57],[59.18,22.99],[59.45,22.66],[59.81,22.53],[59.81,22.31],[59.44,21.71],[59.28,21.43],[58.86,21.11],[58.49,20.43],[58.03,20.48],[57.83,20.24],[57.67,19.74],[57.79,19.07],[57.69,18.94],[57.23,18.95],[56.61,18.57],[56.51,18.09],[56.28,17.88],[55.66,17.88],[55.27,17.63],[55.27,17.23],[54.79,16.95],[54.24,17.05],[53.57,16.71],[53.11,16.65],[52.39,16.38],[52.19,15.94],[52.17,15.6],[51.17,15.18],[49.57,14.71],[48.68,14.0],[48.24,13.95],[47.94,14.01],[47.35,13.59],[46.72,13.4],[45.88,13.35],[45.63,13.29],[45.41,13.03],[45.14,12.95],[44.99,12.7],[44.49,12.72],[44.18,12.59],[43.48,12.64],[43.22,13.22],[43.25,13.77],[43.09,14.06],[42.89,14.8],[42.6,15.21],[42.81,15.26],[42.7,15.72],[42.82,15.91],[42.78,16.35],[42.65,16.77],[42.35,17.08],[42.27,17.47],[41.75,17.83],[41.22,18.67],[40.94,19.49],[40.25,20.17],[39.8,20.34],[39.14,21.29],[39.02,21.99],[39.07,22.58],[38.49,23.69],[38.02,24.08],[37.48,24.29],[37.15,24.86],[37.21,25.08],[36.93,25.6],[36.64,25.83],[36.25,26.57],[35.64,27.38],[35.13,28.06],[34.63,28.06],[34.79,28.61],[34.83,28.96],[34.96,29.36],[34.92,29.5],[34.64,29.1],[34.43,28.34],[34.15,27.82],[33.92,27.65],[33.59,27.97],[33.14,28.42],[32.42,29.85],[32.32,29.76],[32.73,28.71],[33.35,27.7],[34.1,26.14],[34.47,25.6],[34.8,25.03],[35.69,23.93],[35.49,23.75],[35.53,23.1],[36.69,22.2],[36.87,22.0],[37.19,21.02],[36.97,20.84],[37.11,19.81],[37.48,18.61],[37.86,18.37],[38.41,18.0],[38.99,16.84],[39.27,15.92],[39.81,15.44],[41.18,14.49],[41.73,13.92],[42.28,13.34],[42.59,13.0],[43.08,12.7],[43.32,12.39],[43.29,11.97],[42.72,11.74],[43.15,11.46],[43.47,11.28],[43.67,10.86],[44.12,10.45],[44.61,10.44],[45.56,10.7],[46.65,10.82],[47.53,11.13],[48.02,11.19],[48.38,11.38],[48.95,11.41],[49.27,11.43],[49.73,11.58],[50.26,11.68],[50.73,12.02],[51.11,12.02],[51.13,11.75],[51.04,11.17],[51.05,10.64],[50.83,10.28],[50.55,9.2],[50.07,8.08],[49.45,6.8],[48.59,5.34],[47.74,4.22],[46.56,2.86],[45.56,2.05],[44.07,1.05],[43.14,0.29],[42.04,-0.92],[41.81,-1.45],[41.59,-1.68],[40.88,-2.08],[40.64,-2.5],[40.26,-2.57],[40.12,-3.28],[39.8,-3.68],[39.6,-4.35],[39.2,-4.68],[38.74,-5.91],[38.8,-6.48],[39.44,-6.84],[39.47,-7.1],[39.19,-7.7],[39.25,-8.01],[39.19,-8.49],[39.54,-9.11],[39.95,-10.1],[40.32,-10.32],[40.48,-10.77],[40.44,-11.76],[40.56,-12.64],[40.6,-14.2],[40.78,-14.69],[40.48,-15.41],[40.09,-16.1],[39.45,-16.72],[38.54,-17.1],[37.41,-17.59],[36.28,-18.66],[35.9,-18.84],[35.2,-19.55],[34.79,-19.78],[34.7,-20.5],[35.18,-21.25],[35.37,-21.84],[35.39,-22.14],[35.56,-22.09],[35.53,-23.07],[35.37,-23.54],[35.61,-23.71],[35.46,-24.12],[35.04,-24.48],[34.22,-24.82],[33.01,-25.36],[32.57,-25.73],[32.66,-26.15],[32.92,-26.22],[32.83,-26.74],[32.58,-27.47],[32.46,-28.3],[32.2,-28.75],[31.52,-29.26],[31.33,-29.4],[30.9,-29.91],[30.62,-30.42],[30.06,-31.14],[28.93,-32.17],[28.22,-32.77],[27.46,-33.23],[26.42,-33.61],[25.91,-33.67],[25.78,-33.94],[25.17,-33.8],[24.68,-33.99],[23.59,-33.79],[22.99,-33.92],[22.57,-33.86],[21.54,-34.26],[20.69,-34.42],[20.07,-34.8],[19.62,-34.82],[19.19,-34.46],[18.86,-34.44],[18.42,-34.0],[18.38,-34.14],[18.24,-33.87],[18.25,-33.28],[17.93,-32.61],[18.25,-32.43],[18.22,-31.66],[17.57,-30.73],[17.06,-29.88],[17.06,-29.88],[16.35,-28.58],[15.6,-27.82],[15.21,-27.09],[14.99,-26.12],[14.74,-25.39],[14.41,-23.85],[14.39,-22.66],[14.26,-22.11],[13.87,-21.7],[13.35,-20.87],[12.83,-19.67],[12.61,-19.05],[11.79,-18.07],[11.73,-17.3],[11.64,-16.67],[11.78,-15.79],[12.12,-14.88],[12.18,-14.45],[12.5,-13.55],[12.74,-13.14],[13.31,-12.48],[13.63,-12.04],[13.74,-11.3],[13.69,-10.73],[13.39,-10.37],[13.12,-9.77],[12.88,-9.17],[12.93,-8.96],[13.24,-8.56],[12.93,-7.6],[12.73,-6.93],[12.23,-6.29],[12.32,-6.1],[12.18,-5.79],[11.92,-5.04],[11.09,-3.98],[10.07,-2.97],[9.41,-2.14],[8.8,-1.11],[8.83,-0.78],[9.05,-0.46],[9.29,0.27],[9.49,1.01],[9.31,1.16],[9.65,2.28],[9.8,3.07],[9.4,3.73],[8.95,3.9],[8.74,4.35],[8.49,4.5],[8.5,4.77],[7.46,4.41],[7.08,4.46],[6.7,4.24],[5.9,4.26],[5.36,4.89],[5.03,5.61],[4.33,6.27],[3.57,6.26],[2.69,6.26],[1.87,6.14],[1.06,5.93],[-0.51,5.34],[-1.06,5.0],[-1.96,4.71],[-2.86,4.99],[-3.31,4.98],[-4.01,5.18],[-4.65,5.17],[-5.83,4.99],[-6.53,4.71],[-7.52,4.34],[-7.71,4.36],[-7.97,4.36],[-9.0,4.83],[-9.91,5.59],[-10.77,6.14],[-11.44,6.79],[-11.71,6.86],[-12.43,7.26],[-12.95,7.8],[-13.12,8.16],[-13.25,8.9],[-13.69,9.49],[-14.07,9.89],[-14.33,10.02],[-14.58,10.21],[-14.69,10.66],[-14.84,10.88],[-15.13,11.04],[-15.66,11.46],[-16.09,11.52],[-16.31,11.81],[-16.31,11.96],[-16.61,12.17],[-16.68,12.38],[-16.84,13.15],[-16.71,13.6],[-17.13,14.37],[-17.62,14.73],[-17.19,14.92],[-16.7,15.62],[-16.46,16.14],[-16.55,16.67],[-16.27,17.17],[-16.15,18.11],[-16.26,19.1],[-16.38,19.59],[-16.28,20.09],[-16.54,20.57],[-17.06,21.0],[-17.02,21.42],[-16.97,21.89],[-16.59,22.16],[-16.26,22.68],[-16.33,23.02],[-15.98,23.72],[-15.43,24.36],[-15.09,24.52],[-14.82,25.1],[-14.8,25.64],[-14.44,26.25],[-13.77,26.62],[-13.14,27.64],[-12.62,28.04],[-11.69,28.15],[-10.9,28.83],[-10.4,29.1],[-9.56,29.93],[-9.81,31.18],[-9.43,32.04],[-9.3,32.56],[-8.66,33.24],[-7.65,33.7],[-6.91,34.11],[-6.24,35.15],[-5.93,35.76],[-5.19,35.76],[-4.59,35.33],[-3.64,35.4],[-2.6,35.18],[-2.17,35.17],[-1.21,35.71],[-0.13,35.89],[0.5,36.3],[1.47,36.61],[3.16,36.78],[4.82,36.87],[5.32,36.72],[6.26,37.11],[7.33,37.12],[7.74,36.89],[8.42,36.95],[9.51,37.35],[10.21,37.23],[10.18,36.72],[11.03,37.09],[11.1,36.9],[10.6,36.41],[10.59,35.95],[10.94,35.7],[10.81,34.83],[10.15,34.33],[10.34,33.79],[10.86,33.77],[11.11,33.29],[11.49,33.14],[12.66,32.79],[13.08,32.88],[13.92,32.71],[15.25,32.27],[15.71,31.38],[16.61,31.18],[18.02,30.76],[19.09,30.27],[19.57,30.53],[20.05,30.99],[19.82,31.75],[20.13,32.24],[20.85,32.71],[21.54,32.84],[22.9,32.64],[23.24,32.19],[23.61,32.19],[23.93,32.02],[24.92,31.9],[25.16,31.57],[26.5,31.59],[27.46,31.32],[28.45,31.03],[28.91,30.87],[29.68,31.19],[30.1,31.47],[30.98,31.56],[31.69,31.43],[31.96,30.93],[32.19,31.26],[32.99,31.02],[33.77,30.97],[34.27,31.22],[34.56,31.55],[34.49,31.61],[34.75,32.07],[34.96,32.83],[35.1,33.08],[35.13,33.09],[35.48,33.91],[35.98,34.61],[36.0,34.64],[35.91,35.41],[36.15,35.82],[35.78,36.28],[36.16,36.65],[35.55,36.57],[34.71,36.8],[34.03,36.22],[32.51,36.11],[31.7,36.64],[30.62,36.68],[30.39,36.26],[29.7,36.14],[28.73,36.68],[27.64,36.66],[27.05,37.65],[26.32,38.21],[26.8,38.99],[26.17,39.46],[27.28,40.42],[28.82,40.46],[29.24,41.22],[31.15,41.09],[32.35,41.74],[33.51,42.02],[35.17,42.04],[36.91,41.34],[38.35,40.95],[39.51,41.1],[40.37,41.01],[41.55,41.54],[41.7,41.96],[41.45,42.65],[40.88,43.01],[40.32,43.13],[39.96,43.44],[38.68,44.28],[37.54,44.66],[36.68,45.24],[37.4,45.4],[38.23,46.24],[37.67,46.64],[39.15,47.04],[39.12,47.26],[38.22,47.1],[37.43,47.02],[36.76,46.7],[35.82,46.65],[34.96,46.27],[35.02,45.65],[35.51,45.41],[36.53,45.47],[36.33,45.11],[35.24,44.94],[33.88,44.36],[33.33,44.56],[33.55,45.03],[32.45,45.33],[32.63,45.52],[33.59,45.85],[33.3,46.08],[31.74,46.33],[31.68,46.71],[30.75,46.58],[30.38,46.03],[29.6,45.29],[29.63,45.04],[29.14,44.82],[28.84,44.91],[28.56,43.71],[28.04,43.29],[27.67,42.58],[28.0,42.01],[28.12,41.62],[28.99,41.3],[28.81,41.05],[27.62,41.0],[27.19,40.69],[26.36,40.15],[26.04,40.62],[26.06,40.82],[25.45,40.85],[24.93,40.95],[23.71,40.69],[24.41,40.13],[23.9,39.96],[23.34,39.96],[22.81,40.48],[22.63,40.26],[22.85,39.66],[23.35,39.19],[22.97,38.97],[23.53,38.51],[24.03,38.22],[24.04,37.66],[23.12,37.92],[23.41,37.41],[22.78,37.31],[23.15,36.42],[22.49,36.41],[21.67,36.85],[21.3,37.65],[21.12,38.31],[20.73,38.77],[20.22,39.34],[20.15,39.63],[19.98,39.7],[19.96,39.92],[19.41,40.25],[19.32,40.73],[19.4,41.41],[19.54,41.72],[19.37,41.88],[19.16,41.96],[18.88,42.28],[18.45,42.48],[17.51,42.85],[16.93,43.21],[16.02,43.51],[15.17,44.24],[15.38,44.32],[14.92,44.74],[14.9,45.08],[14.26,45.23],[13.95,44.8],[13.66,45.14],[13.68,45.48],[13.72,45.5],[13.94,45.59],[13.14,45.74],[12.33,45.38],[12.38,44.89],[12.26,44.6],[12.59,44.09],[13.53,43.59],[14.03,42.76],[15.14,41.96],[15.93,41.96],[16.17,41.74],[15.89,41.54],[16.79,41.18],[17.52,40.88],[18.38,40.36],[18.48,40.17],[18.29,39.81],[17.74,40.28],[16.87,40.44],[16.45,39.8],[17.17,39.42],[17.05,38.9],[16.64,38.84],[16.1,37.99],[15.68,37.91],[15.69,38.21],[15.89,38.75],[16.11,38.96],[15.72,39.54],[15.41,40.05],[15.0,40.17],[14.7,40.6],[14.06,40.79],[13.63,41.19],[12.89,41.25],[12.11,41.7],[11.19,42.36],[10.51,42.93],[10.2,43.92],[9.7,44.04],[8.89,44.37],[8.43,44.23],[7.85,43.77],[7.44,43.69],[6.53,43.13],[4.56,43.4],[3.1,43.08],[2.99,42.47],[3.04,41.89],[2.09,41.23],[0.81,41.01],[0.72,40.68],[0.11,40.12],[-0.28,39.31],[0.11,38.74],[-0.47,38.29],[-0.68,37.64],[-1.44,37.44],[-2.15,36.67],[-3.42,36.66],[-4.37,36.68],[-5.0,36.32],[-5.38,35.95],[-5.87,36.03],[-6.24,36.37],[-6.52,36.94],[-7.45,37.1],[-7.86,36.84],[-8.38,36.98],[-8.9,36.87],[-8.75,37.65],[-8.84,38.27],[-9.29,38.36],[-9.53,38.74],[-9.45,39.39],[-9.05,39.76],[-8.98,40.16],[-8.77,40.76],[-8.79,41.18],[-8.99,41.54],[-9.03,41.88],[-8.98,42.59],[-9.39,43.03],[-7.98,43.75],[-6.75,43.57],[-5.41,43.57],[-4.35,43.4],[-3.52,43.46],[-1.9,43.42],[-1.38,44.02],[-1.19,46.01],[-2.23,47.06],[-2.96,47.57],[-4.49,47.96],[-4.59,48.68],[-3.3,48.9],[-1.62,48.64],[-1.93,49.78],[-0.99,49.35],[1.34,50.13],[1.64,50.95],[2.51,51.15],[3.32,51.35],[3.83,51.62],[4.71,53.09],[6.07,53.51],[6.91,53.48],[7.1,53.69],[7.94,53.75],[8.12,53.53],[8.8,54.02],[8.57,54.4],[8.53,54.96],[8.12,55.52],[8.09,56.54],[8.26,56.81],[8.54,57.11],[9.42,57.17],[9.78,57.45],[10.58,57.73],[10.55,57.22],[10.25,56.89],[10.37,56.61],[10.91,56.46],[10.67,56.08],[10.37,56.19],[9.65,55.47],[9.92,54.98],[9.94,54.6],[10.95,54.36],[10.94,54.01],[11.96,54.2],[12.52,54.47],[13.65,54.08],[14.12,53.76],[14.8,54.05],[16.36,54.51],[17.62,54.85],[18.62,54.68],[18.7,54.44],[19.66,54.43],[19.89,54.87],[21.27,55.19],[21.06,56.03],[21.09,56.78],[21.58,57.41],[22.52,57.75],[23.32,57.01],[24.12,57.03],[24.31,57.79],[24.43,58.38],[24.06,58.26],[23.43,58.61],[23.34,59.19],[24.6,59.47],[25.86,59.61],[26.95,59.45],[27.98,59.48],[29.12,60.03],[28.07,60.5],[26.26,60.42],[24.5,60.06],[22.87,59.85],[22.29,60.39],[21.32,60.72],[21.54,61.71],[21.06,62.61],[21.54,63.19],[22.44,63.82],[24.73,64.9],[25.4,65.11],[25.29,65.53],[23.9,66.01],[22.18,65.72],[21.21,65.03],[21.37,64.41],[19.78,63.61],[17.85,62.75],[17.12,61.34],[17.83,60.64],[18.79,60.08],[17.87,58.95],[16.83,58.72],[16.45,57.04],[15.88,56.1],[14.67,56.2],[14.1,55.41],[12.94,55.36],[12.63,56.31],[11.79,57.44],[11.03,58.86],[10.36,59.47],[8.38,58.31],[7.05,58.08],[5.67,58.59],[5.31,59.66],[4.99,61.97],[5.91,62.61],[8.55,63.45],[10.53,64.49],[12.36,65.88],[14.76,67.81],[16.44,68.56],[19.18,69.82],[21.38,70.26],[23.02,70.2],[24.55,71.03],[26.37,70.99],[28.17,71.19],[31.29,70.45],[30.01,70.19],[31.1,69.56],[32.13,69.91],[33.78,69.3],[36.51,69.06],[40.29,67.93],[41.06,67.46],[41.13,66.79],[40.02,66.27],[38.38,66.0],[33.92,66.76],[33.18,66.63],[34.81,65.9],[34.94,64.41],[36.23,64.11],[37.01,63.85],[37.14,64.33],[36.52,64.78],[37.18,65.14],[39.59,64.52],[40.44,64.76],[39.76,65.5],[42.09,66.48],[43.02,66.42],[43.95,66.07],[44.53,66.76],[43.7,67.35],[44.19,67.95],[43.45,68.57],[46.25,68.25],[46.82,67.69],[45.56,67.57],[45.56,67.01],[46.35,66.67],[47.89,66.88],[48.14,67.52],[50.23,68.0],[53.72,68.86],[54.47,68.81],[53.49,68.2],[54.73,68.1],[55.44,68.44],[57.32,68.47],[58.8,68.88],[59.94,68.28],[61.08,68.94],[60.03,69.52],[60.55,69.85],[63.5,69.55],[64.89,69.23],[68.51,68.09],[69.18,68.62],[68.16,69.14],[68.14,69.36],[66.93,69.45],[67.26,69.93],[66.72,70.71],[66.69,71.03],[68.54,71.93],[69.2,72.84],[69.94,73.04],[72.59,72.78],[72.8,72.22],[71.85,71.41],[72.47,71.09],[72.79,70.39],[72.56,69.02],[73.67,68.41],[73.24,67.74],[71.28,66.32],[72.42,66.17],[72.82,66.53],[73.92,66.79],[74.19,67.28],[75.05,67.76],[74.47,68.33],[74.94,68.99],[73.84,69.07],[73.6,69.63],[74.4,70.63],[73.1,71.45],[74.89,72.12],[74.66,72.83],[75.16,72.86],[75.68,72.3],[75.29,71.34],[76.36,71.15],[75.9,71.87],[77.58,72.27],[79.65,72.32],[81.5,71.75],[80.61,72.58],[80.51,73.65],[82.25,73.85],[84.66,73.81],[86.82,73.94],[86.01,74.46],[87.17,75.12],[88.32,75.14],[90.26,75.64],[92.9,75.77],[93.23,76.05],[95.86,76.14],[96.68,75.92],[98.92,76.45],[100.76,76.43],[101.04,76.86],[101.99,77.29],[104.35,77.7],[106.07,77.37],[104.71,77.13],[106.97,76.97]],[[49.11,41.28],[49.62,40.57],[50.08,40.53],[50.39,40.26],[49.57,40.18],[49.4,39.4],[49.22,39.05],[48.86,38.82],[48.88,38.32],[49.2,37.58],[50.15,37.37],[50.84,36.87],[52.26,36.7],[53.83,36.97],[53.92,37.2],[53.74,37.91],[53.88,38.95],[53.1,39.29],[53.36,39.98],[52.69,40.03],[52.92,40.88],[53.86,40.63],[54.74,40.95],[54.01,41.55],[53.72,42.12],[52.92,41.87],[52.81,41.14],[52.5,41.78],[52.45,42.03],[52.69,42.44],[52.5,42.79],[51.34,43.13],[50.89,44.03],[50.34,44.28],[50.31,44.61],[51.28,44.51],[51.32,45.25],[52.17,45.41],[53.04,45.26],[53.22,46.23],[53.04,46.85],[52.04,46.8],[51.19,47.05],[50.03,46.61],[49.1,46.4],[48.65,45.81],[47.68,45.64],[46.68,44.61],[47.59,43.66],[47.49,42.99],[48.58,41.81],[49.11,41.28]]]}},{"type":"Feature","properties":{},"geometry":{"type":"Polygon","coordinates":[[[-27.1,83.52],[-20.85,82.73],[-22.69,82.34],[-26.52,82.3],[-31.9,82.2],[-31.4,82.02],[-27.86,82.13],[-24.84,81.79],[-22.9,82.09],[-22.07,81.73],[-23.17,81.15],[-20.62,81.52],[-15.77,81.91],[-12.77,81.72],[-12.21,81.29],[-16.29,80.58],[-16.85,80.35],[-20.05,80.18],[-17.73,80.13],[-18.9,79.4],[-19.7,78.75],[-19.67,77.64],[-18.47,76.99],[-20.04,76.94],[-21.68,76.63],[-19.83,76.1],[-19.6,75.25],[-20.67,75.16],[-19.37,74.3],[-21.59,74.22],[-20.43,73.82],[-20.76,73.46],[-22.17,73.31],[-23.57,73.31],[-22.31,72.63],[-22.3,72.18],[-24.28,72.6],[-24.79,72.33],[-23.44,72.08],[-22.13,71.47],[-21.75,70.66],[-23.54,70.47],[-24.31,70.86],[-25.54,71.43],[-25.2,70.75],[-26.36,70.23],[-23.73,70.18],[-22.35,70.13],[-25.03,69.26],[-27.75,68.47],[-30.67,68.13],[-31.78,68.12],[-32.81,67.74],[-34.2,66.68],[-36.35,65.98],[-37.04,65.94],[-38.38,65.69],[-39.81,65.46],[-40.67,64.84],[-40.68,64.14],[-41.19,63.48],[-42.82,62.68],[-42.42,61.9],[-42.87,61.07],[-43.38,60.1],[-44.79,60.04],[-46.26,60.85],[-48.26,60.86],[-49.23,61.41],[-49.9,62.38],[-51.63,63.63],[-52.14,64.28],[-52.28,65.18],[-53.66,66.1],[-53.3,66.84],[-53.97,67.19],[-52.98,68.36],[-51.48,68.73],[-51.08,69.15],[-50.87,69.93],[-52.01,69.57],[-52.56,69.43],[-53.46,69.28],[-54.68,69.61],[-54.75,70.29],[-54.36,70.82],[-53.43,70.84],[-51.39,70.57],[-53.11,71.2],[-54.0,71.55],[-55,71.41],[-55.83,71.65],[-54.72,72.59],[-55.33,72.96],[-56.12,73.65],[-57.32,74.71],[-58.6,75.1],[-58.59,75.52],[-61.27,76.1],[-63.39,76.18],[-66.06,76.13],[-68.5,76.06],[-69.66,76.38],[-71.4,77.01],[-68.78,77.32],[-66.76,77.38],[-71.04,77.64],[-73.3,78.04],[-73.16,78.43],[-69.37,78.91],[-65.71,79.39],[-65.32,79.76],[-68.02,80.12],[-67.15,80.52],[-63.69,81.21],[-62.23,81.32],[-62.65,81.77],[-60.28,82.03],[-57.21,82.19],[-54.13,82.2],[-53.04,81.89],[-50.39,82.44],[-48.0,82.06],[-46.6,81.99],[-44.52,81.66],[-46.9,82.2],[-46.76,82.63],[-43.41,83.23],[-39.9,83.18],[-38.62,83.55],[-35.09,83.65],[-27.1,83.52]]]}}]}